,Zipcodes,Zipcode Latitude,Zipcode Longitude,Business,City,Biz Zipcode,Biz Latitude,Biz Longitude
0,55014,45.161745,-93.12798,Aldi,Mounds View,55112,45.1058124,-93.2096783
1,55014,45.161745,-93.12798,Cub Foods,Arden Hills,55126,45.0539865,-93.1471417
2,55016,44.826135,-92.926328,Spice Bazaar,Woodbury,55125,44.926034,-92.966741
3,55016,44.826135,-92.926328,Kowalski's Market,Woodbury,55125,44.91825,-92.93271
4,55024,44.628546,-93.138429,Fresh Thyme Farmers Market,Apple Valley,55124,44.7346506372045,-93.2055488
5,55024,44.628546,-93.138429,Hy-Vee,Lakeville,55044,44.715717,-93.1765775
6,55024,44.628546,-93.138429,Walmart Supercenter,Apple Valley,55124,44.7343725,-93.2245864
7,55044,44.634455,-93.27276,Hy-Vee Savage,Savage,55378,44.747856,-93.357161
8,55044,44.634455,-93.27276,Fresh Thyme Farmers Market,Apple Valley,55124,44.7346506372045,-93.2055488
9,55044,44.634455,-93.27276,Walmart Supercenter,Apple Valley,55124,44.7343725,-93.2245864
10,55068,44.7208,-93.0821,Hy-Vee,Eagan,55121,44.834436,-93.171476
11,55075,44.887994,-93.043004,Dragon Star Oriental Foods,Saint Paul,55104,44.96358,-93.1270399
12,55075,44.887994,-93.043004,Ha Tien Super Market,Saint Paul,55119,44.9504997,-93.0179289
13,55075,44.887994,-93.043004,88 Oriental Market,Saint Paul,55103,44.9560890197754,-93.1122131347656
14,55075,44.887994,-93.043004,Hmongtown Marketplace,Saint Paul,55103,44.9614715576172,-93.1088562011719
15,55075,44.887994,-93.043004,Shuang Hur Oriental Market,Saint Paul,55145,44.9553871154785,-93.1279449462891
16,55075,44.887994,-93.043004,Spice Bazaar,Woodbury,55125,44.926034,-92.966741
17,55075,44.887994,-93.043004,Sun Foods,Saint Paul,55103,44.95499,-93.12435
18,55075,44.887994,-93.043004,Hoa Mei Supermarket & Deli,Saint Paul,55106,44.9772606,-93.0642929
19,55075,44.887994,-93.043004,Golden Harvest Foods,Saint Paul,55106,44.9772606,-93.0622406
20,55075,44.887994,-93.043004,Double Dragon Foods,Saint Paul,55117,44.9780311584473,-93.1051864624023
21,55075,44.887994,-93.043004,Hy-Vee,Oakdale,55128,44.964436,-92.960653
22,55075,44.887994,-93.043004,The Olive Grove,Mendota Heights,55118,44.8847776311366,-93.1207394599915
23,55075,44.887994,-93.043004,St Paul Farmers' Market,Saint Paul,55101,44.9496031,-93.0850958
24,55075,44.887994,-93.043004,Lunds & Byerlys,Saint Paul,55101,44.9511210066,-93.0950692990493
25,55075,44.887994,-93.043004,Golden Karen Groceries,Saint Paul,55103,44.96003,-93.10715
26,55075,44.887994,-93.043004,52 Market & Trading,Saint Paul,55106,44.9709854125977,-93.0657043457031
27,55076,44.840187,-93.037013,Ha Tien Super Market,Saint Paul,55119,44.9504997,-93.0179289
28,55076,44.840187,-93.037013,88 Oriental Market,Saint Paul,55103,44.9560890197754,-93.1122131347656
29,55076,44.840187,-93.037013,Hmongtown Marketplace,Saint Paul,55103,44.9614715576172,-93.1088562011719
30,55076,44.840187,-93.037013,Sun Foods,Saint Paul,55103,44.95499,-93.12435
31,55076,44.840187,-93.037013,Spice Bazaar,Woodbury,55125,44.926034,-92.966741
32,55076,44.840187,-93.037013,The Olive Grove,Mendota Heights,55118,44.8847776311366,-93.1207394599915
33,55076,44.840187,-93.037013,St Paul Farmers' Market,Saint Paul,55101,44.9496031,-93.0850958
34,55076,44.840187,-93.037013,Golden Karen Groceries,Saint Paul,55103,44.96003,-93.10715
35,55076,44.840187,-93.037013,Hy-Vee,Oakdale,55128,44.964436,-92.960653
36,55076,44.840187,-93.037013,Lunds & Byerlys,Saint Paul,55101,44.9511210066,-93.0950692990493
37,55077,44.80766,-93.063149,The Olive Grove,Mendota Heights,55118,44.8847776311366,-93.1207394599915
38,55082,45.069391,-92.83386,Walmart Supercenter,Oak Park Heights,55082,45.03345,-92.83159
39,55101,44.966917,-93.084634,Dragon Star Oriental Foods,Saint Paul,55104,44.96358,-93.1270399
40,55101,44.966917,-93.084634,Ha Tien Super Market,Saint Paul,55119,44.9504997,-93.0179289
41,55101,44.966917,-93.084634,88 Oriental Market,Saint Paul,55103,44.9560890197754,-93.1122131347656
42,55101,44.966917,-93.084634,Kim's Oriental Market,Saint Paul,55104,44.961833487944,-93.167350127853
43,55101,44.966917,-93.084634,Hmongtown Marketplace,Saint Paul,55103,44.9614715576172,-93.1088562011719
44,55101,44.966917,-93.084634,Golden Harvest Foods,Saint Paul,55106,44.9772606,-93.0622406
45,55101,44.966917,-93.084634,Hoa Mei Supermarket & Deli,Saint Paul,55106,44.9772606,-93.0642929
46,55101,44.966917,-93.084634,Double Dragon Foods,Saint Paul,55117,44.9780311584473,-93.1051864624023
47,55101,44.966917,-93.084634,Shuang Hur Oriental Market,Saint Paul,55145,44.9553871154785,-93.1279449462891
48,55101,44.966917,-93.084634,Sun Foods,Saint Paul,55103,44.95499,-93.12435
49,55101,44.966917,-93.084634,St Paul Farmers' Market,Saint Paul,55101,44.9496031,-93.0850958
50,55101,44.966917,-93.084634,Shanghai Market,Saint Paul,55108,44.9770126342773,-93.1655349731445
51,55101,44.966917,-93.084634,52 Market & Trading,Saint Paul,55106,44.9709854125977,-93.0657043457031
52,55101,44.966917,-93.084634,Lunds & Byerlys,Saint Paul,55101,44.9511210066,-93.0950692990493
53,55101,44.966917,-93.084634,Golden Karen Groceries,Saint Paul,55103,44.96003,-93.10715
54,55101,44.966917,-93.084634,Star Ocean,Saint Paul,55104,44.9673119,-93.1503677
55,55101,44.966917,-93.084634,Cub Foods,Saint Paul,55104,44.9554854,-93.1610195
56,55101,44.966917,-93.084634,Frogtown Farm,Saint Paul,55104,44.9603049699889,-93.1403999994779
57,55101,44.966917,-93.084634,Lunds & Byerlys,Roseville,55113,45.0217986842788,-93.169967109729
58,55101,44.966917,-93.084634,The Olive Grove,Mendota Heights,55118,44.8847776311366,-93.1207394599915
59,55101,44.966917,-93.084634,Angus Meats,Saint Paul,55109,45.0229187011719,-93.0487365722656
60,55101,44.966917,-93.084634,Cub Foods,Arden Hills,55126,45.0539865,-93.1471417
61,55101,44.966917,-93.084634,Noodles & Company,Maplewood,55109,45.027715,-93.018846
62,55102,44.933307,-93.121401,Dragon Star Oriental Foods,Saint Paul,55104,44.96358,-93.1270399
63,55102,44.933307,-93.121401,Kim's Oriental Market,Saint Paul,55104,44.961833487944,-93.167350127853
64,55102,44.933307,-93.121401,Shuang Hur Oriental Market,Saint Paul,55145,44.9553871154785,-93.1279449462891
65,55102,44.933307,-93.121401,88 Oriental Market,Saint Paul,55103,44.9560890197754,-93.1122131347656
66,55102,44.933307,-93.121401,Sun Foods,Saint Paul,55103,44.95499,-93.12435
67,55102,44.933307,-93.121401,Hmongtown Marketplace,Saint Paul,55103,44.9614715576172,-93.1088562011719
68,55102,44.933307,-93.121401,Shanghai Wholesale,Minneapolis,55413,44.9952895,-93.2103175
69,55102,44.933307,-93.121401,Double Dragon Foods,Saint Paul,55117,44.9780311584473,-93.1051864624023
70,55102,44.933307,-93.121401,Hoa Mei Supermarket & Deli,Saint Paul,55106,44.9772606,-93.0642929
71,55102,44.933307,-93.121401,St Paul Farmers' Market,Saint Paul,55101,44.9496031,-93.0850958
72,55102,44.933307,-93.121401,Shanghai Market,Saint Paul,55108,44.9770126342773,-93.1655349731445
73,55102,44.933307,-93.121401,Golden Harvest Foods,Saint Paul,55106,44.9772606,-93.0622406
74,55102,44.933307,-93.121401,Cub Foods,Saint Paul,55104,44.9554854,-93.1610195
75,55102,44.933307,-93.121401,Lunds & Byerlys,Saint Paul,55101,44.9511210066,-93.0950692990493
76,55102,44.933307,-93.121401,52 Market & Trading,Saint Paul,55106,44.9709854125977,-93.0657043457031
77,55102,44.933307,-93.121401,Golden Karen Groceries,Saint Paul,55103,44.96003,-93.10715
78,55102,44.933307,-93.121401,Star Ocean,Saint Paul,55104,44.9673119,-93.1503677
79,55102,44.933307,-93.121401,Hy-Vee,Eagan,55121,44.834436,-93.171476
80,55102,44.933307,-93.121401,Frogtown Farm,Saint Paul,55104,44.9603049699889,-93.1403999994779
81,55102,44.933307,-93.121401,The Olive Grove,Mendota Heights,55118,44.8847776311366,-93.1207394599915
82,55102,44.933307,-93.121401,Lunds & Byerlys,Roseville,55113,45.0217986842788,-93.169967109729
83,55102,44.933307,-93.121401,Cub Foods,Arden Hills,55126,45.0539865,-93.1471417
84,55102,44.933307,-93.121401,Angus Meats,Saint Paul,55109,45.0229187011719,-93.0487365722656
85,55103,44.964258,-93.122627,Dragon Star Oriental Foods,Saint Paul,55104,44.96358,-93.1270399
86,55103,44.964258,-93.122627,Shuang Hur Oriental Market,Saint Paul,55145,44.9553871154785,-93.1279449462891
87,55103,44.964258,-93.122627,88 Oriental Market,Saint Paul,55103,44.9560890197754,-93.1122131347656
88,55103,44.964258,-93.122627,Hmongtown Marketplace,Saint Paul,55103,44.9614715576172,-93.1088562011719
89,55103,44.964258,-93.122627,Kim's Oriental Market,Saint Paul,55104,44.961833487944,-93.167350127853
90,55103,44.964258,-93.122627,Sun Foods,Saint Paul,55103,44.95499,-93.12435
91,55103,44.964258,-93.122627,Shanghai Wholesale,Minneapolis,55413,44.9952895,-93.2103175
92,55103,44.964258,-93.122627,Double Dragon Foods,Saint Paul,55117,44.9780311584473,-93.1051864624023
93,55103,44.964258,-93.122627,Hoa Mei Supermarket & Deli,Saint Paul,55106,44.9772606,-93.0642929
94,55103,44.964258,-93.122627,Shanghai Market,Saint Paul,55108,44.9770126342773,-93.1655349731445
95,55103,44.964258,-93.122627,Golden Harvest Foods,Saint Paul,55106,44.9772606,-93.0622406
96,55103,44.964258,-93.122627,St Paul Farmers' Market,Saint Paul,55101,44.9496031,-93.0850958
97,55103,44.964258,-93.122627,Cub Foods,Saint Paul,55104,44.9554854,-93.1610195
98,55103,44.964258,-93.122627,Star Ocean,Saint Paul,55104,44.9673119,-93.1503677
99,55103,44.964258,-93.122627,Frogtown Farm,Saint Paul,55104,44.9603049699889,-93.1403999994779
100,55103,44.964258,-93.122627,52 Market & Trading,Saint Paul,55106,44.9709854125977,-93.0657043457031
101,55103,44.964258,-93.122627,Golden Karen Groceries,Saint Paul,55103,44.96003,-93.10715
102,55103,44.964258,-93.122627,Lunds & Byerlys,Saint Paul,55101,44.9511210066,-93.0950692990493
103,55103,44.964258,-93.122627,The Olive Grove,Mendota Heights,55118,44.8847776311366,-93.1207394599915
104,55103,44.964258,-93.122627,Lunds & Byerlys,Roseville,55113,45.0217986842788,-93.169967109729
105,55103,44.964258,-93.122627,Cub Foods,Arden Hills,55126,45.0539865,-93.1471417
106,55103,44.964258,-93.122627,Angus Meats,Saint Paul,55109,45.0229187011719,-93.0487365722656
107,55104,44.954158,-93.159601,Dragon Star Oriental Foods,Saint Paul,55104,44.96358,-93.1270399
108,55104,44.954158,-93.159601,Kim's Oriental Market,Saint Paul,55104,44.961833487944,-93.167350127853
109,55104,44.954158,-93.159601,United Noodles,Minneapolis,55404,44.958324,-93.2424698
110,55104,44.954158,-93.159601,Shuang Hur Oriental Market,Saint Paul,55145,44.9553871154785,-93.1279449462891
111,55104,44.954158,-93.159601,Shanghai Wholesale,Minneapolis,55413,44.9952895,-93.2103175
112,55104,44.954158,-93.159601,88 Oriental Market,Saint Paul,55103,44.9560890197754,-93.1122131347656
113,55104,44.954158,-93.159601,Sun Foods,Saint Paul,55103,44.95499,-93.12435
114,55104,44.954158,-93.159601,Hmongtown Marketplace,Saint Paul,55103,44.9614715576172,-93.1088562011719
115,55104,44.954158,-93.159601,Cub Foods,Saint Paul,55104,44.9554854,-93.1610195
116,55104,44.954158,-93.159601,Shanghai Market,Saint Paul,55108,44.9770126342773,-93.1655349731445
117,55104,44.954158,-93.159601,Hana Asian Market,Bloomington,55425,44.83685,-93.24967
118,55104,44.954158,-93.159601,Double Dragon Foods,Saint Paul,55117,44.9780311584473,-93.1051864624023
119,55104,44.954158,-93.159601,Seoul Oriental Foods,Fridley,55432,45.0807533,-93.2411423
120,55104,44.954158,-93.159601,St Paul Farmers' Market,Saint Paul,55101,44.9496031,-93.0850958
121,55104,44.954158,-93.159601,Star Ocean,Saint Paul,55104,44.9673119,-93.1503677
122,55104,44.954158,-93.159601,Caspian Bistro & Marketplace,Minneapolis,55414,44.973218,-93.222054
123,55104,44.954158,-93.159601,Holy Land,Minneapolis,55418,45.0136833190918,-93.2468109130859
124,55104,44.954158,-93.159601,Frogtown Farm,Saint Paul,55104,44.9603049699889,-93.1403999994779
125,55104,44.954158,-93.159601,Lunds & Byerlys,Saint Paul,55101,44.9511210066,-93.0950692990493
126,55104,44.954158,-93.159601,Golden Karen Groceries,Saint Paul,55103,44.96003,-93.10715
127,55104,44.954158,-93.159601,Coastal Seafoods,Minneapolis,55404,44.959429,-93.242429
128,55104,44.954158,-93.159601,Hy-Vee,Eagan,55121,44.834436,-93.171476
129,55104,44.954158,-93.159601,Eastside Food Cooperative,Minneapolis,55418,45.0147514,-93.2468109
130,55104,44.954158,-93.159601,Little India,Minneapolis,55418,45.00713,-93.2468
131,55104,44.954158,-93.159601,The Olive Grove,Mendota Heights,55118,44.8847776311366,-93.1207394599915
132,55104,44.954158,-93.159601,Lunds & Byerlys,Roseville,55113,45.0217986842788,-93.169967109729
133,55104,44.954158,-93.159601,Cub Foods,Arden Hills,55126,45.0539865,-93.1471417
134,55104,44.954158,-93.159601,Noodles & Company,Minneapolis,55414,44.973395,-93.226172
135,55104,44.954158,-93.159601,Noodles & Company,Bloomington,55425,44.85349,-93.242479
136,55105,44.934838,-93.165705,Dragon Star Oriental Foods,Saint Paul,55104,44.96358,-93.1270399
137,55105,44.934838,-93.165705,Kim's Oriental Market,Saint Paul,55104,44.961833487944,-93.167350127853
138,55105,44.934838,-93.165705,United Noodles,Minneapolis,55404,44.958324,-93.2424698
139,55105,44.934838,-93.165705,Shuang Hur Oriental Market,Saint Paul,55145,44.9553871154785,-93.1279449462891
140,55105,44.934838,-93.165705,Shanghai Wholesale,Minneapolis,55413,44.9952895,-93.2103175
141,55105,44.934838,-93.165705,88 Oriental Market,Saint Paul,55103,44.9560890197754,-93.1122131347656
142,55105,44.934838,-93.165705,Sun Foods,Saint Paul,55103,44.95499,-93.12435
143,55105,44.934838,-93.165705,Hana Asian Market,Bloomington,55425,44.83685,-93.24967
144,55105,44.934838,-93.165705,Hmongtown Marketplace,Saint Paul,55103,44.9614715576172,-93.1088562011719
145,55105,44.934838,-93.165705,Shanghai Market,Saint Paul,55108,44.9770126342773,-93.1655349731445
146,55105,44.934838,-93.165705,Double Dragon Foods,Saint Paul,55117,44.9780311584473,-93.1051864624023
147,55105,44.934838,-93.165705,Cub Foods,Saint Paul,55104,44.9554854,-93.1610195
148,55105,44.934838,-93.165705,St Paul Farmers' Market,Saint Paul,55101,44.9496031,-93.0850958
149,55105,44.934838,-93.165705,Caspian Bistro & Marketplace,Minneapolis,55414,44.973218,-93.222054
150,55105,44.934838,-93.165705,Holy Land,Minneapolis,55418,45.0136833190918,-93.2468109130859
151,55105,44.934838,-93.165705,The Olive Grove,Mendota Heights,55118,44.8847776311366,-93.1207394599915
152,55105,44.934838,-93.165705,Coastal Seafoods,Minneapolis,55404,44.959429,-93.242429
153,55105,44.934838,-93.165705,Hy-Vee,Eagan,55121,44.834436,-93.171476
154,55105,44.934838,-93.165705,Star Ocean,Saint Paul,55104,44.9673119,-93.1503677
155,55105,44.934838,-93.165705,Golden Karen Groceries,Saint Paul,55103,44.96003,-93.10715
156,55105,44.934838,-93.165705,Frogtown Farm,Saint Paul,55104,44.9603049699889,-93.1403999994779
157,55105,44.934838,-93.165705,Little India,Minneapolis,55418,45.00713,-93.2468
158,55105,44.934838,-93.165705,Lunds & Byerlys,Saint Paul,55101,44.9511210066,-93.0950692990493
159,55105,44.934838,-93.165705,The Herbivorous Butcher,Minneapolis,55413,44.9902328,-93.2539668
160,55105,44.934838,-93.165705,Lunds & Byerlys,Roseville,55113,45.0217986842788,-93.169967109729
161,55105,44.934838,-93.165705,Eastside Food Cooperative,Minneapolis,55418,45.0147514,-93.2468109
162,55105,44.934838,-93.165705,Cub Foods,Arden Hills,55126,45.0539865,-93.1471417
163,55105,44.934838,-93.165705,Noodles & Company,Minneapolis,55414,44.973395,-93.226172
164,55105,44.934838,-93.165705,Noodles & Company,Bloomington,55425,44.85349,-93.242479
165,55106,44.959966,-93.047108,Ha Tien Super Market,Saint Paul,55119,44.9504997,-93.0179289
166,55106,44.959966,-93.047108,Dragon Star Oriental Foods,Saint Paul,55104,44.96358,-93.1270399
167,55106,44.959966,-93.047108,Hoa Mei Supermarket & Deli,Saint Paul,55106,44.9772606,-93.0642929
168,55106,44.959966,-93.047108,88 Oriental Market,Saint Paul,55103,44.9560890197754,-93.1122131347656
169,55106,44.959966,-93.047108,Golden Harvest Foods,Saint Paul,55106,44.9772606,-93.0622406
170,55106,44.959966,-93.047108,Hmongtown Marketplace,Saint Paul,55103,44.9614715576172,-93.1088562011719
171,55106,44.959966,-93.047108,Sun Foods,Saint Paul,55103,44.95499,-93.12435
172,55106,44.959966,-93.047108,Shuang Hur Oriental Market,Saint Paul,55145,44.9553871154785,-93.1279449462891
173,55106,44.959966,-93.047108,Double Dragon Foods,Saint Paul,55117,44.9780311584473,-93.1051864624023
174,55106,44.959966,-93.047108,Spice Bazaar,Woodbury,55125,44.926034,-92.966741
175,55106,44.959966,-93.047108,52 Market & Trading,Saint Paul,55106,44.9709854125977,-93.0657043457031
176,55106,44.959966,-93.047108,St Paul Farmers' Market,Saint Paul,55101,44.9496031,-93.0850958
177,55106,44.959966,-93.047108,Hy-Vee,Oakdale,55128,44.964436,-92.960653
178,55106,44.959966,-93.047108,Lunds & Byerlys,Saint Paul,55101,44.9511210066,-93.0950692990493
179,55106,44.959966,-93.047108,Golden Karen Groceries,Saint Paul,55103,44.96003,-93.10715
180,55106,44.959966,-93.047108,The Olive Grove,Mendota Heights,55118,44.8847776311366,-93.1207394599915
181,55106,44.959966,-93.047108,Angus Meats,Saint Paul,55109,45.0229187011719,-93.0487365722656
182,55106,44.959966,-93.047108,Noodles & Company,Maplewood,55109,45.027715,-93.018846
183,55107,44.93073,-93.080271,Dragon Star Oriental Foods,Saint Paul,55104,44.96358,-93.1270399
184,55107,44.93073,-93.080271,Ha Tien Super Market,Saint Paul,55119,44.9504997,-93.0179289
185,55107,44.93073,-93.080271,Kim's Oriental Market,Saint Paul,55104,44.961833487944,-93.167350127853
186,55107,44.93073,-93.080271,88 Oriental Market,Saint Paul,55103,44.9560890197754,-93.1122131347656
187,55107,44.93073,-93.080271,Hmongtown Marketplace,Saint Paul,55103,44.9614715576172,-93.1088562011719
188,55107,44.93073,-93.080271,Shuang Hur Oriental Market,Saint Paul,55145,44.9553871154785,-93.1279449462891
189,55107,44.93073,-93.080271,Sun Foods,Saint Paul,55103,44.95499,-93.12435
190,55107,44.93073,-93.080271,Hoa Mei Supermarket & Deli,Saint Paul,55106,44.9772606,-93.0642929
191,55107,44.93073,-93.080271,St Paul Farmers' Market,Saint Paul,55101,44.9496031,-93.0850958
192,55107,44.93073,-93.080271,Golden Harvest Foods,Saint Paul,55106,44.9772606,-93.0622406
193,55107,44.93073,-93.080271,Double Dragon Foods,Saint Paul,55117,44.9780311584473,-93.1051864624023
194,55107,44.93073,-93.080271,Lunds & Byerlys,Saint Paul,55101,44.9511210066,-93.0950692990493
195,55107,44.93073,-93.080271,Shanghai Market,Saint Paul,55108,44.9770126342773,-93.1655349731445
196,55107,44.93073,-93.080271,52 Market & Trading,Saint Paul,55106,44.9709854125977,-93.0657043457031
197,55107,44.93073,-93.080271,The Olive Grove,Mendota Heights,55118,44.8847776311366,-93.1207394599915
198,55107,44.93073,-93.080271,Cub Foods,Saint Paul,55104,44.9554854,-93.1610195
199,55107,44.93073,-93.080271,Star Ocean,Saint Paul,55104,44.9673119,-93.1503677
200,55107,44.93073,-93.080271,Golden Karen Groceries,Saint Paul,55103,44.96003,-93.10715
201,55107,44.93073,-93.080271,Frogtown Farm,Saint Paul,55104,44.9603049699889,-93.1403999994779
202,55107,44.93073,-93.080271,Lunds & Byerlys,Roseville,55113,45.0217986842788,-93.169967109729
203,55107,44.93073,-93.080271,Angus Meats,Saint Paul,55109,45.0229187011719,-93.0487365722656
204,55107,44.93073,-93.080271,Cub Foods,Arden Hills,55126,45.0539865,-93.1471417
205,55107,44.93073,-93.080271,Noodles & Company,Maplewood,55109,45.027715,-93.018846
206,55108,44.980341,-93.174961,Dragon Star Oriental Foods,Saint Paul,55104,44.96358,-93.1270399
207,55108,44.980341,-93.174961,Shanghai Wholesale,Minneapolis,55413,44.9952895,-93.2103175
208,55108,44.980341,-93.174961,Kim's Oriental Market,Saint Paul,55104,44.961833487944,-93.167350127853
209,55108,44.980341,-93.174961,United Noodles,Minneapolis,55404,44.958324,-93.2424698
210,55108,44.980341,-93.174961,Shanghai Market,Saint Paul,55108,44.9770126342773,-93.1655349731445
211,55108,44.980341,-93.174961,Shuang Hur Oriental Market,Saint Paul,55145,44.9553871154785,-93.1279449462891
212,55108,44.980341,-93.174961,88 Oriental Market,Saint Paul,55103,44.9560890197754,-93.1122131347656
213,55108,44.980341,-93.174961,Hmongtown Marketplace,Saint Paul,55103,44.9614715576172,-93.1088562011719
214,55108,44.980341,-93.174961,Seoul Oriental Foods,Fridley,55432,45.0807533,-93.2411423
215,55108,44.980341,-93.174961,Sun Foods,Saint Paul,55103,44.95499,-93.12435
216,55108,44.980341,-93.174961,Midtown Global Market,Minneapolis,55407,44.948566,-93.260711
217,55108,44.980341,-93.174961,Double Dragon Foods,Saint Paul,55117,44.9780311584473,-93.1051864624023
218,55108,44.980341,-93.174961,Star Ocean,Saint Paul,55104,44.9673119,-93.1503677
219,55108,44.980341,-93.174961,Caspian Bistro & Marketplace,Minneapolis,55414,44.973218,-93.222054
220,55108,44.980341,-93.174961,Cub Foods,Saint Paul,55104,44.9554854,-93.1610195
221,55108,44.980341,-93.174961,Holy Land,Minneapolis,55418,45.0136833190918,-93.2468109130859
222,55108,44.980341,-93.174961,The Produce Exchange,Minneapolis,55407,44.948588517447,-93.260714154109
223,55108,44.980341,-93.174961,Little India,Minneapolis,55418,45.00713,-93.2468
224,55108,44.980341,-93.174961,Coastal Seafoods,Minneapolis,55404,44.959429,-93.242429
225,55108,44.980341,-93.174961,Lunds & Byerlys,Roseville,55113,45.0217986842788,-93.169967109729
226,55108,44.980341,-93.174961,Aldi,Mounds View,55112,45.1058124,-93.2096783
227,55108,44.980341,-93.174961,Golden Karen Groceries,Saint Paul,55103,44.96003,-93.10715
228,55108,44.980341,-93.174961,Lunds & Byerlys,Saint Paul,55101,44.9511210066,-93.0950692990493
229,55108,44.980341,-93.174961,Frogtown Farm,Saint Paul,55104,44.9603049699889,-93.1403999994779
230,55108,44.980341,-93.174961,Eastside Food Cooperative,Minneapolis,55418,45.0147514,-93.2468109
231,55108,44.980341,-93.174961,The Herbivorous Butcher,Minneapolis,55413,44.9902328,-93.2539668
232,55108,44.980341,-93.174961,The Olive Grove,Mendota Heights,55118,44.8847776311366,-93.1207394599915
233,55108,44.980341,-93.174961,Noodles & Company,Minneapolis,55414,44.973395,-93.226172
234,55108,44.980341,-93.174961,Cub Foods,Arden Hills,55126,45.0539865,-93.1471417
235,55108,44.980341,-93.174961,Surdyk's Liquor and Cheese Shop,Minneapolis,55414,44.98847,-93.25611
236,55108,44.980341,-93.174961,Grass Roots Gourmet,Minneapolis,55407,44.9484849,-93.2610135
237,55108,44.980341,-93.174961,Noodles & Company,Bloomington,55425,44.85349,-93.242479
238,55109,45.016061,-93.026441,Ha Tien Super Market,Saint Paul,55119,44.9504997,-93.0179289
239,55109,45.016061,-93.026441,Golden Harvest Foods,Saint Paul,55106,44.9772606,-93.0622406
240,55109,45.016061,-93.026441,Hoa Mei Supermarket & Deli,Saint Paul,55106,44.9772606,-93.0642929
241,55109,45.016061,-93.026441,88 Oriental Market,Saint Paul,55103,44.9560890197754,-93.1122131347656
242,55109,45.016061,-93.026441,Hmongtown Marketplace,Saint Paul,55103,44.9614715576172,-93.1088562011719
243,55109,45.016061,-93.026441,Double Dragon Foods,Saint Paul,55117,44.9780311584473,-93.1051864624023
244,55109,45.016061,-93.026441,Hy-Vee,Oakdale,55128,44.964436,-92.960653
245,55109,45.016061,-93.026441,Spice Bazaar,Woodbury,55125,44.926034,-92.966741
246,55109,45.016061,-93.026441,St Paul Farmers' Market,Saint Paul,55101,44.9496031,-93.0850958
247,55109,45.016061,-93.026441,52 Market & Trading,Saint Paul,55106,44.9709854125977,-93.0657043457031
248,55109,45.016061,-93.026441,Angus Meats,Saint Paul,55109,45.0229187011719,-93.0487365722656
249,55109,45.016061,-93.026441,Golden Karen Groceries,Saint Paul,55103,44.96003,-93.10715
250,55109,45.016061,-93.026441,Lunds & Byerlys,Saint Paul,55101,44.9511210066,-93.0950692990493
251,55109,45.016061,-93.026441,Noodles & Company,Maplewood,55109,45.027715,-93.018846
252,55110,45.098195,-93.005239,Golden Harvest Foods,Saint Paul,55106,44.9772606,-93.0622406
253,55110,45.098195,-93.005239,Hoa Mei Supermarket & Deli,Saint Paul,55106,44.9772606,-93.0642929
254,55110,45.098195,-93.005239,52 Market & Trading,Saint Paul,55106,44.9709854125977,-93.0657043457031
255,55110,45.098195,-93.005239,Angus Meats,Saint Paul,55109,45.0229187011719,-93.0487365722656
256,55110,45.098195,-93.005239,Noodles & Company,Maplewood,55109,45.027715,-93.018846
257,55112,45.081866,-93.190493,Seoul Oriental Foods,Fridley,55432,45.0807533,-93.2411423
258,55112,45.081866,-93.190493,Dragon Star Oriental Foods,Saint Paul,55104,44.96358,-93.1270399
259,55112,45.081866,-93.190493,Shanghai Wholesale,Minneapolis,55413,44.9952895,-93.2103175
260,55112,45.081866,-93.190493,United Noodles,Minneapolis,55404,44.958324,-93.2424698
261,55112,45.081866,-93.190493,Aldi,Mounds View,55112,45.1058124,-93.2096783
262,55112,45.081866,-93.190493,Truong Thanh Grocery Store,Minneapolis,55404,44.9566803,-93.278389
263,55112,45.081866,-93.190493,Kim's Oriental Market,Saint Paul,55104,44.961833487944,-93.167350127853
264,55112,45.081866,-93.190493,Hmongtown Marketplace,Saint Paul,55103,44.9614715576172,-93.1088562011719
265,55112,45.081866,-93.190493,Double Dragon Foods,Saint Paul,55117,44.9780311584473,-93.1051864624023
266,55112,45.081866,-93.190493,88 Oriental Market,Saint Paul,55103,44.9560890197754,-93.1122131347656
267,55112,45.081866,-93.190493,Sun Foods,Saint Paul,55103,44.95499,-93.12435
268,55112,45.081866,-93.190493,Shuang Hur Oriental Market,Saint Paul,55145,44.9553871154785,-93.1279449462891
269,55112,45.081866,-93.190493,Shanghai Market,Saint Paul,55108,44.9770126342773,-93.1655349731445
270,55112,45.081866,-93.190493,Aldi,Coon Rapids,55433,45.1307035690439,-93.2713830471039
271,55112,45.081866,-93.190493,Holy Land,Minneapolis,55418,45.0136833190918,-93.2468109130859
272,55112,45.081866,-93.190493,Caspian Bistro & Marketplace,Minneapolis,55414,44.973218,-93.222054
273,55112,45.081866,-93.190493,Little India,Minneapolis,55418,45.00713,-93.2468
274,55112,45.081866,-93.190493,Lunds & Byerlys,Roseville,55113,45.0217986842788,-93.169967109729
275,55112,45.081866,-93.190493,Star Ocean,Saint Paul,55104,44.9673119,-93.1503677
276,55112,45.081866,-93.190493,Eastside Food Cooperative,Minneapolis,55418,45.0147514,-93.2468109
277,55112,45.081866,-93.190493,Golden Karen Groceries,Saint Paul,55103,44.96003,-93.10715
278,55112,45.081866,-93.190493,Duc Loi Supermarket,Minneapolis,55404,44.9566612,-93.2774734
279,55112,45.081866,-93.190493,Coastal Seafoods,Minneapolis,55404,44.959429,-93.242429
280,55112,45.081866,-93.190493,Cub Foods,Arden Hills,55126,45.0539865,-93.1471417
281,55112,45.081866,-93.190493,Whole Foods Market,Minneapolis,55401,44.982777,-93.269501
282,55112,45.081866,-93.190493,The Herbivorous Butcher,Minneapolis,55413,44.9902328,-93.2539668
283,55112,45.081866,-93.190493,Surdyk's Liquor and Cheese Shop,Minneapolis,55414,44.98847,-93.25611
284,55112,45.081866,-93.190493,Noodles & Company,Minneapolis,55414,44.973395,-93.226172
285,55112,45.081866,-93.190493,Frogtown Farm,Saint Paul,55104,44.9603049699889,-93.1403999994779
286,55113,45.012196,-93.151186,Dragon Star Oriental Foods,Saint Paul,55104,44.96358,-93.1270399
287,55113,45.012196,-93.151186,Shanghai Wholesale,Minneapolis,55413,44.9952895,-93.2103175
288,55113,45.012196,-93.151186,Kim's Oriental Market,Saint Paul,55104,44.961833487944,-93.167350127853
289,55113,45.012196,-93.151186,Shuang Hur Oriental Market,Saint Paul,55145,44.9553871154785,-93.1279449462891
290,55113,45.012196,-93.151186,Shanghai Market,Saint Paul,55108,44.9770126342773,-93.1655349731445
291,55113,45.012196,-93.151186,Hmongtown Marketplace,Saint Paul,55103,44.9614715576172,-93.1088562011719
292,55113,45.012196,-93.151186,88 Oriental Market,Saint Paul,55103,44.9560890197754,-93.1122131347656
293,55113,45.012196,-93.151186,Double Dragon Foods,Saint Paul,55117,44.9780311584473,-93.1051864624023
294,55113,45.012196,-93.151186,Sun Foods,Saint Paul,55103,44.95499,-93.12435
295,55113,45.012196,-93.151186,Golden Harvest Foods,Saint Paul,55106,44.9772606,-93.0622406
296,55113,45.012196,-93.151186,Hoa Mei Supermarket & Deli,Saint Paul,55106,44.9772606,-93.0642929
297,55113,45.012196,-93.151186,Lunds & Byerlys,Roseville,55113,45.0217986842788,-93.169967109729
298,55113,45.012196,-93.151186,St Paul Farmers' Market,Saint Paul,55101,44.9496031,-93.0850958
299,55113,45.012196,-93.151186,Star Ocean,Saint Paul,55104,44.9673119,-93.1503677
300,55113,45.012196,-93.151186,Aldi,Mounds View,55112,45.1058124,-93.2096783
301,55113,45.012196,-93.151186,Caspian Bistro & Marketplace,Minneapolis,55414,44.973218,-93.222054
302,55113,45.012196,-93.151186,Golden Karen Groceries,Saint Paul,55103,44.96003,-93.10715
303,55113,45.012196,-93.151186,Cub Foods,Saint Paul,55104,44.9554854,-93.1610195
304,55113,45.012196,-93.151186,52 Market & Trading,Saint Paul,55106,44.9709854125977,-93.0657043457031
305,55113,45.012196,-93.151186,Lunds & Byerlys,Saint Paul,55101,44.9511210066,-93.0950692990493
306,55113,45.012196,-93.151186,Frogtown Farm,Saint Paul,55104,44.9603049699889,-93.1403999994779
307,55113,45.012196,-93.151186,The Olive Grove,Mendota Heights,55118,44.8847776311366,-93.1207394599915
308,55113,45.012196,-93.151186,Cub Foods,Arden Hills,55126,45.0539865,-93.1471417
309,55113,45.012196,-93.151186,Noodles & Company,Minneapolis,55414,44.973395,-93.226172
310,55116,44.910719,-93.169581,Dragon Star Oriental Foods,Saint Paul,55104,44.96358,-93.1270399
311,55116,44.910719,-93.169581,United Noodles,Minneapolis,55404,44.958324,-93.2424698
312,55116,44.910719,-93.169581,Kim's Oriental Market,Saint Paul,55104,44.961833487944,-93.167350127853
313,55116,44.910719,-93.169581,Hana Asian Market,Bloomington,55425,44.83685,-93.24967
314,55116,44.910719,-93.169581,Shuang Hur Oriental Market,Saint Paul,55145,44.9553871154785,-93.1279449462891
315,55116,44.910719,-93.169581,Shanghai Wholesale,Minneapolis,55413,44.9952895,-93.2103175
316,55116,44.910719,-93.169581,Sun Foods,Saint Paul,55103,44.95499,-93.12435
317,55116,44.910719,-93.169581,Saigon Asian Food Market,Burnsville,55337,44.7884281,-93.2463804
318,55116,44.910719,-93.169581,88 Oriental Market,Saint Paul,55103,44.9560890197754,-93.1122131347656
319,55116,44.910719,-93.169581,Hmongtown Marketplace,Saint Paul,55103,44.9614715576172,-93.1088562011719
320,55116,44.910719,-93.169581,Shanghai Market,Saint Paul,55108,44.9770126342773,-93.1655349731445
321,55116,44.910719,-93.169581,Double Dragon Foods,Saint Paul,55117,44.9780311584473,-93.1051864624023
322,55116,44.910719,-93.169581,Cub Foods,Saint Paul,55104,44.9554854,-93.1610195
323,55116,44.910719,-93.169581,St Paul Farmers' Market,Saint Paul,55101,44.9496031,-93.0850958
324,55116,44.910719,-93.169581,Hy-Vee,Eagan,55121,44.834436,-93.171476
325,55116,44.910719,-93.169581,Star Ocean,Saint Paul,55104,44.9673119,-93.1503677
326,55116,44.910719,-93.169581,Caspian Bistro & Marketplace,Minneapolis,55414,44.973218,-93.222054
327,55116,44.910719,-93.169581,Holy Land,Minneapolis,55418,45.0136833190918,-93.2468109130859
328,55116,44.910719,-93.169581,Golden Karen Groceries,Saint Paul,55103,44.96003,-93.10715
329,55116,44.910719,-93.169581,Coastal Seafoods,Minneapolis,55404,44.959429,-93.242429
330,55116,44.910719,-93.169581,The Olive Grove,Mendota Heights,55118,44.8847776311366,-93.1207394599915
331,55116,44.910719,-93.169581,Lunds & Byerlys,Saint Paul,55101,44.9511210066,-93.0950692990493
332,55116,44.910719,-93.169581,The Herbivorous Butcher,Minneapolis,55413,44.9902328,-93.2539668
333,55116,44.910719,-93.169581,Frogtown Farm,Saint Paul,55104,44.9603049699889,-93.1403999994779
334,55116,44.910719,-93.169581,Eastside Food Cooperative,Minneapolis,55418,45.0147514,-93.2468109
335,55116,44.910719,-93.169581,Little India,Minneapolis,55418,45.00713,-93.2468
336,55116,44.910719,-93.169581,Lunds & Byerlys,Roseville,55113,45.0217986842788,-93.169967109729
337,55116,44.910719,-93.169581,Noodles & Company,Bloomington,55425,44.85349,-93.242479
338,55116,44.910719,-93.169581,Surdyk's Liquor and Cheese Shop,Minneapolis,55414,44.98847,-93.25611
339,55116,44.910719,-93.169581,Noodles & Company,Minneapolis,55414,44.973395,-93.226172
340,55117,45.003562,-93.09128,Dragon Star Oriental Foods,Saint Paul,55104,44.96358,-93.1270399
341,55117,45.003562,-93.09128,Ha Tien Super Market,Saint Paul,55119,44.9504997,-93.0179289
342,55117,45.003562,-93.09128,88 Oriental Market,Saint Paul,55103,44.9560890197754,-93.1122131347656
343,55117,45.003562,-93.09128,Kim's Oriental Market,Saint Paul,55104,44.961833487944,-93.167350127853
344,55117,45.003562,-93.09128,Double Dragon Foods,Saint Paul,55117,44.9780311584473,-93.1051864624023
345,55117,45.003562,-93.09128,Golden Harvest Foods,Saint Paul,55106,44.9772606,-93.0622406
346,55117,45.003562,-93.09128,Hmongtown Marketplace,Saint Paul,55103,44.9614715576172,-93.1088562011719
347,55117,45.003562,-93.09128,Sun Foods,Saint Paul,55103,44.95499,-93.12435
348,55117,45.003562,-93.09128,Shuang Hur Oriental Market,Saint Paul,55145,44.9553871154785,-93.1279449462891
349,55117,45.003562,-93.09128,Hoa Mei Supermarket & Deli,Saint Paul,55106,44.9772606,-93.0642929
350,55117,45.003562,-93.09128,Shanghai Market,Saint Paul,55108,44.9770126342773,-93.1655349731445
351,55117,45.003562,-93.09128,St Paul Farmers' Market,Saint Paul,55101,44.9496031,-93.0850958
352,55117,45.003562,-93.09128,52 Market & Trading,Saint Paul,55106,44.9709854125977,-93.0657043457031
353,55117,45.003562,-93.09128,Golden Karen Groceries,Saint Paul,55103,44.96003,-93.10715
354,55117,45.003562,-93.09128,Star Ocean,Saint Paul,55104,44.9673119,-93.1503677
355,55117,45.003562,-93.09128,Lunds & Byerlys,Saint Paul,55101,44.9511210066,-93.0950692990493
356,55117,45.003562,-93.09128,Angus Meats,Saint Paul,55109,45.0229187011719,-93.0487365722656
357,55117,45.003562,-93.09128,Cub Foods,Saint Paul,55104,44.9554854,-93.1610195
358,55117,45.003562,-93.09128,The Olive Grove,Mendota Heights,55118,44.8847776311366,-93.1207394599915
359,55117,45.003562,-93.09128,Lunds & Byerlys,Roseville,55113,45.0217986842788,-93.169967109729
360,55117,45.003562,-93.09128,Frogtown Farm,Saint Paul,55104,44.9603049699889,-93.1403999994779
361,55117,45.003562,-93.09128,Cub Foods,Arden Hills,55126,45.0539865,-93.1471417
362,55117,45.003562,-93.09128,Noodles & Company,Maplewood,55109,45.027715,-93.018846
363,55118,44.894315,-93.100947,Dragon Star Oriental Foods,Saint Paul,55104,44.96358,-93.1270399
364,55118,44.894315,-93.100947,Ha Tien Super Market,Saint Paul,55119,44.9504997,-93.0179289
365,55118,44.894315,-93.100947,88 Oriental Market,Saint Paul,55103,44.9560890197754,-93.1122131347656
366,55118,44.894315,-93.100947,Kim's Oriental Market,Saint Paul,55104,44.961833487944,-93.167350127853
367,55118,44.894315,-93.100947,Hmongtown Marketplace,Saint Paul,55103,44.9614715576172,-93.1088562011719
368,55118,44.894315,-93.100947,Shuang Hur Oriental Market,Saint Paul,55145,44.9553871154785,-93.1279449462891
369,55118,44.894315,-93.100947,Hoa Mei Supermarket & Deli,Saint Paul,55106,44.9772606,-93.0642929
370,55118,44.894315,-93.100947,Sun Foods,Saint Paul,55103,44.95499,-93.12435
371,55118,44.894315,-93.100947,Golden Harvest Foods,Saint Paul,55106,44.9772606,-93.0622406
372,55118,44.894315,-93.100947,Shanghai Market,Saint Paul,55108,44.9770126342773,-93.1655349731445
373,55118,44.894315,-93.100947,The Olive Grove,Mendota Heights,55118,44.8847776311366,-93.1207394599915
374,55118,44.894315,-93.100947,Double Dragon Foods,Saint Paul,55117,44.9780311584473,-93.1051864624023
375,55118,44.894315,-93.100947,Hy-Vee,Eagan,55121,44.834436,-93.171476
376,55118,44.894315,-93.100947,St Paul Farmers' Market,Saint Paul,55101,44.9496031,-93.0850958
377,55118,44.894315,-93.100947,Golden Karen Groceries,Saint Paul,55103,44.96003,-93.10715
378,55118,44.894315,-93.100947,Lunds & Byerlys,Saint Paul,55101,44.9511210066,-93.0950692990493
379,55118,44.894315,-93.100947,Cub Foods,Saint Paul,55104,44.9554854,-93.1610195
380,55118,44.894315,-93.100947,Star Ocean,Saint Paul,55104,44.9673119,-93.1503677
381,55118,44.894315,-93.100947,52 Market & Trading,Saint Paul,55106,44.9709854125977,-93.0657043457031
382,55118,44.894315,-93.100947,Frogtown Farm,Saint Paul,55104,44.9603049699889,-93.1403999994779
383,55118,44.894315,-93.100947,Lunds & Byerlys,Roseville,55113,45.0217986842788,-93.169967109729
384,55119,44.942599,-93.005601,Ha Tien Super Market,Saint Paul,55119,44.9504997,-93.0179289
385,55119,44.942599,-93.005601,Spice Bazaar,Woodbury,55125,44.926034,-92.966741
386,55119,44.942599,-93.005601,Golden Harvest Foods,Saint Paul,55106,44.9772606,-93.0622406
387,55119,44.942599,-93.005601,Hoa Mei Supermarket & Deli,Saint Paul,55106,44.9772606,-93.0642929
388,55119,44.942599,-93.005601,Hy-Vee,Oakdale,55128,44.964436,-92.960653
389,55119,44.942599,-93.005601,Kowalski's Market,Woodbury,55125,44.91825,-92.93271
390,55119,44.942599,-93.005601,St Paul Farmers' Market,Saint Paul,55101,44.9496031,-93.0850958
391,55119,44.942599,-93.005601,52 Market & Trading,Saint Paul,55106,44.9709854125977,-93.0657043457031
392,55119,44.942599,-93.005601,Lunds & Byerlys,Saint Paul,55101,44.9511210066,-93.0950692990493
393,55119,44.942599,-93.005601,Angus Meats,Saint Paul,55109,45.0229187011719,-93.0487365722656
394,55119,44.942599,-93.005601,Noodles & Company,Maplewood,55109,45.027715,-93.018846
395,55122,44.811688,-93.194418,Hana Asian Market,Bloomington,55425,44.83685,-93.24967
396,55122,44.811688,-93.194418,Saigon Asian Food Market,Burnsville,55337,44.7884281,-93.2463804
397,55122,44.811688,-93.194418,TBS Mart,Bloomington,55420,44.860838,-93.26903
398,55122,44.811688,-93.194418,Hy-Vee,Eagan,55121,44.834436,-93.171476
399,55122,44.811688,-93.194418,Asian Direct Oriental Market,Richfield,55423,44.86349,-93.26758
400,55122,44.811688,-93.194418,Fresh Thyme Farmers Market,Apple Valley,55124,44.7346506372045,-93.2055488
401,55122,44.811688,-93.194418,The Olive Grove,Mendota Heights,55118,44.8847776311366,-93.1207394599915
402,55122,44.811688,-93.194418,Hy-Vee,Lakeville,55044,44.715717,-93.1765775
403,55122,44.811688,-93.194418,Walmart Supercenter,Apple Valley,55124,44.7343725,-93.2245864
404,55122,44.811688,-93.194418,Noodles & Company,Bloomington,55425,44.85349,-93.242479
405,55123,44.797772,-93.132567,Fresh Thyme Farmers Market,Apple Valley,55124,44.7346506372045,-93.2055488
406,55123,44.797772,-93.132567,Hy-Vee,Eagan,55121,44.834436,-93.171476
407,55123,44.797772,-93.132567,The Olive Grove,Mendota Heights,55118,44.8847776311366,-93.1207394599915
408,55123,44.797772,-93.132567,Hy-Vee,Lakeville,55044,44.715717,-93.1765775
409,55124,44.745053,-93.205486,Hana Asian Market,Bloomington,55425,44.83685,-93.24967
410,55124,44.745053,-93.205486,Saigon Asian Food Market,Burnsville,55337,44.7884281,-93.2463804
411,55124,44.745053,-93.205486,Fresh Thyme Farmers Market,Apple Valley,55124,44.7346506372045,-93.2055488
412,55124,44.745053,-93.205486,Chan Oriental Market,Minneapolis,55420,44.8395572,-93.2888149
413,55124,44.745053,-93.205486,TBS Mart,Bloomington,55420,44.860838,-93.26903
414,55124,44.745053,-93.205486,Kt Oriental Market,Minneapolis,55423,44.86645,-93.28885
415,55124,44.745053,-93.205486,Asian Direct Oriental Market,Richfield,55423,44.86349,-93.26758
416,55124,44.745053,-93.205486,Hy-Vee,Lakeville,55044,44.715717,-93.1765775
417,55124,44.745053,-93.205486,Hy-Vee,Eagan,55121,44.834436,-93.171476
418,55124,44.745053,-93.205486,Walmart Supercenter,Apple Valley,55124,44.7343725,-93.2245864
419,55124,44.745053,-93.205486,Noodles & Company,Bloomington,55425,44.85349,-93.242479
420,55125,44.918031,-92.938277,Ha Tien Super Market,Saint Paul,55119,44.9504997,-93.0179289
421,55125,44.918031,-92.938277,Spice Bazaar,Woodbury,55125,44.926034,-92.966741
422,55125,44.918031,-92.938277,Kowalski's Market,Woodbury,55125,44.91825,-92.93271
423,55125,44.918031,-92.938277,Hy-Vee,Oakdale,55128,44.964436,-92.960653
424,55125,44.918031,-92.938277,Noodles & Company,Maplewood,55109,45.027715,-93.018846
425,55126,45.085674,-93.134938,Dragon Star Oriental Foods,Saint Paul,55104,44.96358,-93.1270399
426,55126,45.085674,-93.134938,Shanghai Wholesale,Minneapolis,55413,44.9952895,-93.2103175
427,55126,45.085674,-93.134938,Kim's Oriental Market,Saint Paul,55104,44.961833487944,-93.167350127853
428,55126,45.085674,-93.134938,Double Dragon Foods,Saint Paul,55117,44.9780311584473,-93.1051864624023
429,55126,45.085674,-93.134938,Hmongtown Marketplace,Saint Paul,55103,44.9614715576172,-93.1088562011719
430,55126,45.085674,-93.134938,Shanghai Market,Saint Paul,55108,44.9770126342773,-93.1655349731445
431,55126,45.085674,-93.134938,Aldi,Mounds View,55112,45.1058124,-93.2096783
432,55126,45.085674,-93.134938,Golden Harvest Foods,Saint Paul,55106,44.9772606,-93.0622406
433,55126,45.085674,-93.134938,Hoa Mei Supermarket & Deli,Saint Paul,55106,44.9772606,-93.0642929
434,55126,45.085674,-93.134938,Cub Foods,Arden Hills,55126,45.0539865,-93.1471417
435,55126,45.085674,-93.134938,Lunds & Byerlys,Roseville,55113,45.0217986842788,-93.169967109729
436,55126,45.085674,-93.134938,52 Market & Trading,Saint Paul,55106,44.9709854125977,-93.0657043457031
437,55126,45.085674,-93.134938,Golden Karen Groceries,Saint Paul,55103,44.96003,-93.10715
438,55126,45.085674,-93.134938,Star Ocean,Saint Paul,55104,44.9673119,-93.1503677
439,55126,45.085674,-93.134938,Caspian Bistro & Marketplace,Minneapolis,55414,44.973218,-93.222054
440,55126,45.085674,-93.134938,Frogtown Farm,Saint Paul,55104,44.9603049699889,-93.1403999994779
441,55126,45.085674,-93.134938,Angus Meats,Saint Paul,55109,45.0229187011719,-93.0487365722656
442,55127,45.088675,-93.077568,Dragon Star Oriental Foods,Saint Paul,55104,44.96358,-93.1270399
443,55127,45.088675,-93.077568,Kim's Oriental Market,Saint Paul,55104,44.961833487944,-93.167350127853
444,55127,45.088675,-93.077568,Golden Harvest Foods,Saint Paul,55106,44.9772606,-93.0622406
445,55127,45.088675,-93.077568,Hoa Mei Supermarket & Deli,Saint Paul,55106,44.9772606,-93.0642929
446,55127,45.088675,-93.077568,Hmongtown Marketplace,Saint Paul,55103,44.9614715576172,-93.1088562011719
447,55127,45.088675,-93.077568,Double Dragon Foods,Saint Paul,55117,44.9780311584473,-93.1051864624023
448,55127,45.088675,-93.077568,Shanghai Market,Saint Paul,55108,44.9770126342773,-93.1655349731445
449,55127,45.088675,-93.077568,52 Market & Trading,Saint Paul,55106,44.9709854125977,-93.0657043457031
450,55127,45.088675,-93.077568,Star Ocean,Saint Paul,55104,44.9673119,-93.1503677
451,55127,45.088675,-93.077568,Angus Meats,Saint Paul,55109,45.0229187011719,-93.0487365722656
452,55127,45.088675,-93.077568,Cub Foods,Arden Hills,55126,45.0539865,-93.1471417
453,55127,45.088675,-93.077568,Noodles & Company,Maplewood,55109,45.027715,-93.018846
454,55128,44.987546,-92.963553,Ha Tien Super Market,Saint Paul,55119,44.9504997,-93.0179289
455,55128,44.987546,-92.963553,Hy-Vee,Oakdale,55128,44.964436,-92.960653
456,55128,44.987546,-92.963553,Spice Bazaar,Woodbury,55125,44.926034,-92.966741
457,55128,44.987546,-92.963553,Kowalski's Market,Woodbury,55125,44.91825,-92.93271
458,55128,44.987546,-92.963553,Angus Meats,Saint Paul,55109,45.0229187011719,-93.0487365722656
459,55128,44.987546,-92.963553,Noodles & Company,Maplewood,55109,45.027715,-93.018846
460,55303,45.288281,-93.4311,Coborn's Superstore,Ramsey,55303,45.2350769042969,-93.4686660766602
461,55304,45.258795,-93.269238,Aldi,Coon Rapids,55433,45.1307035690439,-93.2713830471039
462,55305,44.956379,-93.428013,Jin Jin Shanghai Market,Hopkins,55343,44.9263148559104,-93.3864952602158
463,55305,44.956379,-93.428013,ShopForFresh,Edina,55439,44.8625488,-93.3573303
464,55305,44.956379,-93.428013,INDIA MARKET,Eden Prairie,55344,44.85248,-93.42976
465,55305,44.956379,-93.428013,Hy-Vee,New Hope,55427,45.035021,-93.384083
466,55305,44.956379,-93.428013,Jerry's Foods,Edina,55436,44.9100629,-93.3544425
467,55305,44.956379,-93.428013,Cub Foods,Crystal,55422,45.0207015,-93.3477929
468,55305,44.956379,-93.428013,Hackenmueller Meats,Robbinsdale,55422,45.0306799,-93.33916
469,55305,44.956379,-93.428013,Noodles & Company,Eden Prairie,55344,44.8592398218825,-93.443141990213
470,55306,44.730974,-93.29494,Groceries of the Orient,Burnsville,55337,44.7750499200215,-93.3186777681112
471,55306,44.730974,-93.29494,Saigon Asian Food Market,Burnsville,55337,44.7884281,-93.2463804
472,55306,44.730974,-93.29494,Hana Asian Market,Bloomington,55425,44.83685,-93.24967
473,55306,44.730974,-93.29494,Asian Direct Oriental Market,Savage,55378,44.778142,-93.333283
474,55306,44.730974,-93.29494,Chan Oriental Market,Minneapolis,55420,44.8395572,-93.2888149
475,55306,44.730974,-93.29494,Hy-Vee Savage,Savage,55378,44.747856,-93.357161
476,55306,44.730974,-93.29494,Fresh Thyme Farmers Market,Apple Valley,55124,44.7346506372045,-93.2055488
477,55306,44.730974,-93.29494,Bharat Bazaar,Bloomington,55431,44.8575903,-93.3050049
478,55306,44.730974,-93.29494,Walmart Supercenter,Apple Valley,55124,44.7343725,-93.2245864
479,55306,44.730974,-93.29494,Noodles & Company,Bloomington,55425,44.85349,-93.242479
480,55311,45.106403,-93.497029,Trader Joe's,Maple Grove,55369,45.092014174027,-93.4340381457739
481,55316,45.165902,-93.414665,Dragon Star Supermarket,Minneapolis,55445,45.0964781051424,-93.3781949803233
482,55316,45.165902,-93.414665,Hy Vee,Brooklyn Park,55445,45.1259403,-93.3566305
483,55316,45.165902,-93.414665,Vinai Market,Minneapolis,55429,45.0680961,-93.3281749
484,55316,45.165902,-93.414665,Ethnic Foods Company,Osseo,55369,45.11842,-93.40173
485,55316,45.165902,-93.414665,Sun Foods,Brooklyn Center,55429,45.07049,-93.3285
486,55316,45.165902,-93.414665,Coborn's Superstore,Ramsey,55303,45.2350769042969,-93.4686660766602
487,55316,45.165902,-93.414665,Trader Joe's,Maple Grove,55369,45.092014174027,-93.4340381457739
488,55317,44.858704,-93.550209,Idly Dosai International Market,Chanhassen,55317,44.86268,-93.53154
489,55317,44.858704,-93.550209,Cub Foods,Chanhassen,55317,44.860198,-93.539129
490,55317,44.858704,-93.550209,Thai Tempo,Shakopee,55379,44.7797020457328,-93.4689168836003
491,55317,44.858704,-93.550209,Cub Foods,Shakopee,55379,44.7798401465178,-93.5093247415539
492,55331,44.894464,-93.602068,Idly Dosai International Market,Chanhassen,55317,44.86268,-93.53154
493,55331,44.894464,-93.602068,Cub Foods,Chanhassen,55317,44.860198,-93.539129
494,55337,44.778472,-93.272269,Groceries of the Orient,Burnsville,55337,44.7750499200215,-93.3186777681112
495,55337,44.778472,-93.272269,Saigon Asian Food Market,Burnsville,55337,44.7884281,-93.2463804
496,55337,44.778472,-93.272269,Hana Asian Market,Bloomington,55425,44.83685,-93.24967
497,55337,44.778472,-93.272269,Asian Direct Oriental Market,Savage,55378,44.778142,-93.333283
498,55337,44.778472,-93.272269,Chan Oriental Market,Minneapolis,55420,44.8395572,-93.2888149
499,55337,44.778472,-93.272269,Hy-Vee Savage,Savage,55378,44.747856,-93.357161
500,55337,44.778472,-93.272269,Kt Oriental Market,Minneapolis,55423,44.86645,-93.28885
501,55337,44.778472,-93.272269,Asian Direct Oriental Market,Richfield,55423,44.86349,-93.26758
502,55337,44.778472,-93.272269,Bharat Bazaar,Bloomington,55431,44.8575903,-93.3050049
503,55337,44.778472,-93.272269,ShopForFresh,Edina,55439,44.8625488,-93.3573303
504,55337,44.778472,-93.272269,Fresh Thyme Farmers Market,Apple Valley,55124,44.7346506372045,-93.2055488
505,55337,44.778472,-93.272269,TBS Mart,Bloomington,55420,44.860838,-93.26903
506,55337,44.778472,-93.272269,Lunds & Byerlys,Edina,55435,44.87329,-93.32734
507,55337,44.778472,-93.272269,Walmart Supercenter,Apple Valley,55124,44.7343725,-93.2245864
508,55337,44.778472,-93.272269,Aldi,Richfield,55423,44.8885765075684,-93.3093566894531
509,55337,44.778472,-93.272269,Noodles & Company,Bloomington,55425,44.85349,-93.242479
510,55343,44.914356,-93.411657,Jin Jin Shanghai Market,Hopkins,55343,44.9263148559104,-93.3864952602158
511,55343,44.914356,-93.411657,ShopForFresh,Edina,55439,44.8625488,-93.3573303
512,55343,44.914356,-93.411657,INDIA MARKET,Eden Prairie,55344,44.85248,-93.42976
513,55343,44.914356,-93.411657,Jerry's Foods,Edina,55436,44.9100629,-93.3544425
514,55343,44.914356,-93.411657,Hy-Vee Grocery,Robbinsdale,55422,45.019764,-93.327618
515,55343,44.914356,-93.411657,Hy-Vee,New Hope,55427,45.035021,-93.384083
516,55343,44.914356,-93.411657,Lunds & Byerlys,Edina,55435,44.87329,-93.32734
517,55343,44.914356,-93.411657,Trader Joe's,St. Louis Park,55416,44.934593,-93.337399
518,55343,44.914356,-93.411657,Hackenmueller Meats,Robbinsdale,55422,45.0306799,-93.33916
519,55343,44.914356,-93.411657,Cub Foods,Crystal,55422,45.0207015,-93.3477929
520,55343,44.914356,-93.411657,Noodles & Company,Eden Prairie,55344,44.8592398218825,-93.443141990213
521,55344,44.863384,-93.428318,Jin Jin Shanghai Market,Hopkins,55343,44.9263148559104,-93.3864952602158
522,55344,44.863384,-93.428318,INDIA MARKET,Eden Prairie,55344,44.85248,-93.42976
523,55344,44.863384,-93.428318,ShopForFresh,Edina,55439,44.8625488,-93.3573303
524,55344,44.863384,-93.428318,Thai Tempo,Shakopee,55379,44.7797020457328,-93.4689168836003
525,55344,44.863384,-93.428318,Hy-Vee Savage,Savage,55378,44.747856,-93.357161
526,55344,44.863384,-93.428318,Jerry's Foods,Edina,55436,44.9100629,-93.3544425
527,55344,44.863384,-93.428318,Noodles & Company,Eden Prairie,55344,44.8592398218825,-93.443141990213
528,55344,44.863384,-93.428318,Cub Foods,Shakopee,55379,44.7798401465178,-93.5093247415539
529,55345,44.913313,-93.485581,Idly Dosai International Market,Chanhassen,55317,44.86268,-93.53154
530,55345,44.913313,-93.485581,INDIA MARKET,Eden Prairie,55344,44.85248,-93.42976
531,55345,44.913313,-93.485581,Cub Foods,Chanhassen,55317,44.860198,-93.539129
532,55345,44.913313,-93.485581,Noodles & Company,Eden Prairie,55344,44.8592398218825,-93.443141990213
533,55346,44.880818,-93.482099,Idly Dosai International Market,Chanhassen,55317,44.86268,-93.53154
534,55346,44.880818,-93.482099,INDIA MARKET,Eden Prairie,55344,44.85248,-93.42976
535,55346,44.880818,-93.482099,Thai Tempo,Shakopee,55379,44.7797020457328,-93.4689168836003
536,55346,44.880818,-93.482099,Cub Foods,Chanhassen,55317,44.860198,-93.539129
537,55346,44.880818,-93.482099,Noodles & Company,Eden Prairie,55344,44.8592398218825,-93.443141990213
538,55346,44.880818,-93.482099,Cub Foods,Shakopee,55379,44.7798401465178,-93.5093247415539
539,55347,44.826059,-93.46533,Jin Jin Shanghai Market,Hopkins,55343,44.9263148559104,-93.3864952602158
540,55347,44.826059,-93.46533,Idly Dosai International Market,Chanhassen,55317,44.86268,-93.53154
541,55347,44.826059,-93.46533,INDIA MARKET,Eden Prairie,55344,44.85248,-93.42976
542,55347,44.826059,-93.46533,Thai Tempo,Shakopee,55379,44.7797020457328,-93.4689168836003
543,55347,44.826059,-93.46533,Cub Foods,Chanhassen,55317,44.860198,-93.539129
544,55347,44.826059,-93.46533,Cub Foods,Shakopee,55379,44.7798401465178,-93.5093247415539
545,55347,44.826059,-93.46533,Noodles & Company,Eden Prairie,55344,44.8592398218825,-93.443141990213
546,55369,45.130113,-93.444661,Dragon Star Supermarket,Minneapolis,55445,45.0964781051424,-93.3781949803233
547,55369,45.130113,-93.444661,Hy Vee,Brooklyn Park,55445,45.1259403,-93.3566305
548,55369,45.130113,-93.444661,Ethnic Foods Company,Osseo,55369,45.11842,-93.40173
549,55369,45.130113,-93.444661,Hy-Vee,New Hope,55427,45.035021,-93.384083
550,55369,45.130113,-93.444661,Trader Joe's,Maple Grove,55369,45.092014174027,-93.4340381457739
551,55369,45.130113,-93.444661,Coborn's Superstore,Ramsey,55303,45.2350769042969,-93.4686660766602
552,55372,44.682895,-93.403141,Groceries of the Orient,Burnsville,55337,44.7750499200215,-93.3186777681112
553,55372,44.682895,-93.403141,Asian Direct Oriental Market,Savage,55378,44.778142,-93.333283
554,55372,44.682895,-93.403141,Thai Tempo,Shakopee,55379,44.7797020457328,-93.4689168836003
555,55372,44.682895,-93.403141,Hy-Vee Savage,Savage,55378,44.747856,-93.357161
556,55378,44.769329,-93.39736,Asian Direct Oriental Market,Savage,55378,44.778142,-93.333283
557,55378,44.769329,-93.39736,Groceries of the Orient,Burnsville,55337,44.7750499200215,-93.3186777681112
558,55378,44.769329,-93.39736,Thai Tempo,Shakopee,55379,44.7797020457328,-93.4689168836003
559,55378,44.769329,-93.39736,Hy-Vee Savage,Savage,55378,44.747856,-93.357161
560,55378,44.769329,-93.39736,ShopForFresh,Edina,55439,44.8625488,-93.3573303
561,55378,44.769329,-93.39736,INDIA MARKET,Eden Prairie,55344,44.85248,-93.42976
562,55378,44.769329,-93.39736,Lunds & Byerlys,Edina,55435,44.87329,-93.32734
563,55378,44.769329,-93.39736,Aldi,Richfield,55423,44.8885765075684,-93.3093566894531
564,55378,44.769329,-93.39736,Noodles & Company,Eden Prairie,55344,44.8592398218825,-93.443141990213
565,55379,44.743507,-93.526107,Thai Tempo,Shakopee,55379,44.7797020457328,-93.4689168836003
566,55379,44.743507,-93.526107,Idly Dosai International Market,Chanhassen,55317,44.86268,-93.53154
567,55379,44.743507,-93.526107,Cub Foods,Shakopee,55379,44.7798401465178,-93.5093247415539
568,55379,44.743507,-93.526107,Cub Foods,Chanhassen,55317,44.860198,-93.539129
569,55379,44.743507,-93.526107,Noodles & Company,Eden Prairie,55344,44.8592398218825,-93.443141990213
570,55391,44.968226,-93.525645,Idly Dosai International Market,Chanhassen,55317,44.86268,-93.53154
571,55391,44.968226,-93.525645,Cub Foods,Chanhassen,55317,44.860198,-93.539129
572,55391,44.968226,-93.525645,Noodles & Company,Eden Prairie,55344,44.8592398218825,-93.443141990213
573,55403,44.97057,-93.284032,United Noodles,Minneapolis,55404,44.958324,-93.2424698
574,55403,44.97057,-93.284032,Shuang Hur Oriental Market,Minneapolis,55408,44.9533109033489,-93.2781005263752
575,55403,44.97057,-93.284032,Truong Thanh Grocery Store,Minneapolis,55404,44.9566803,-93.278389
576,55403,44.97057,-93.284032,Shanghai Wholesale,Minneapolis,55413,44.9952895,-93.2103175
577,55403,44.97057,-93.284032,Midtown Global Market,Minneapolis,55407,44.948566,-93.260711
578,55403,44.97057,-93.284032,Bill's Imported Foods,Minneapolis,55408,44.948070526123,-93.2891235351562
579,55403,44.97057,-93.284032,Seoul Oriental Foods,Fridley,55432,45.0807533,-93.2411423
580,55403,44.97057,-93.284032,Minneapolis Farmers Market,Minneapolis,55405,44.9812499,-93.2858567
581,55403,44.97057,-93.284032,Hy-Vee Grocery,Robbinsdale,55422,45.019764,-93.327618
582,55403,44.97057,-93.284032,Koom Siab Grocery & Deli,Minneapolis,55444,45.0949,-93.30191
583,55403,44.97057,-93.284032,Bangkok Market & Video Rental,Minneapolis,55411,45.0122375488281,-93.2875823974609
584,55403,44.97057,-93.284032,Coastal Seafoods,Minneapolis,55404,44.959429,-93.242429
585,55403,44.97057,-93.284032,Bharat Bazaar,Bloomington,55431,44.8575903,-93.3050049
586,55403,44.97057,-93.284032,ShopForFresh,Edina,55439,44.8625488,-93.3573303
587,55403,44.97057,-93.284032,Kt Oriental Market,Minneapolis,55423,44.86645,-93.28885
588,55403,44.97057,-93.284032,Caspian Bistro & Marketplace,Minneapolis,55414,44.973218,-93.222054
589,55403,44.97057,-93.284032,Asian Direct Oriental Market,Richfield,55423,44.86349,-93.26758
590,55403,44.97057,-93.284032,The Produce Exchange,Minneapolis,55407,44.948588517447,-93.260714154109
591,55403,44.97057,-93.284032,Holy Land,Minneapolis,55418,45.0136833190918,-93.2468109130859
592,55403,44.97057,-93.284032,Duc Loi Supermarket,Minneapolis,55404,44.9566612,-93.2774734
593,55403,44.97057,-93.284032,Whole Foods Market,Minneapolis,55401,44.982777,-93.269501
594,55403,44.97057,-93.284032,The Wedge Community Co-op,Minneapolis,55405,44.96154,-93.2876
595,55403,44.97057,-93.284032,Little India,Minneapolis,55418,45.00713,-93.2468
596,55403,44.97057,-93.284032,Sun Foods,Brooklyn Center,55429,45.07049,-93.3285
597,55403,44.97057,-93.284032,TBS Mart,Bloomington,55420,44.860838,-93.26903
598,55403,44.97057,-93.284032,So Low Grocery Outlet,Minneapolis,55411,45.0126266479492,-93.2947692871094
599,55403,44.97057,-93.284032,The Herbivorous Butcher,Minneapolis,55413,44.9902328,-93.2539668
600,55403,44.97057,-93.284032,Kowalski's Market & Wine Shop,Minneapolis,55405,44.95767,-93.29609
601,55403,44.97057,-93.284032,Vinai Market,Minneapolis,55429,45.0680961,-93.3281749
602,55403,44.97057,-93.284032,Eastside Food Cooperative,Minneapolis,55418,45.0147514,-93.2468109
603,55403,44.97057,-93.284032,Penzeys Spices,Minneapolis,55408,44.9473114,-93.2986526
604,55403,44.97057,-93.284032,Jerry's Foods,Edina,55436,44.9100629,-93.3544425
605,55403,44.97057,-93.284032,Cub Foods,Minneapolis,55411,44.9982019,-93.2886701
606,55403,44.97057,-93.284032,Cub Foods,Minneapolis,55408,44.949566,-93.293808
607,55403,44.97057,-93.284032,Aldi,Richfield,55423,44.8885765075684,-93.3093566894531
608,55403,44.97057,-93.284032,Trader Joe's,St. Louis Park,55416,44.934593,-93.337399
609,55403,44.97057,-93.284032,Lunds & Byerlys,Edina,55435,44.87329,-93.32734
610,55403,44.97057,-93.284032,Surdyk's Liquor and Cheese Shop,Minneapolis,55414,44.98847,-93.25611
611,55403,44.97057,-93.284032,Grass Roots Gourmet,Minneapolis,55407,44.9484849,-93.2610135
612,55403,44.97057,-93.284032,Hackenmueller Meats,Robbinsdale,55422,45.0306799,-93.33916
613,55403,44.97057,-93.284032,Cub Foods,Crystal,55422,45.0207015,-93.3477929
614,55403,44.97057,-93.284032,Noodles & Company,Minneapolis,55414,44.973395,-93.226172
615,55403,44.97057,-93.284032,Cub Foods,Brooklyn Center,55429,45.058837,-93.322601
616,55403,44.97057,-93.284032,Noodles & Company,Bloomington,55425,44.85349,-93.242479
617,55404,44.962198,-93.262011,United Noodles,Minneapolis,55404,44.958324,-93.2424698
618,55404,44.962198,-93.262011,Shuang Hur Oriental Market,Minneapolis,55408,44.9533109033489,-93.2781005263752
619,55404,44.962198,-93.262011,Truong Thanh Grocery Store,Minneapolis,55404,44.9566803,-93.278389
620,55404,44.962198,-93.262011,Midtown Global Market,Minneapolis,55407,44.948566,-93.260711
621,55404,44.962198,-93.262011,Shanghai Wholesale,Minneapolis,55413,44.9952895,-93.2103175
622,55404,44.962198,-93.262011,Hana Asian Market,Bloomington,55425,44.83685,-93.24967
623,55404,44.962198,-93.262011,Bill's Imported Foods,Minneapolis,55408,44.948070526123,-93.2891235351562
624,55404,44.962198,-93.262011,Seoul Oriental Foods,Fridley,55432,45.0807533,-93.2411423
625,55404,44.962198,-93.262011,Coastal Seafoods,Minneapolis,55404,44.959429,-93.242429
626,55404,44.962198,-93.262011,Chan Oriental Market,Minneapolis,55420,44.8395572,-93.2888149
627,55404,44.962198,-93.262011,The Produce Exchange,Minneapolis,55407,44.948588517447,-93.260714154109
628,55404,44.962198,-93.262011,Caspian Bistro & Marketplace,Minneapolis,55414,44.973218,-93.222054
629,55404,44.962198,-93.262011,Bharat Bazaar,Bloomington,55431,44.8575903,-93.3050049
630,55404,44.962198,-93.262011,Kt Oriental Market,Minneapolis,55423,44.86645,-93.28885
631,55404,44.962198,-93.262011,Hy-Vee Grocery,Robbinsdale,55422,45.019764,-93.327618
632,55404,44.962198,-93.262011,Asian Direct Oriental Market,Richfield,55423,44.86349,-93.26758
633,55404,44.962198,-93.262011,Minneapolis Farmers Market,Minneapolis,55405,44.9812499,-93.2858567
634,55404,44.962198,-93.262011,Bangkok Market & Video Rental,Minneapolis,55411,45.0122375488281,-93.2875823974609
635,55404,44.962198,-93.262011,Duc Loi Supermarket,Minneapolis,55404,44.9566612,-93.2774734
636,55404,44.962198,-93.262011,Holy Land,Minneapolis,55418,45.0136833190918,-93.2468109130859
637,55404,44.962198,-93.262011,TBS Mart,Bloomington,55420,44.860838,-93.26903
638,55404,44.962198,-93.262011,Little India,Minneapolis,55418,45.00713,-93.2468
639,55404,44.962198,-93.262011,Whole Foods Market,Minneapolis,55401,44.982777,-93.269501
640,55404,44.962198,-93.262011,Sun Foods,Brooklyn Center,55429,45.07049,-93.3285
641,55404,44.962198,-93.262011,The Wedge Community Co-op,Minneapolis,55405,44.96154,-93.2876
642,55404,44.962198,-93.262011,The Herbivorous Butcher,Minneapolis,55413,44.9902328,-93.2539668
643,55404,44.962198,-93.262011,So Low Grocery Outlet,Minneapolis,55411,45.0126266479492,-93.2947692871094
644,55404,44.962198,-93.262011,Vinai Market,Minneapolis,55429,45.0680961,-93.3281749
645,55404,44.962198,-93.262011,Kowalski's Market & Wine Shop,Minneapolis,55405,44.95767,-93.29609
646,55404,44.962198,-93.262011,Eastside Food Cooperative,Minneapolis,55418,45.0147514,-93.2468109
647,55404,44.962198,-93.262011,Grass Roots Gourmet,Minneapolis,55407,44.9484849,-93.2610135
648,55404,44.962198,-93.262011,Penzeys Spices,Minneapolis,55408,44.9473114,-93.2986526
649,55404,44.962198,-93.262011,Aldi,Richfield,55423,44.8885765075684,-93.3093566894531
650,55404,44.962198,-93.262011,Cub Foods,Minneapolis,55408,44.949566,-93.293808
651,55404,44.962198,-93.262011,Cub Foods,Minneapolis,55411,44.9982019,-93.2886701
652,55404,44.962198,-93.262011,Lunds & Byerlys,Edina,55435,44.87329,-93.32734
653,55404,44.962198,-93.262011,Trader Joe's,St. Louis Park,55416,44.934593,-93.337399
654,55404,44.962198,-93.262011,Surdyk's Liquor and Cheese Shop,Minneapolis,55414,44.98847,-93.25611
655,55404,44.962198,-93.262011,Hackenmueller Meats,Robbinsdale,55422,45.0306799,-93.33916
656,55404,44.962198,-93.262011,Noodles & Company,Minneapolis,55414,44.973395,-93.226172
657,55404,44.962198,-93.262011,Cub Foods,Crystal,55422,45.0207015,-93.3477929
658,55404,44.962198,-93.262011,Cub Foods,Brooklyn Center,55429,45.058837,-93.322601
659,55404,44.962198,-93.262011,Noodles & Company,Bloomington,55425,44.85349,-93.242479
660,55405,44.971865,-93.302502,United Noodles,Minneapolis,55404,44.958324,-93.2424698
661,55405,44.971865,-93.302502,Shuang Hur Oriental Market,Minneapolis,55408,44.9533109033489,-93.2781005263752
662,55405,44.971865,-93.302502,Truong Thanh Grocery Store,Minneapolis,55404,44.9566803,-93.278389
663,55405,44.971865,-93.302502,Jin Jin Shanghai Market,Hopkins,55343,44.9263148559104,-93.3864952602158
664,55405,44.971865,-93.302502,Midtown Global Market,Minneapolis,55407,44.948566,-93.260711
665,55405,44.971865,-93.302502,Bill's Imported Foods,Minneapolis,55408,44.948070526123,-93.2891235351562
666,55405,44.971865,-93.302502,Seoul Oriental Foods,Fridley,55432,45.0807533,-93.2411423
667,55405,44.971865,-93.302502,Hy-Vee Grocery,Robbinsdale,55422,45.019764,-93.327618
668,55405,44.971865,-93.302502,Bangkok Market & Video Rental,Minneapolis,55411,45.0122375488281,-93.2875823974609
669,55405,44.971865,-93.302502,Kt Oriental Market,Minneapolis,55423,44.86645,-93.28885
670,55405,44.971865,-93.302502,ShopForFresh,Edina,55439,44.8625488,-93.3573303
671,55405,44.971865,-93.302502,Dragon Star Supermarket,Minneapolis,55445,45.0964781051424,-93.3781949803233
672,55405,44.971865,-93.302502,Koom Siab Grocery & Deli,Minneapolis,55444,45.0949,-93.30191
673,55405,44.971865,-93.302502,Minneapolis Farmers Market,Minneapolis,55405,44.9812499,-93.2858567
674,55405,44.971865,-93.302502,Asian Direct Oriental Market,Richfield,55423,44.86349,-93.26758
675,55405,44.971865,-93.302502,TBS Mart,Bloomington,55420,44.860838,-93.26903
676,55405,44.971865,-93.302502,Duc Loi Supermarket,Minneapolis,55404,44.9566612,-93.2774734
677,55405,44.971865,-93.302502,Holy Land,Minneapolis,55418,45.0136833190918,-93.2468109130859
678,55405,44.971865,-93.302502,Bharat Bazaar,Bloomington,55431,44.8575903,-93.3050049
679,55405,44.971865,-93.302502,Vinai Market,Minneapolis,55429,45.0680961,-93.3281749
680,55405,44.971865,-93.302502,Caspian Bistro & Marketplace,Minneapolis,55414,44.973218,-93.222054
681,55405,44.971865,-93.302502,Coastal Seafoods,Minneapolis,55404,44.959429,-93.242429
682,55405,44.971865,-93.302502,Hy-Vee,New Hope,55427,45.035021,-93.384083
683,55405,44.971865,-93.302502,The Wedge Community Co-op,Minneapolis,55405,44.96154,-93.2876
684,55405,44.971865,-93.302502,Little India,Minneapolis,55418,45.00713,-93.2468
685,55405,44.971865,-93.302502,So Low Grocery Outlet,Minneapolis,55411,45.0126266479492,-93.2947692871094
686,55405,44.971865,-93.302502,The Produce Exchange,Minneapolis,55407,44.948588517447,-93.260714154109
687,55405,44.971865,-93.302502,Kowalski's Market & Wine Shop,Minneapolis,55405,44.95767,-93.29609
688,55405,44.971865,-93.302502,The Herbivorous Butcher,Minneapolis,55413,44.9902328,-93.2539668
689,55405,44.971865,-93.302502,Sun Foods,Brooklyn Center,55429,45.07049,-93.3285
690,55405,44.971865,-93.302502,Whole Foods Market,Minneapolis,55401,44.982777,-93.269501
691,55405,44.971865,-93.302502,Jerry's Foods,Edina,55436,44.9100629,-93.3544425
692,55405,44.971865,-93.302502,Aldi,Richfield,55423,44.8885765075684,-93.3093566894531
693,55405,44.971865,-93.302502,Trader Joe's,St. Louis Park,55416,44.934593,-93.337399
694,55405,44.971865,-93.302502,Lunds & Byerlys,Edina,55435,44.87329,-93.32734
695,55405,44.971865,-93.302502,Cub Foods,Minneapolis,55411,44.9982019,-93.2886701
696,55405,44.971865,-93.302502,Eastside Food Cooperative,Minneapolis,55418,45.0147514,-93.2468109
697,55405,44.971865,-93.302502,Penzeys Spices,Minneapolis,55408,44.9473114,-93.2986526
698,55405,44.971865,-93.302502,Cub Foods,Minneapolis,55408,44.949566,-93.293808
699,55405,44.971865,-93.302502,Grass Roots Gourmet,Minneapolis,55407,44.9484849,-93.2610135
700,55405,44.971865,-93.302502,Hackenmueller Meats,Robbinsdale,55422,45.0306799,-93.33916
701,55405,44.971865,-93.302502,Cub Foods,Crystal,55422,45.0207015,-93.3477929
702,55405,44.971865,-93.302502,Noodles & Company,Minneapolis,55414,44.973395,-93.226172
703,55405,44.971865,-93.302502,Cub Foods,Brooklyn Center,55429,45.058837,-93.322601
704,55405,44.971865,-93.302502,Surdyk's Liquor and Cheese Shop,Minneapolis,55414,44.98847,-93.25611
705,55405,44.971865,-93.302502,Noodles & Company,Bloomington,55425,44.85349,-93.242479
706,55406,44.938334,-93.221638,United Noodles,Minneapolis,55404,44.958324,-93.2424698
707,55406,44.938334,-93.221638,Shuang Hur Oriental Market,Minneapolis,55408,44.9533109033489,-93.2781005263752
708,55406,44.938334,-93.221638,Kim's Oriental Market,Saint Paul,55104,44.961833487944,-93.167350127853
709,55406,44.938334,-93.221638,Hana Asian Market,Bloomington,55425,44.83685,-93.24967
710,55406,44.938334,-93.221638,Midtown Global Market,Minneapolis,55407,44.948566,-93.260711
711,55406,44.938334,-93.221638,Shanghai Wholesale,Minneapolis,55413,44.9952895,-93.2103175
712,55406,44.938334,-93.221638,Truong Thanh Grocery Store,Minneapolis,55404,44.9566803,-93.278389
713,55406,44.938334,-93.221638,Bill's Imported Foods,Minneapolis,55408,44.948070526123,-93.2891235351562
714,55406,44.938334,-93.221638,Chan Oriental Market,Minneapolis,55420,44.8395572,-93.2888149
715,55406,44.938334,-93.221638,Kt Oriental Market,Minneapolis,55423,44.86645,-93.28885
716,55406,44.938334,-93.221638,Shanghai Market,Saint Paul,55108,44.9770126342773,-93.1655349731445
717,55406,44.938334,-93.221638,TBS Mart,Bloomington,55420,44.860838,-93.26903
718,55406,44.938334,-93.221638,Bharat Bazaar,Bloomington,55431,44.8575903,-93.3050049
719,55406,44.938334,-93.221638,Coastal Seafoods,Minneapolis,55404,44.959429,-93.242429
720,55406,44.938334,-93.221638,Caspian Bistro & Marketplace,Minneapolis,55414,44.973218,-93.222054
721,55406,44.938334,-93.221638,Asian Direct Oriental Market,Richfield,55423,44.86349,-93.26758
722,55406,44.938334,-93.221638,The Produce Exchange,Minneapolis,55407,44.948588517447,-93.260714154109
723,55406,44.938334,-93.221638,Bangkok Market & Video Rental,Minneapolis,55411,45.0122375488281,-93.2875823974609
724,55406,44.938334,-93.221638,Holy Land,Minneapolis,55418,45.0136833190918,-93.2468109130859
725,55406,44.938334,-93.221638,Cub Foods,Saint Paul,55104,44.9554854,-93.1610195
726,55406,44.938334,-93.221638,Duc Loi Supermarket,Minneapolis,55404,44.9566612,-93.2774734
727,55406,44.938334,-93.221638,Minneapolis Farmers Market,Minneapolis,55405,44.9812499,-93.2858567
728,55406,44.938334,-93.221638,Star Ocean,Saint Paul,55104,44.9673119,-93.1503677
729,55406,44.938334,-93.221638,Hy-Vee,Eagan,55121,44.834436,-93.171476
730,55406,44.938334,-93.221638,Aldi,Richfield,55423,44.8885765075684,-93.3093566894531
731,55406,44.938334,-93.221638,Little India,Minneapolis,55418,45.00713,-93.2468
732,55406,44.938334,-93.221638,Whole Foods Market,Minneapolis,55401,44.982777,-93.269501
733,55406,44.938334,-93.221638,The Herbivorous Butcher,Minneapolis,55413,44.9902328,-93.2539668
734,55406,44.938334,-93.221638,Eastside Food Cooperative,Minneapolis,55418,45.0147514,-93.2468109
735,55406,44.938334,-93.221638,So Low Grocery Outlet,Minneapolis,55411,45.0126266479492,-93.2947692871094
736,55406,44.938334,-93.221638,The Wedge Community Co-op,Minneapolis,55405,44.96154,-93.2876
737,55406,44.938334,-93.221638,Frogtown Farm,Saint Paul,55104,44.9603049699889,-93.1403999994779
738,55406,44.938334,-93.221638,Grass Roots Gourmet,Minneapolis,55407,44.9484849,-93.2610135
739,55406,44.938334,-93.221638,Noodles & Company,Minneapolis,55414,44.973395,-93.226172
740,55406,44.938334,-93.221638,Kowalski's Market & Wine Shop,Minneapolis,55405,44.95767,-93.29609
741,55406,44.938334,-93.221638,Lunds & Byerlys,Roseville,55113,45.0217986842788,-93.169967109729
742,55406,44.938334,-93.221638,Cub Foods,Minneapolis,55408,44.949566,-93.293808
743,55406,44.938334,-93.221638,Penzeys Spices,Minneapolis,55408,44.9473114,-93.2986526
744,55406,44.938334,-93.221638,Cub Foods,Minneapolis,55411,44.9982019,-93.2886701
745,55406,44.938334,-93.221638,Surdyk's Liquor and Cheese Shop,Minneapolis,55414,44.98847,-93.25611
746,55406,44.938334,-93.221638,Noodles & Company,Bloomington,55425,44.85349,-93.242479
747,55406,44.938334,-93.221638,Cub Foods,Arden Hills,55126,45.0539865,-93.1471417
748,55407,44.935036,-93.253029,United Noodles,Minneapolis,55404,44.958324,-93.2424698
749,55407,44.935036,-93.253029,Shuang Hur Oriental Market,Minneapolis,55408,44.9533109033489,-93.2781005263752
750,55407,44.935036,-93.253029,Midtown Global Market,Minneapolis,55407,44.948566,-93.260711
751,55407,44.935036,-93.253029,Truong Thanh Grocery Store,Minneapolis,55404,44.9566803,-93.278389
752,55407,44.935036,-93.253029,Shanghai Wholesale,Minneapolis,55413,44.9952895,-93.2103175
753,55407,44.935036,-93.253029,Kim's Oriental Market,Saint Paul,55104,44.961833487944,-93.167350127853
754,55407,44.935036,-93.253029,Hana Asian Market,Bloomington,55425,44.83685,-93.24967
755,55407,44.935036,-93.253029,Chan Oriental Market,Minneapolis,55420,44.8395572,-93.2888149
756,55407,44.935036,-93.253029,Bill's Imported Foods,Minneapolis,55408,44.948070526123,-93.2891235351562
757,55407,44.935036,-93.253029,The Produce Exchange,Minneapolis,55407,44.948588517447,-93.260714154109
758,55407,44.935036,-93.253029,Asian Direct Oriental Market,Richfield,55423,44.86349,-93.26758
759,55407,44.935036,-93.253029,Kt Oriental Market,Minneapolis,55423,44.86645,-93.28885
760,55407,44.935036,-93.253029,TBS Mart,Bloomington,55420,44.860838,-93.26903
761,55407,44.935036,-93.253029,Coastal Seafoods,Minneapolis,55404,44.959429,-93.242429
762,55407,44.935036,-93.253029,Bangkok Market & Video Rental,Minneapolis,55411,45.0122375488281,-93.2875823974609
763,55407,44.935036,-93.253029,Bharat Bazaar,Bloomington,55431,44.8575903,-93.3050049
764,55407,44.935036,-93.253029,Caspian Bistro & Marketplace,Minneapolis,55414,44.973218,-93.222054
765,55407,44.935036,-93.253029,Shanghai Market,Saint Paul,55108,44.9770126342773,-93.1655349731445
766,55407,44.935036,-93.253029,Hy-Vee Grocery,Robbinsdale,55422,45.019764,-93.327618
767,55407,44.935036,-93.253029,Holy Land,Minneapolis,55418,45.0136833190918,-93.2468109130859
768,55407,44.935036,-93.253029,Duc Loi Supermarket,Minneapolis,55404,44.9566612,-93.2774734
769,55407,44.935036,-93.253029,Aldi,Richfield,55423,44.8885765075684,-93.3093566894531
770,55407,44.935036,-93.253029,Minneapolis Farmers Market,Minneapolis,55405,44.9812499,-93.2858567
771,55407,44.935036,-93.253029,The Wedge Community Co-op,Minneapolis,55405,44.96154,-93.2876
772,55407,44.935036,-93.253029,Trader Joe's,St. Louis Park,55416,44.934593,-93.337399
773,55407,44.935036,-93.253029,Lunds & Byerlys,Edina,55435,44.87329,-93.32734
774,55407,44.935036,-93.253029,Whole Foods Market,Minneapolis,55401,44.982777,-93.269501
775,55407,44.935036,-93.253029,Little India,Minneapolis,55418,45.00713,-93.2468
776,55407,44.935036,-93.253029,Hy-Vee,Eagan,55121,44.834436,-93.171476
777,55407,44.935036,-93.253029,Kowalski's Market & Wine Shop,Minneapolis,55405,44.95767,-93.29609
778,55407,44.935036,-93.253029,Cub Foods,Minneapolis,55408,44.949566,-93.293808
779,55407,44.935036,-93.253029,The Herbivorous Butcher,Minneapolis,55413,44.9902328,-93.2539668
780,55407,44.935036,-93.253029,Penzeys Spices,Minneapolis,55408,44.9473114,-93.2986526
781,55407,44.935036,-93.253029,Eastside Food Cooperative,Minneapolis,55418,45.0147514,-93.2468109
782,55407,44.935036,-93.253029,So Low Grocery Outlet,Minneapolis,55411,45.0126266479492,-93.2947692871094
783,55407,44.935036,-93.253029,Grass Roots Gourmet,Minneapolis,55407,44.9484849,-93.2610135
784,55407,44.935036,-93.253029,Cub Foods,Minneapolis,55411,44.9982019,-93.2886701
785,55407,44.935036,-93.253029,Surdyk's Liquor and Cheese Shop,Minneapolis,55414,44.98847,-93.25611
786,55407,44.935036,-93.253029,Noodles & Company,Bloomington,55425,44.85349,-93.242479
787,55407,44.935036,-93.253029,Noodles & Company,Minneapolis,55414,44.973395,-93.226172
788,55407,44.935036,-93.253029,Lunds & Byerlys,Roseville,55113,45.0217986842788,-93.169967109729
789,55407,44.935036,-93.253029,Hackenmueller Meats,Robbinsdale,55422,45.0306799,-93.33916
790,55407,44.935036,-93.253029,Cub Foods,Brooklyn Center,55429,45.058837,-93.322601
791,55408,44.943815,-93.293867,Shuang Hur Oriental Market,Minneapolis,55408,44.9533109033489,-93.2781005263752
792,55408,44.943815,-93.293867,United Noodles,Minneapolis,55404,44.958324,-93.2424698
793,55408,44.943815,-93.293867,Truong Thanh Grocery Store,Minneapolis,55404,44.9566803,-93.278389
794,55408,44.943815,-93.293867,Bill's Imported Foods,Minneapolis,55408,44.948070526123,-93.2891235351562
795,55408,44.943815,-93.293867,Midtown Global Market,Minneapolis,55407,44.948566,-93.260711
796,55408,44.943815,-93.293867,Shanghai Wholesale,Minneapolis,55413,44.9952895,-93.2103175
797,55408,44.943815,-93.293867,Hana Asian Market,Bloomington,55425,44.83685,-93.24967
798,55408,44.943815,-93.293867,Chan Oriental Market,Minneapolis,55420,44.8395572,-93.2888149
799,55408,44.943815,-93.293867,ShopForFresh,Edina,55439,44.8625488,-93.3573303
800,55408,44.943815,-93.293867,Kt Oriental Market,Minneapolis,55423,44.86645,-93.28885
801,55408,44.943815,-93.293867,The Produce Exchange,Minneapolis,55407,44.948588517447,-93.260714154109
802,55408,44.943815,-93.293867,Asian Direct Oriental Market,Richfield,55423,44.86349,-93.26758
803,55408,44.943815,-93.293867,Bangkok Market & Video Rental,Minneapolis,55411,45.0122375488281,-93.2875823974609
804,55408,44.943815,-93.293867,TBS Mart,Bloomington,55420,44.860838,-93.26903
805,55408,44.943815,-93.293867,Hy-Vee Grocery,Robbinsdale,55422,45.019764,-93.327618
806,55408,44.943815,-93.293867,Bharat Bazaar,Bloomington,55431,44.8575903,-93.3050049
807,55408,44.943815,-93.293867,Coastal Seafoods,Minneapolis,55404,44.959429,-93.242429
808,55408,44.943815,-93.293867,Duc Loi Supermarket,Minneapolis,55404,44.9566612,-93.2774734
809,55408,44.943815,-93.293867,Holy Land,Minneapolis,55418,45.0136833190918,-93.2468109130859
810,55408,44.943815,-93.293867,Minneapolis Farmers Market,Minneapolis,55405,44.9812499,-93.2858567
811,55408,44.943815,-93.293867,Caspian Bistro & Marketplace,Minneapolis,55414,44.973218,-93.222054
812,55408,44.943815,-93.293867,Cub Foods,Minneapolis,55408,44.949566,-93.293808
813,55408,44.943815,-93.293867,Aldi,Richfield,55423,44.8885765075684,-93.3093566894531
814,55408,44.943815,-93.293867,Trader Joe's,St. Louis Park,55416,44.934593,-93.337399
815,55408,44.943815,-93.293867,Penzeys Spices,Minneapolis,55408,44.9473114,-93.2986526
816,55408,44.943815,-93.293867,The Wedge Community Co-op,Minneapolis,55405,44.96154,-93.2876
817,55408,44.943815,-93.293867,Sun Foods,Brooklyn Center,55429,45.07049,-93.3285
818,55408,44.943815,-93.293867,Kowalski's Market & Wine Shop,Minneapolis,55405,44.95767,-93.29609
819,55408,44.943815,-93.293867,Jerry's Foods,Edina,55436,44.9100629,-93.3544425
820,55408,44.943815,-93.293867,Vinai Market,Minneapolis,55429,45.0680961,-93.3281749
821,55408,44.943815,-93.293867,Whole Foods Market,Minneapolis,55401,44.982777,-93.269501
822,55408,44.943815,-93.293867,Lunds & Byerlys,Edina,55435,44.87329,-93.32734
823,55408,44.943815,-93.293867,Little India,Minneapolis,55418,45.00713,-93.2468
824,55408,44.943815,-93.293867,The Herbivorous Butcher,Minneapolis,55413,44.9902328,-93.2539668
825,55408,44.943815,-93.293867,So Low Grocery Outlet,Minneapolis,55411,45.0126266479492,-93.2947692871094
826,55408,44.943815,-93.293867,Eastside Food Cooperative,Minneapolis,55418,45.0147514,-93.2468109
827,55408,44.943815,-93.293867,Grass Roots Gourmet,Minneapolis,55407,44.9484849,-93.2610135
828,55408,44.943815,-93.293867,Cub Foods,Minneapolis,55411,44.9982019,-93.2886701
829,55408,44.943815,-93.293867,Surdyk's Liquor and Cheese Shop,Minneapolis,55414,44.98847,-93.25611
830,55408,44.943815,-93.293867,Cub Foods,Crystal,55422,45.0207015,-93.3477929
831,55408,44.943815,-93.293867,Hackenmueller Meats,Robbinsdale,55422,45.0306799,-93.33916
832,55408,44.943815,-93.293867,Noodles & Company,Bloomington,55425,44.85349,-93.242479
833,55408,44.943815,-93.293867,Noodles & Company,Minneapolis,55414,44.973395,-93.226172
834,55408,44.943815,-93.293867,Cub Foods,Brooklyn Center,55429,45.058837,-93.322601
835,55409,44.923939,-93.283436,United Noodles,Minneapolis,55404,44.958324,-93.2424698
836,55409,44.923939,-93.283436,Shuang Hur Oriental Market,Minneapolis,55408,44.9533109033489,-93.2781005263752
837,55409,44.923939,-93.283436,Truong Thanh Grocery Store,Minneapolis,55404,44.9566803,-93.278389
838,55409,44.923939,-93.283436,Midtown Global Market,Minneapolis,55407,44.948566,-93.260711
839,55409,44.923939,-93.283436,Shanghai Wholesale,Minneapolis,55413,44.9952895,-93.2103175
840,55409,44.923939,-93.283436,Hana Asian Market,Bloomington,55425,44.83685,-93.24967
841,55409,44.923939,-93.283436,Chan Oriental Market,Minneapolis,55420,44.8395572,-93.2888149
842,55409,44.923939,-93.283436,Bill's Imported Foods,Minneapolis,55408,44.948070526123,-93.2891235351562
843,55409,44.923939,-93.283436,ShopForFresh,Edina,55439,44.8625488,-93.3573303
844,55409,44.923939,-93.283436,Kt Oriental Market,Minneapolis,55423,44.86645,-93.28885
845,55409,44.923939,-93.283436,Asian Direct Oriental Market,Richfield,55423,44.86349,-93.26758
846,55409,44.923939,-93.283436,TBS Mart,Bloomington,55420,44.860838,-93.26903
847,55409,44.923939,-93.283436,Bharat Bazaar,Bloomington,55431,44.8575903,-93.3050049
848,55409,44.923939,-93.283436,The Produce Exchange,Minneapolis,55407,44.948588517447,-93.260714154109
849,55409,44.923939,-93.283436,Bangkok Market & Video Rental,Minneapolis,55411,45.0122375488281,-93.2875823974609
850,55409,44.923939,-93.283436,Hy-Vee Grocery,Robbinsdale,55422,45.019764,-93.327618
851,55409,44.923939,-93.283436,Aldi,Richfield,55423,44.8885765075684,-93.3093566894531
852,55409,44.923939,-93.283436,Coastal Seafoods,Minneapolis,55404,44.959429,-93.242429
853,55409,44.923939,-93.283436,Caspian Bistro & Marketplace,Minneapolis,55414,44.973218,-93.222054
854,55409,44.923939,-93.283436,Holy Land,Minneapolis,55418,45.0136833190918,-93.2468109130859
855,55409,44.923939,-93.283436,Duc Loi Supermarket,Minneapolis,55404,44.9566612,-93.2774734
856,55409,44.923939,-93.283436,Jerry's Foods,Edina,55436,44.9100629,-93.3544425
857,55409,44.923939,-93.283436,Trader Joe's,St. Louis Park,55416,44.934593,-93.337399
858,55409,44.923939,-93.283436,Minneapolis Farmers Market,Minneapolis,55405,44.9812499,-93.2858567
859,55409,44.923939,-93.283436,Lunds & Byerlys,Edina,55435,44.87329,-93.32734
860,55409,44.923939,-93.283436,The Wedge Community Co-op,Minneapolis,55405,44.96154,-93.2876
861,55409,44.923939,-93.283436,Cub Foods,Minneapolis,55408,44.949566,-93.293808
862,55409,44.923939,-93.283436,Kowalski's Market & Wine Shop,Minneapolis,55405,44.95767,-93.29609
863,55409,44.923939,-93.283436,Penzeys Spices,Minneapolis,55408,44.9473114,-93.2986526
864,55409,44.923939,-93.283436,Whole Foods Market,Minneapolis,55401,44.982777,-93.269501
865,55409,44.923939,-93.283436,Little India,Minneapolis,55418,45.00713,-93.2468
866,55409,44.923939,-93.283436,The Herbivorous Butcher,Minneapolis,55413,44.9902328,-93.2539668
867,55409,44.923939,-93.283436,Eastside Food Cooperative,Minneapolis,55418,45.0147514,-93.2468109
868,55409,44.923939,-93.283436,So Low Grocery Outlet,Minneapolis,55411,45.0126266479492,-93.2947692871094
869,55409,44.923939,-93.283436,Grass Roots Gourmet,Minneapolis,55407,44.9484849,-93.2610135
870,55409,44.923939,-93.283436,Cub Foods,Minneapolis,55411,44.9982019,-93.2886701
871,55409,44.923939,-93.283436,Noodles & Company,Bloomington,55425,44.85349,-93.242479
872,55409,44.923939,-93.283436,Surdyk's Liquor and Cheese Shop,Minneapolis,55414,44.98847,-93.25611
873,55409,44.923939,-93.283436,Cub Foods,Crystal,55422,45.0207015,-93.3477929
874,55409,44.923939,-93.283436,Hackenmueller Meats,Robbinsdale,55422,45.0306799,-93.33916
875,55409,44.923939,-93.283436,Noodles & Company,Minneapolis,55414,44.973395,-93.226172
876,55410,44.913345,-93.316942,Jin Jin Shanghai Market,Hopkins,55343,44.9263148559104,-93.3864952602158
877,55410,44.913345,-93.316942,United Noodles,Minneapolis,55404,44.958324,-93.2424698
878,55410,44.913345,-93.316942,Hana Asian Market,Bloomington,55425,44.83685,-93.24967
879,55410,44.913345,-93.316942,Shuang Hur Oriental Market,Minneapolis,55408,44.9533109033489,-93.2781005263752
880,55410,44.913345,-93.316942,Chan Oriental Market,Minneapolis,55420,44.8395572,-93.2888149
881,55410,44.913345,-93.316942,Truong Thanh Grocery Store,Minneapolis,55404,44.9566803,-93.278389
882,55410,44.913345,-93.316942,Midtown Global Market,Minneapolis,55407,44.948566,-93.260711
883,55410,44.913345,-93.316942,TBS Mart,Bloomington,55420,44.860838,-93.26903
884,55410,44.913345,-93.316942,Kt Oriental Market,Minneapolis,55423,44.86645,-93.28885
885,55410,44.913345,-93.316942,ShopForFresh,Edina,55439,44.8625488,-93.3573303
886,55410,44.913345,-93.316942,Asian Direct Oriental Market,Richfield,55423,44.86349,-93.26758
887,55410,44.913345,-93.316942,Bill's Imported Foods,Minneapolis,55408,44.948070526123,-93.2891235351562
888,55410,44.913345,-93.316942,Saigon Asian Food Market,Burnsville,55337,44.7884281,-93.2463804
889,55410,44.913345,-93.316942,Bharat Bazaar,Bloomington,55431,44.8575903,-93.3050049
890,55410,44.913345,-93.316942,Hy-Vee Grocery,Robbinsdale,55422,45.019764,-93.327618
891,55410,44.913345,-93.316942,Aldi,Richfield,55423,44.8885765075684,-93.3093566894531
892,55410,44.913345,-93.316942,Lunds & Byerlys,Edina,55435,44.87329,-93.32734
893,55410,44.913345,-93.316942,The Produce Exchange,Minneapolis,55407,44.948588517447,-93.260714154109
894,55410,44.913345,-93.316942,Jerry's Foods,Edina,55436,44.9100629,-93.3544425
895,55410,44.913345,-93.316942,Trader Joe's,St. Louis Park,55416,44.934593,-93.337399
896,55410,44.913345,-93.316942,Coastal Seafoods,Minneapolis,55404,44.959429,-93.242429
897,55410,44.913345,-93.316942,Bangkok Market & Video Rental,Minneapolis,55411,45.0122375488281,-93.2875823974609
898,55410,44.913345,-93.316942,Holy Land,Minneapolis,55418,45.0136833190918,-93.2468109130859
899,55410,44.913345,-93.316942,Minneapolis Farmers Market,Minneapolis,55405,44.9812499,-93.2858567
900,55410,44.913345,-93.316942,Hy-Vee,New Hope,55427,45.035021,-93.384083
901,55410,44.913345,-93.316942,Duc Loi Supermarket,Minneapolis,55404,44.9566612,-93.2774734
902,55410,44.913345,-93.316942,Cub Foods,Minneapolis,55408,44.949566,-93.293808
903,55410,44.913345,-93.316942,The Wedge Community Co-op,Minneapolis,55405,44.96154,-93.2876
904,55410,44.913345,-93.316942,Kowalski's Market & Wine Shop,Minneapolis,55405,44.95767,-93.29609
905,55410,44.913345,-93.316942,The Herbivorous Butcher,Minneapolis,55413,44.9902328,-93.2539668
906,55410,44.913345,-93.316942,Little India,Minneapolis,55418,45.00713,-93.2468
907,55410,44.913345,-93.316942,Whole Foods Market,Minneapolis,55401,44.982777,-93.269501
908,55410,44.913345,-93.316942,So Low Grocery Outlet,Minneapolis,55411,45.0126266479492,-93.2947692871094
909,55410,44.913345,-93.316942,Penzeys Spices,Minneapolis,55408,44.9473114,-93.2986526
910,55410,44.913345,-93.316942,Grass Roots Gourmet,Minneapolis,55407,44.9484849,-93.2610135
911,55410,44.913345,-93.316942,Cub Foods,Minneapolis,55411,44.9982019,-93.2886701
912,55410,44.913345,-93.316942,Eastside Food Cooperative,Minneapolis,55418,45.0147514,-93.2468109
913,55410,44.913345,-93.316942,Surdyk's Liquor and Cheese Shop,Minneapolis,55414,44.98847,-93.25611
914,55410,44.913345,-93.316942,Hackenmueller Meats,Robbinsdale,55422,45.0306799,-93.33916
915,55410,44.913345,-93.316942,Cub Foods,Crystal,55422,45.0207015,-93.3477929
916,55410,44.913345,-93.316942,Noodles & Company,Bloomington,55425,44.85349,-93.242479
917,55411,44.999752,-93.29798,United Noodles,Minneapolis,55404,44.958324,-93.2424698
918,55411,44.999752,-93.29798,Shanghai Wholesale,Minneapolis,55413,44.9952895,-93.2103175
919,55411,44.999752,-93.29798,Shuang Hur Oriental Market,Minneapolis,55408,44.9533109033489,-93.2781005263752
920,55411,44.999752,-93.29798,Truong Thanh Grocery Store,Minneapolis,55404,44.9566803,-93.278389
921,55411,44.999752,-93.29798,Jin Jin Shanghai Market,Hopkins,55343,44.9263148559104,-93.3864952602158
922,55411,44.999752,-93.29798,Seoul Oriental Foods,Fridley,55432,45.0807533,-93.2411423
923,55411,44.999752,-93.29798,Bangkok Market & Video Rental,Minneapolis,55411,45.0122375488281,-93.2875823974609
924,55411,44.999752,-93.29798,Midtown Global Market,Minneapolis,55407,44.948566,-93.260711
925,55411,44.999752,-93.29798,Hy-Vee Grocery,Robbinsdale,55422,45.019764,-93.327618
926,55411,44.999752,-93.29798,Koom Siab Grocery & Deli,Minneapolis,55444,45.0949,-93.30191
927,55411,44.999752,-93.29798,Dragon Star Supermarket,Minneapolis,55445,45.0964781051424,-93.3781949803233
928,55411,44.999752,-93.29798,Bill's Imported Foods,Minneapolis,55408,44.948070526123,-93.2891235351562
929,55411,44.999752,-93.29798,Holy Land,Minneapolis,55418,45.0136833190918,-93.2468109130859
930,55411,44.999752,-93.29798,Vinai Market,Minneapolis,55429,45.0680961,-93.3281749
931,55411,44.999752,-93.29798,So Low Grocery Outlet,Minneapolis,55411,45.0126266479492,-93.2947692871094
932,55411,44.999752,-93.29798,Minneapolis Farmers Market,Minneapolis,55405,44.9812499,-93.2858567
933,55411,44.999752,-93.29798,Hy-Vee,New Hope,55427,45.035021,-93.384083
934,55411,44.999752,-93.29798,Little India,Minneapolis,55418,45.00713,-93.2468
935,55411,44.999752,-93.29798,Caspian Bistro & Marketplace,Minneapolis,55414,44.973218,-93.222054
936,55411,44.999752,-93.29798,Sun Foods,Brooklyn Center,55429,45.07049,-93.3285
937,55411,44.999752,-93.29798,Duc Loi Supermarket,Minneapolis,55404,44.9566612,-93.2774734
938,55411,44.999752,-93.29798,Coastal Seafoods,Minneapolis,55404,44.959429,-93.242429
939,55411,44.999752,-93.29798,Cub Foods,Minneapolis,55411,44.9982019,-93.2886701
940,55411,44.999752,-93.29798,Aldi,Mounds View,55112,45.1058124,-93.2096783
941,55411,44.999752,-93.29798,Hy Vee,Brooklyn Park,55445,45.1259403,-93.3566305
942,55411,44.999752,-93.29798,The Herbivorous Butcher,Minneapolis,55413,44.9902328,-93.2539668
943,55411,44.999752,-93.29798,Whole Foods Market,Minneapolis,55401,44.982777,-93.269501
944,55411,44.999752,-93.29798,The Produce Exchange,Minneapolis,55407,44.948588517447,-93.260714154109
945,55411,44.999752,-93.29798,The Wedge Community Co-op,Minneapolis,55405,44.96154,-93.2876
946,55411,44.999752,-93.29798,Eastside Food Cooperative,Minneapolis,55418,45.0147514,-93.2468109
947,55411,44.999752,-93.29798,Hackenmueller Meats,Robbinsdale,55422,45.0306799,-93.33916
948,55411,44.999752,-93.29798,Jerry's Foods,Edina,55436,44.9100629,-93.3544425
949,55411,44.999752,-93.29798,Festival Foods,Brooklyn Park,55443,45.109403,-93.306298
950,55411,44.999752,-93.29798,Aldi,Richfield,55423,44.8885765075684,-93.3093566894531
951,55411,44.999752,-93.29798,Kowalski's Market & Wine Shop,Minneapolis,55405,44.95767,-93.29609
952,55411,44.999752,-93.29798,Lunds & Byerlys,Edina,55435,44.87329,-93.32734
953,55411,44.999752,-93.29798,Trader Joe's,St. Louis Park,55416,44.934593,-93.337399
954,55411,44.999752,-93.29798,Cub Foods,Crystal,55422,45.0207015,-93.3477929
955,55411,44.999752,-93.29798,Grass Roots Gourmet,Minneapolis,55407,44.9484849,-93.2610135
956,55411,44.999752,-93.29798,Penzeys Spices,Minneapolis,55408,44.9473114,-93.2986526
957,55411,44.999752,-93.29798,Noodles & Company,Minneapolis,55414,44.973395,-93.226172
958,55411,44.999752,-93.29798,Cub Foods,Brooklyn Center,55429,45.058837,-93.322601
959,55411,44.999752,-93.29798,Cub Foods,Minneapolis,55408,44.949566,-93.293808
960,55411,44.999752,-93.29798,Surdyk's Liquor and Cheese Shop,Minneapolis,55414,44.98847,-93.25611
961,55412,45.025972,-93.300288,United Noodles,Minneapolis,55404,44.958324,-93.2424698
962,55412,45.025972,-93.300288,Seoul Oriental Foods,Fridley,55432,45.0807533,-93.2411423
963,55412,45.025972,-93.300288,Koom Siab Grocery & Deli,Minneapolis,55444,45.0949,-93.30191
964,55412,45.025972,-93.300288,Dragon Star Supermarket,Minneapolis,55445,45.0964781051424,-93.3781949803233
965,55412,45.025972,-93.300288,Hy-Vee Grocery,Robbinsdale,55422,45.019764,-93.327618
966,55412,45.025972,-93.300288,Bangkok Market & Video Rental,Minneapolis,55411,45.0122375488281,-93.2875823974609
967,55412,45.025972,-93.300288,Jin Jin Shanghai Market,Hopkins,55343,44.9263148559104,-93.3864952602158
968,55412,45.025972,-93.300288,Shuang Hur Oriental Market,Minneapolis,55408,44.9533109033489,-93.2781005263752
969,55412,45.025972,-93.300288,Truong Thanh Grocery Store,Minneapolis,55404,44.9566803,-93.278389
970,55412,45.025972,-93.300288,Midtown Global Market,Minneapolis,55407,44.948566,-93.260711
971,55412,45.025972,-93.300288,Sun Foods,Brooklyn Center,55429,45.07049,-93.3285
972,55412,45.025972,-93.300288,Vinai Market,Minneapolis,55429,45.0680961,-93.3281749
973,55412,45.025972,-93.300288,Bill's Imported Foods,Minneapolis,55408,44.948070526123,-93.2891235351562
974,55412,45.025972,-93.300288,Holy Land,Minneapolis,55418,45.0136833190918,-93.2468109130859
975,55412,45.025972,-93.300288,So Low Grocery Outlet,Minneapolis,55411,45.0126266479492,-93.2947692871094
976,55412,45.025972,-93.300288,Hy-Vee,New Hope,55427,45.035021,-93.384083
977,55412,45.025972,-93.300288,Hy Vee,Brooklyn Park,55445,45.1259403,-93.3566305
978,55412,45.025972,-93.300288,Eastside Food Cooperative,Minneapolis,55418,45.0147514,-93.2468109
979,55412,45.025972,-93.300288,Little India,Minneapolis,55418,45.00713,-93.2468
980,55412,45.025972,-93.300288,The Produce Exchange,Minneapolis,55407,44.948588517447,-93.260714154109
981,55412,45.025972,-93.300288,Caspian Bistro & Marketplace,Minneapolis,55414,44.973218,-93.222054
982,55412,45.025972,-93.300288,Aldi,Coon Rapids,55433,45.1307035690439,-93.2713830471039
983,55412,45.025972,-93.300288,Coastal Seafoods,Minneapolis,55404,44.959429,-93.242429
984,55412,45.025972,-93.300288,Duc Loi Supermarket,Minneapolis,55404,44.9566612,-93.2774734
985,55412,45.025972,-93.300288,Minneapolis Farmers Market,Minneapolis,55405,44.9812499,-93.2858567
986,55412,45.025972,-93.300288,Cub Foods,Crystal,55422,45.0207015,-93.3477929
987,55412,45.025972,-93.300288,The Herbivorous Butcher,Minneapolis,55413,44.9902328,-93.2539668
988,55412,45.025972,-93.300288,Whole Foods Market,Minneapolis,55401,44.982777,-93.269501
989,55412,45.025972,-93.300288,Hackenmueller Meats,Robbinsdale,55422,45.0306799,-93.33916
990,55412,45.025972,-93.300288,Cub Foods,Minneapolis,55411,44.9982019,-93.2886701
991,55412,45.025972,-93.300288,Festival Foods,Brooklyn Park,55443,45.109403,-93.306298
992,55412,45.025972,-93.300288,The Wedge Community Co-op,Minneapolis,55405,44.96154,-93.2876
993,55412,45.025972,-93.300288,Jerry's Foods,Edina,55436,44.9100629,-93.3544425
994,55412,45.025972,-93.300288,Surdyk's Liquor and Cheese Shop,Minneapolis,55414,44.98847,-93.25611
995,55412,45.025972,-93.300288,Kowalski's Market & Wine Shop,Minneapolis,55405,44.95767,-93.29609
996,55412,45.025972,-93.300288,Cub Foods,Brooklyn Center,55429,45.058837,-93.322601
997,55412,45.025972,-93.300288,Trader Joe's,St. Louis Park,55416,44.934593,-93.337399
998,55412,45.025972,-93.300288,Penzeys Spices,Minneapolis,55408,44.9473114,-93.2986526
999,55412,45.025972,-93.300288,Cub Foods,Minneapolis,55408,44.949566,-93.293808
1000,55412,45.025972,-93.300288,Noodles & Company,Minneapolis,55414,44.973395,-93.226172
1001,55412,45.025972,-93.300288,Grass Roots Gourmet,Minneapolis,55407,44.9484849,-93.2610135
1002,55413,44.999734,-93.238,Shanghai Wholesale,Minneapolis,55413,44.9952895,-93.2103175
1003,55413,44.999734,-93.238,United Noodles,Minneapolis,55404,44.958324,-93.2424698
1004,55413,44.999734,-93.238,Kim's Oriental Market,Saint Paul,55104,44.961833487944,-93.167350127853
1005,55413,44.999734,-93.238,Shuang Hur Oriental Market,Minneapolis,55408,44.9533109033489,-93.2781005263752
1006,55413,44.999734,-93.238,Seoul Oriental Foods,Fridley,55432,45.0807533,-93.2411423
1007,55413,44.999734,-93.238,Truong Thanh Grocery Store,Minneapolis,55404,44.9566803,-93.278389
1008,55413,44.999734,-93.238,Midtown Global Market,Minneapolis,55407,44.948566,-93.260711
1009,55413,44.999734,-93.238,Shanghai Market,Saint Paul,55108,44.9770126342773,-93.1655349731445
1010,55413,44.999734,-93.238,Holy Land,Minneapolis,55418,45.0136833190918,-93.2468109130859
1011,55413,44.999734,-93.238,Bill's Imported Foods,Minneapolis,55408,44.948070526123,-93.2891235351562
1012,55413,44.999734,-93.238,Bangkok Market & Video Rental,Minneapolis,55411,45.0122375488281,-93.2875823974609
1013,55413,44.999734,-93.238,Little India,Minneapolis,55418,45.00713,-93.2468
1014,55413,44.999734,-93.238,Caspian Bistro & Marketplace,Minneapolis,55414,44.973218,-93.222054
1015,55413,44.999734,-93.238,Hy-Vee Grocery,Robbinsdale,55422,45.019764,-93.327618
1016,55413,44.999734,-93.238,Koom Siab Grocery & Deli,Minneapolis,55444,45.0949,-93.30191
1017,55413,44.999734,-93.238,Coastal Seafoods,Minneapolis,55404,44.959429,-93.242429
1018,55413,44.999734,-93.238,Eastside Food Cooperative,Minneapolis,55418,45.0147514,-93.2468109
1019,55413,44.999734,-93.238,Minneapolis Farmers Market,Minneapolis,55405,44.9812499,-93.2858567
1020,55413,44.999734,-93.238,Aldi,Mounds View,55112,45.1058124,-93.2096783
1021,55413,44.999734,-93.238,Sun Foods,Brooklyn Center,55429,45.07049,-93.3285
1022,55413,44.999734,-93.238,The Herbivorous Butcher,Minneapolis,55413,44.9902328,-93.2539668
1023,55413,44.999734,-93.238,Whole Foods Market,Minneapolis,55401,44.982777,-93.269501
1024,55413,44.999734,-93.238,So Low Grocery Outlet,Minneapolis,55411,45.0126266479492,-93.2947692871094
1025,55413,44.999734,-93.238,The Produce Exchange,Minneapolis,55407,44.948588517447,-93.260714154109
1026,55413,44.999734,-93.238,Cub Foods,Saint Paul,55104,44.9554854,-93.1610195
1027,55413,44.999734,-93.238,Duc Loi Supermarket,Minneapolis,55404,44.9566612,-93.2774734
1028,55413,44.999734,-93.238,Aldi,Richfield,55423,44.8885765075684,-93.3093566894531
1029,55413,44.999734,-93.238,Cub Foods,Minneapolis,55411,44.9982019,-93.2886701
1030,55413,44.999734,-93.238,Surdyk's Liquor and Cheese Shop,Minneapolis,55414,44.98847,-93.25611
1031,55413,44.999734,-93.238,The Wedge Community Co-op,Minneapolis,55405,44.96154,-93.2876
1032,55413,44.999734,-93.238,Festival Foods,Brooklyn Park,55443,45.109403,-93.306298
1033,55413,44.999734,-93.238,Lunds & Byerlys,Roseville,55113,45.0217986842788,-93.169967109729
1034,55413,44.999734,-93.238,Star Ocean,Saint Paul,55104,44.9673119,-93.1503677
1035,55413,44.999734,-93.238,Kowalski's Market & Wine Shop,Minneapolis,55405,44.95767,-93.29609
1036,55413,44.999734,-93.238,Noodles & Company,Minneapolis,55414,44.973395,-93.226172
1037,55413,44.999734,-93.238,Penzeys Spices,Minneapolis,55408,44.9473114,-93.2986526
1038,55413,44.999734,-93.238,Grass Roots Gourmet,Minneapolis,55407,44.9484849,-93.2610135
1039,55413,44.999734,-93.238,Cub Foods,Brooklyn Center,55429,45.058837,-93.322601
1040,55413,44.999734,-93.238,Cub Foods,Minneapolis,55408,44.949566,-93.293808
1041,55414,44.978043,-93.223019,United Noodles,Minneapolis,55404,44.958324,-93.2424698
1042,55414,44.978043,-93.223019,Shanghai Wholesale,Minneapolis,55413,44.9952895,-93.2103175
1043,55414,44.978043,-93.223019,Kim's Oriental Market,Saint Paul,55104,44.961833487944,-93.167350127853
1044,55414,44.978043,-93.223019,Shuang Hur Oriental Market,Minneapolis,55408,44.9533109033489,-93.2781005263752
1045,55414,44.978043,-93.223019,Shanghai Market,Saint Paul,55108,44.9770126342773,-93.1655349731445
1046,55414,44.978043,-93.223019,Midtown Global Market,Minneapolis,55407,44.948566,-93.260711
1047,55414,44.978043,-93.223019,Truong Thanh Grocery Store,Minneapolis,55404,44.9566803,-93.278389
1048,55414,44.978043,-93.223019,Seoul Oriental Foods,Fridley,55432,45.0807533,-93.2411423
1049,55414,44.978043,-93.223019,Caspian Bistro & Marketplace,Minneapolis,55414,44.973218,-93.222054
1050,55414,44.978043,-93.223019,Bill's Imported Foods,Minneapolis,55408,44.948070526123,-93.2891235351562
1051,55414,44.978043,-93.223019,Kt Oriental Market,Minneapolis,55423,44.86645,-93.28885
1052,55414,44.978043,-93.223019,Coastal Seafoods,Minneapolis,55404,44.959429,-93.242429
1053,55414,44.978043,-93.223019,Holy Land,Minneapolis,55418,45.0136833190918,-93.2468109130859
1054,55414,44.978043,-93.223019,Bangkok Market & Video Rental,Minneapolis,55411,45.0122375488281,-93.2875823974609
1055,55414,44.978043,-93.223019,Little India,Minneapolis,55418,45.00713,-93.2468
1056,55414,44.978043,-93.223019,Koom Siab Grocery & Deli,Minneapolis,55444,45.0949,-93.30191
1057,55414,44.978043,-93.223019,Minneapolis Farmers Market,Minneapolis,55405,44.9812499,-93.2858567
1058,55414,44.978043,-93.223019,Bharat Bazaar,Bloomington,55431,44.8575903,-93.3050049
1059,55414,44.978043,-93.223019,Cub Foods,Saint Paul,55104,44.9554854,-93.1610195
1060,55414,44.978043,-93.223019,The Produce Exchange,Minneapolis,55407,44.948588517447,-93.260714154109
1061,55414,44.978043,-93.223019,Asian Direct Oriental Market,Richfield,55423,44.86349,-93.26758
1062,55414,44.978043,-93.223019,Whole Foods Market,Minneapolis,55401,44.982777,-93.269501
1063,55414,44.978043,-93.223019,TBS Mart,Bloomington,55420,44.860838,-93.26903
1064,55414,44.978043,-93.223019,Eastside Food Cooperative,Minneapolis,55418,45.0147514,-93.2468109
1065,55414,44.978043,-93.223019,The Herbivorous Butcher,Minneapolis,55413,44.9902328,-93.2539668
1066,55414,44.978043,-93.223019,Duc Loi Supermarket,Minneapolis,55404,44.9566612,-93.2774734
1067,55414,44.978043,-93.223019,So Low Grocery Outlet,Minneapolis,55411,45.0126266479492,-93.2947692871094
1068,55414,44.978043,-93.223019,Aldi,Richfield,55423,44.8885765075684,-93.3093566894531
1069,55414,44.978043,-93.223019,Star Ocean,Saint Paul,55104,44.9673119,-93.1503677
1070,55414,44.978043,-93.223019,The Wedge Community Co-op,Minneapolis,55405,44.96154,-93.2876
1071,55414,44.978043,-93.223019,Noodles & Company,Minneapolis,55414,44.973395,-93.226172
1072,55414,44.978043,-93.223019,Lunds & Byerlys,Roseville,55113,45.0217986842788,-93.169967109729
1073,55414,44.978043,-93.223019,Surdyk's Liquor and Cheese Shop,Minneapolis,55414,44.98847,-93.25611
1074,55414,44.978043,-93.223019,Cub Foods,Minneapolis,55411,44.9982019,-93.2886701
1075,55414,44.978043,-93.223019,Frogtown Farm,Saint Paul,55104,44.9603049699889,-93.1403999994779
1076,55414,44.978043,-93.223019,Kowalski's Market & Wine Shop,Minneapolis,55405,44.95767,-93.29609
1077,55414,44.978043,-93.223019,Grass Roots Gourmet,Minneapolis,55407,44.9484849,-93.2610135
1078,55414,44.978043,-93.223019,Penzeys Spices,Minneapolis,55408,44.9473114,-93.2986526
1079,55414,44.978043,-93.223019,Cub Foods,Arden Hills,55126,45.0539865,-93.1471417
1080,55414,44.978043,-93.223019,Cub Foods,Minneapolis,55408,44.949566,-93.293808
1081,55414,44.978043,-93.223019,Noodles & Company,Bloomington,55425,44.85349,-93.242479
1082,55416,44.951183,-93.340989,Jin Jin Shanghai Market,Hopkins,55343,44.9263148559104,-93.3864952602158
1083,55416,44.951183,-93.340989,Shuang Hur Oriental Market,Minneapolis,55408,44.9533109033489,-93.2781005263752
1084,55416,44.951183,-93.340989,Truong Thanh Grocery Store,Minneapolis,55404,44.9566803,-93.278389
1085,55416,44.951183,-93.340989,Midtown Global Market,Minneapolis,55407,44.948566,-93.260711
1086,55416,44.951183,-93.340989,Chan Oriental Market,Minneapolis,55420,44.8395572,-93.2888149
1087,55416,44.951183,-93.340989,Bill's Imported Foods,Minneapolis,55408,44.948070526123,-93.2891235351562
1088,55416,44.951183,-93.340989,ShopForFresh,Edina,55439,44.8625488,-93.3573303
1089,55416,44.951183,-93.340989,Kt Oriental Market,Minneapolis,55423,44.86645,-93.28885
1090,55416,44.951183,-93.340989,Bharat Bazaar,Bloomington,55431,44.8575903,-93.3050049
1091,55416,44.951183,-93.340989,Bangkok Market & Video Rental,Minneapolis,55411,45.0122375488281,-93.2875823974609
1092,55416,44.951183,-93.340989,Hy-Vee Grocery,Robbinsdale,55422,45.019764,-93.327618
1093,55416,44.951183,-93.340989,Asian Direct Oriental Market,Richfield,55423,44.86349,-93.26758
1094,55416,44.951183,-93.340989,TBS Mart,Bloomington,55420,44.860838,-93.26903
1095,55416,44.951183,-93.340989,Trader Joe's,St. Louis Park,55416,44.934593,-93.337399
1096,55416,44.951183,-93.340989,Minneapolis Farmers Market,Minneapolis,55405,44.9812499,-93.2858567
1097,55416,44.951183,-93.340989,Hy-Vee,New Hope,55427,45.035021,-93.384083
1098,55416,44.951183,-93.340989,INDIA MARKET,Eden Prairie,55344,44.85248,-93.42976
1099,55416,44.951183,-93.340989,Jerry's Foods,Edina,55436,44.9100629,-93.3544425
1100,55416,44.951183,-93.340989,Duc Loi Supermarket,Minneapolis,55404,44.9566612,-93.2774734
1101,55416,44.951183,-93.340989,The Produce Exchange,Minneapolis,55407,44.948588517447,-93.260714154109
1102,55416,44.951183,-93.340989,Sun Foods,Brooklyn Center,55429,45.07049,-93.3285
1103,55416,44.951183,-93.340989,So Low Grocery Outlet,Minneapolis,55411,45.0126266479492,-93.2947692871094
1104,55416,44.951183,-93.340989,Vinai Market,Minneapolis,55429,45.0680961,-93.3281749
1105,55416,44.951183,-93.340989,Lunds & Byerlys,Edina,55435,44.87329,-93.32734
1106,55416,44.951183,-93.340989,The Wedge Community Co-op,Minneapolis,55405,44.96154,-93.2876
1107,55416,44.951183,-93.340989,Aldi,Richfield,55423,44.8885765075684,-93.3093566894531
1108,55416,44.951183,-93.340989,The Herbivorous Butcher,Minneapolis,55413,44.9902328,-93.2539668
1109,55416,44.951183,-93.340989,Cub Foods,Minneapolis,55411,44.9982019,-93.2886701
1110,55416,44.951183,-93.340989,Kowalski's Market & Wine Shop,Minneapolis,55405,44.95767,-93.29609
1111,55416,44.951183,-93.340989,Penzeys Spices,Minneapolis,55408,44.9473114,-93.2986526
1112,55416,44.951183,-93.340989,Whole Foods Market,Minneapolis,55401,44.982777,-93.269501
1113,55416,44.951183,-93.340989,Cub Foods,Crystal,55422,45.0207015,-93.3477929
1114,55416,44.951183,-93.340989,Cub Foods,Minneapolis,55408,44.949566,-93.293808
1115,55416,44.951183,-93.340989,Hackenmueller Meats,Robbinsdale,55422,45.0306799,-93.33916
1116,55416,44.951183,-93.340989,Grass Roots Gourmet,Minneapolis,55407,44.9484849,-93.2610135
1117,55416,44.951183,-93.340989,Cub Foods,Brooklyn Center,55429,45.058837,-93.322601
1118,55416,44.951183,-93.340989,Surdyk's Liquor and Cheese Shop,Minneapolis,55414,44.98847,-93.25611
1119,55417,44.902611,-93.231692,United Noodles,Minneapolis,55404,44.958324,-93.2424698
1120,55417,44.902611,-93.231692,Hana Asian Market,Bloomington,55425,44.83685,-93.24967
1121,55417,44.902611,-93.231692,Chan Oriental Market,Minneapolis,55420,44.8395572,-93.2888149
1122,55417,44.902611,-93.231692,Kim's Oriental Market,Saint Paul,55104,44.961833487944,-93.167350127853
1123,55417,44.902611,-93.231692,Shanghai Wholesale,Minneapolis,55413,44.9952895,-93.2103175
1124,55417,44.902611,-93.231692,Kt Oriental Market,Minneapolis,55423,44.86645,-93.28885
1125,55417,44.902611,-93.231692,Shuang Hur Oriental Market,Minneapolis,55408,44.9533109033489,-93.2781005263752
1126,55417,44.902611,-93.231692,Midtown Global Market,Minneapolis,55407,44.948566,-93.260711
1127,55417,44.902611,-93.231692,Asian Direct Oriental Market,Richfield,55423,44.86349,-93.26758
1128,55417,44.902611,-93.231692,Saigon Asian Food Market,Burnsville,55337,44.7884281,-93.2463804
1129,55417,44.902611,-93.231692,Bharat Bazaar,Bloomington,55431,44.8575903,-93.3050049
1130,55417,44.902611,-93.231692,Truong Thanh Grocery Store,Minneapolis,55404,44.9566803,-93.278389
1131,55417,44.902611,-93.231692,Bill's Imported Foods,Minneapolis,55408,44.948070526123,-93.2891235351562
1132,55417,44.902611,-93.231692,TBS Mart,Bloomington,55420,44.860838,-93.26903
1133,55417,44.902611,-93.231692,Groceries of the Orient,Burnsville,55337,44.7750499200215,-93.3186777681112
1134,55417,44.902611,-93.231692,Shanghai Market,Saint Paul,55108,44.9770126342773,-93.1655349731445
1135,55417,44.902611,-93.231692,Caspian Bistro & Marketplace,Minneapolis,55414,44.973218,-93.222054
1136,55417,44.902611,-93.231692,The Produce Exchange,Minneapolis,55407,44.948588517447,-93.260714154109
1137,55417,44.902611,-93.231692,Coastal Seafoods,Minneapolis,55404,44.959429,-93.242429
1138,55417,44.902611,-93.231692,Holy Land,Minneapolis,55418,45.0136833190918,-93.2468109130859
1139,55417,44.902611,-93.231692,Bangkok Market & Video Rental,Minneapolis,55411,45.0122375488281,-93.2875823974609
1140,55417,44.902611,-93.231692,Aldi,Richfield,55423,44.8885765075684,-93.3093566894531
1141,55417,44.902611,-93.231692,Hy-Vee,Eagan,55121,44.834436,-93.171476
1142,55417,44.902611,-93.231692,Star Ocean,Saint Paul,55104,44.9673119,-93.1503677
1143,55417,44.902611,-93.231692,Duc Loi Supermarket,Minneapolis,55404,44.9566612,-93.2774734
1144,55417,44.902611,-93.231692,Minneapolis Farmers Market,Minneapolis,55405,44.9812499,-93.2858567
1145,55417,44.902611,-93.231692,Eastside Food Cooperative,Minneapolis,55418,45.0147514,-93.2468109
1146,55417,44.902611,-93.231692,So Low Grocery Outlet,Minneapolis,55411,45.0126266479492,-93.2947692871094
1147,55417,44.902611,-93.231692,Cub Foods,Saint Paul,55104,44.9554854,-93.1610195
1148,55417,44.902611,-93.231692,The Herbivorous Butcher,Minneapolis,55413,44.9902328,-93.2539668
1149,55417,44.902611,-93.231692,Whole Foods Market,Minneapolis,55401,44.982777,-93.269501
1150,55417,44.902611,-93.231692,Little India,Minneapolis,55418,45.00713,-93.2468
1151,55417,44.902611,-93.231692,Penzeys Spices,Minneapolis,55408,44.9473114,-93.2986526
1152,55417,44.902611,-93.231692,The Wedge Community Co-op,Minneapolis,55405,44.96154,-93.2876
1153,55417,44.902611,-93.231692,Kowalski's Market & Wine Shop,Minneapolis,55405,44.95767,-93.29609
1154,55417,44.902611,-93.231692,Surdyk's Liquor and Cheese Shop,Minneapolis,55414,44.98847,-93.25611
1155,55417,44.902611,-93.231692,Lunds & Byerlys,Roseville,55113,45.0217986842788,-93.169967109729
1156,55417,44.902611,-93.231692,Cub Foods,Minneapolis,55411,44.9982019,-93.2886701
1157,55417,44.902611,-93.231692,Noodles & Company,Bloomington,55425,44.85349,-93.242479
1158,55417,44.902611,-93.231692,Cub Foods,Minneapolis,55408,44.949566,-93.293808
1159,55417,44.902611,-93.231692,Grass Roots Gourmet,Minneapolis,55407,44.9484849,-93.2610135
1160,55417,44.902611,-93.231692,Noodles & Company,Minneapolis,55414,44.973395,-93.226172
1161,55418,45.02131,-93.244136,Shanghai Wholesale,Minneapolis,55413,44.9952895,-93.2103175
1162,55418,45.02131,-93.244136,United Noodles,Minneapolis,55404,44.958324,-93.2424698
1163,55418,45.02131,-93.244136,Seoul Oriental Foods,Fridley,55432,45.0807533,-93.2411423
1164,55418,45.02131,-93.244136,Kim's Oriental Market,Saint Paul,55104,44.961833487944,-93.167350127853
1165,55418,45.02131,-93.244136,Shuang Hur Oriental Market,Minneapolis,55408,44.9533109033489,-93.2781005263752
1166,55418,45.02131,-93.244136,Holy Land,Minneapolis,55418,45.0136833190918,-93.2468109130859
1167,55418,45.02131,-93.244136,Koom Siab Grocery & Deli,Minneapolis,55444,45.0949,-93.30191
1168,55418,45.02131,-93.244136,Truong Thanh Grocery Store,Minneapolis,55404,44.9566803,-93.278389
1169,55418,45.02131,-93.244136,Bangkok Market & Video Rental,Minneapolis,55411,45.0122375488281,-93.2875823974609
1170,55418,45.02131,-93.244136,Midtown Global Market,Minneapolis,55407,44.948566,-93.260711
1171,55418,45.02131,-93.244136,Shanghai Market,Saint Paul,55108,44.9770126342773,-93.1655349731445
1172,55418,45.02131,-93.244136,Eastside Food Cooperative,Minneapolis,55418,45.0147514,-93.2468109
1173,55418,45.02131,-93.244136,Hy-Vee Grocery,Robbinsdale,55422,45.019764,-93.327618
1174,55418,45.02131,-93.244136,Vinai Market,Minneapolis,55429,45.0680961,-93.3281749
1175,55418,45.02131,-93.244136,Little India,Minneapolis,55418,45.00713,-93.2468
1176,55418,45.02131,-93.244136,Bill's Imported Foods,Minneapolis,55408,44.948070526123,-93.2891235351562
1177,55418,45.02131,-93.244136,Sun Foods,Brooklyn Center,55429,45.07049,-93.3285
1178,55418,45.02131,-93.244136,Caspian Bistro & Marketplace,Minneapolis,55414,44.973218,-93.222054
1179,55418,45.02131,-93.244136,So Low Grocery Outlet,Minneapolis,55411,45.0126266479492,-93.2947692871094
1180,55418,45.02131,-93.244136,Aldi,Mounds View,55112,45.1058124,-93.2096783
1181,55418,45.02131,-93.244136,Aldi,Coon Rapids,55433,45.1307035690439,-93.2713830471039
1182,55418,45.02131,-93.244136,Minneapolis Farmers Market,Minneapolis,55405,44.9812499,-93.2858567
1183,55418,45.02131,-93.244136,Coastal Seafoods,Minneapolis,55404,44.959429,-93.242429
1184,55418,45.02131,-93.244136,Duc Loi Supermarket,Minneapolis,55404,44.9566612,-93.2774734
1185,55418,45.02131,-93.244136,The Produce Exchange,Minneapolis,55407,44.948588517447,-93.260714154109
1186,55418,45.02131,-93.244136,Lunds & Byerlys,Roseville,55113,45.0217986842788,-93.169967109729
1187,55418,45.02131,-93.244136,The Herbivorous Butcher,Minneapolis,55413,44.9902328,-93.2539668
1188,55418,45.02131,-93.244136,Whole Foods Market,Minneapolis,55401,44.982777,-93.269501
1189,55418,45.02131,-93.244136,Festival Foods,Brooklyn Park,55443,45.109403,-93.306298
1190,55418,45.02131,-93.244136,Cub Foods,Saint Paul,55104,44.9554854,-93.1610195
1191,55418,45.02131,-93.244136,Cub Foods,Minneapolis,55411,44.9982019,-93.2886701
1192,55418,45.02131,-93.244136,The Wedge Community Co-op,Minneapolis,55405,44.96154,-93.2876
1193,55418,45.02131,-93.244136,Surdyk's Liquor and Cheese Shop,Minneapolis,55414,44.98847,-93.25611
1194,55418,45.02131,-93.244136,Cub Foods,Brooklyn Center,55429,45.058837,-93.322601
1195,55418,45.02131,-93.244136,Penzeys Spices,Minneapolis,55408,44.9473114,-93.2986526
1196,55418,45.02131,-93.244136,Grass Roots Gourmet,Minneapolis,55407,44.9484849,-93.2610135
1197,55418,45.02131,-93.244136,Noodles & Company,Minneapolis,55414,44.973395,-93.226172
1198,55418,45.02131,-93.244136,Kowalski's Market & Wine Shop,Minneapolis,55405,44.95767,-93.29609
1199,55418,45.02131,-93.244136,Cub Foods,Minneapolis,55408,44.949566,-93.293808
1200,55419,44.90237,-93.287659,Hana Asian Market,Bloomington,55425,44.83685,-93.24967
1201,55419,44.90237,-93.287659,United Noodles,Minneapolis,55404,44.958324,-93.2424698
1202,55419,44.90237,-93.287659,Chan Oriental Market,Minneapolis,55420,44.8395572,-93.2888149
1203,55419,44.90237,-93.287659,Asian Direct Oriental Market,Richfield,55423,44.86349,-93.26758
1204,55419,44.90237,-93.287659,Kt Oriental Market,Minneapolis,55423,44.86645,-93.28885
1205,55419,44.90237,-93.287659,Shuang Hur Oriental Market,Minneapolis,55408,44.9533109033489,-93.2781005263752
1206,55419,44.90237,-93.287659,Truong Thanh Grocery Store,Minneapolis,55404,44.9566803,-93.278389
1207,55419,44.90237,-93.287659,ShopForFresh,Edina,55439,44.8625488,-93.3573303
1208,55419,44.90237,-93.287659,Midtown Global Market,Minneapolis,55407,44.948566,-93.260711
1209,55419,44.90237,-93.287659,Shanghai Wholesale,Minneapolis,55413,44.9952895,-93.2103175
1210,55419,44.90237,-93.287659,Bharat Bazaar,Bloomington,55431,44.8575903,-93.3050049
1211,55419,44.90237,-93.287659,Bill's Imported Foods,Minneapolis,55408,44.948070526123,-93.2891235351562
1212,55419,44.90237,-93.287659,Groceries of the Orient,Burnsville,55337,44.7750499200215,-93.3186777681112
1213,55419,44.90237,-93.287659,TBS Mart,Bloomington,55420,44.860838,-93.26903
1214,55419,44.90237,-93.287659,Saigon Asian Food Market,Burnsville,55337,44.7884281,-93.2463804
1215,55419,44.90237,-93.287659,Asian Direct Oriental Market,Savage,55378,44.778142,-93.333283
1216,55419,44.90237,-93.287659,Aldi,Richfield,55423,44.8885765075684,-93.3093566894531
1217,55419,44.90237,-93.287659,Caspian Bistro & Marketplace,Minneapolis,55414,44.973218,-93.222054
1218,55419,44.90237,-93.287659,Bangkok Market & Video Rental,Minneapolis,55411,45.0122375488281,-93.2875823974609
1219,55419,44.90237,-93.287659,Lunds & Byerlys,Edina,55435,44.87329,-93.32734
1220,55419,44.90237,-93.287659,The Produce Exchange,Minneapolis,55407,44.948588517447,-93.260714154109
1221,55419,44.90237,-93.287659,Coastal Seafoods,Minneapolis,55404,44.959429,-93.242429
1222,55419,44.90237,-93.287659,Hy-Vee Grocery,Robbinsdale,55422,45.019764,-93.327618
1223,55419,44.90237,-93.287659,Holy Land,Minneapolis,55418,45.0136833190918,-93.2468109130859
1224,55419,44.90237,-93.287659,Duc Loi Supermarket,Minneapolis,55404,44.9566612,-93.2774734
1225,55419,44.90237,-93.287659,Jerry's Foods,Edina,55436,44.9100629,-93.3544425
1226,55419,44.90237,-93.287659,Little India,Minneapolis,55418,45.00713,-93.2468
1227,55419,44.90237,-93.287659,Minneapolis Farmers Market,Minneapolis,55405,44.9812499,-93.2858567
1228,55419,44.90237,-93.287659,Trader Joe's,St. Louis Park,55416,44.934593,-93.337399
1229,55419,44.90237,-93.287659,So Low Grocery Outlet,Minneapolis,55411,45.0126266479492,-93.2947692871094
1230,55419,44.90237,-93.287659,Whole Foods Market,Minneapolis,55401,44.982777,-93.269501
1231,55419,44.90237,-93.287659,The Herbivorous Butcher,Minneapolis,55413,44.9902328,-93.2539668
1232,55419,44.90237,-93.287659,Penzeys Spices,Minneapolis,55408,44.9473114,-93.2986526
1233,55419,44.90237,-93.287659,The Wedge Community Co-op,Minneapolis,55405,44.96154,-93.2876
1234,55419,44.90237,-93.287659,Grass Roots Gourmet,Minneapolis,55407,44.9484849,-93.2610135
1235,55419,44.90237,-93.287659,Kowalski's Market & Wine Shop,Minneapolis,55405,44.95767,-93.29609
1236,55419,44.90237,-93.287659,Cub Foods,Minneapolis,55408,44.949566,-93.293808
1237,55419,44.90237,-93.287659,Eastside Food Cooperative,Minneapolis,55418,45.0147514,-93.2468109
1238,55419,44.90237,-93.287659,Cub Foods,Minneapolis,55411,44.9982019,-93.2886701
1239,55419,44.90237,-93.287659,Cub Foods,Crystal,55422,45.0207015,-93.3477929
1240,55419,44.90237,-93.287659,Surdyk's Liquor and Cheese Shop,Minneapolis,55414,44.98847,-93.25611
1241,55419,44.90237,-93.287659,Noodles & Company,Bloomington,55425,44.85349,-93.242479
1242,55419,44.90237,-93.287659,Noodles & Company,Minneapolis,55414,44.973395,-93.226172
1243,55420,44.835969,-93.277176,Chan Oriental Market,Minneapolis,55420,44.8395572,-93.2888149
1244,55420,44.835969,-93.277176,Hana Asian Market,Bloomington,55425,44.83685,-93.24967
1245,55420,44.835969,-93.277176,Groceries of the Orient,Burnsville,55337,44.7750499200215,-93.3186777681112
1246,55420,44.835969,-93.277176,Asian Direct Oriental Market,Richfield,55423,44.86349,-93.26758
1247,55420,44.835969,-93.277176,Saigon Asian Food Market,Burnsville,55337,44.7884281,-93.2463804
1248,55420,44.835969,-93.277176,United Noodles,Minneapolis,55404,44.958324,-93.2424698
1249,55420,44.835969,-93.277176,Kt Oriental Market,Minneapolis,55423,44.86645,-93.28885
1250,55420,44.835969,-93.277176,Asian Direct Oriental Market,Savage,55378,44.778142,-93.333283
1251,55420,44.835969,-93.277176,Bharat Bazaar,Bloomington,55431,44.8575903,-93.3050049
1252,55420,44.835969,-93.277176,TBS Mart,Bloomington,55420,44.860838,-93.26903
1253,55420,44.835969,-93.277176,ShopForFresh,Edina,55439,44.8625488,-93.3573303
1254,55420,44.835969,-93.277176,Midtown Global Market,Minneapolis,55407,44.948566,-93.260711
1255,55420,44.835969,-93.277176,Shuang Hur Oriental Market,Minneapolis,55408,44.9533109033489,-93.2781005263752
1256,55420,44.835969,-93.277176,Truong Thanh Grocery Store,Minneapolis,55404,44.9566803,-93.278389
1257,55420,44.835969,-93.277176,Bill's Imported Foods,Minneapolis,55408,44.948070526123,-93.2891235351562
1258,55420,44.835969,-93.277176,Hy-Vee Savage,Savage,55378,44.747856,-93.357161
1259,55420,44.835969,-93.277176,Lunds & Byerlys,Edina,55435,44.87329,-93.32734
1260,55420,44.835969,-93.277176,Fresh Thyme Farmers Market,Apple Valley,55124,44.7346506372045,-93.2055488
1261,55420,44.835969,-93.277176,Aldi,Richfield,55423,44.8885765075684,-93.3093566894531
1262,55420,44.835969,-93.277176,Jerry's Foods,Edina,55436,44.9100629,-93.3544425
1263,55420,44.835969,-93.277176,The Produce Exchange,Minneapolis,55407,44.948588517447,-93.260714154109
1264,55420,44.835969,-93.277176,Duc Loi Supermarket,Minneapolis,55404,44.9566612,-93.2774734
1265,55420,44.835969,-93.277176,Coastal Seafoods,Minneapolis,55404,44.959429,-93.242429
1266,55420,44.835969,-93.277176,Noodles & Company,Bloomington,55425,44.85349,-93.242479
1267,55420,44.835969,-93.277176,The Wedge Community Co-op,Minneapolis,55405,44.96154,-93.2876
1268,55420,44.835969,-93.277176,Trader Joe's,St. Louis Park,55416,44.934593,-93.337399
1269,55420,44.835969,-93.277176,Cub Foods,Minneapolis,55408,44.949566,-93.293808
1270,55420,44.835969,-93.277176,Kowalski's Market & Wine Shop,Minneapolis,55405,44.95767,-93.29609
1271,55420,44.835969,-93.277176,Penzeys Spices,Minneapolis,55408,44.9473114,-93.2986526
1272,55420,44.835969,-93.277176,Walmart Supercenter,Apple Valley,55124,44.7343725,-93.2245864
1273,55420,44.835969,-93.277176,Grass Roots Gourmet,Minneapolis,55407,44.9484849,-93.2610135
1274,55421,45.050555,-93.249955,Seoul Oriental Foods,Fridley,55432,45.0807533,-93.2411423
1275,55421,45.050555,-93.249955,Shanghai Wholesale,Minneapolis,55413,44.9952895,-93.2103175
1276,55421,45.050555,-93.249955,United Noodles,Minneapolis,55404,44.958324,-93.2424698
1277,55421,45.050555,-93.249955,Koom Siab Grocery & Deli,Minneapolis,55444,45.0949,-93.30191
1278,55421,45.050555,-93.249955,Kim's Oriental Market,Saint Paul,55104,44.961833487944,-93.167350127853
1279,55421,45.050555,-93.249955,Shuang Hur Oriental Market,Minneapolis,55408,44.9533109033489,-93.2781005263752
1280,55421,45.050555,-93.249955,Midtown Global Market,Minneapolis,55407,44.948566,-93.260711
1281,55421,45.050555,-93.249955,Bangkok Market & Video Rental,Minneapolis,55411,45.0122375488281,-93.2875823974609
1282,55421,45.050555,-93.249955,Truong Thanh Grocery Store,Minneapolis,55404,44.9566803,-93.278389
1283,55421,45.050555,-93.249955,Vinai Market,Minneapolis,55429,45.0680961,-93.3281749
1284,55421,45.050555,-93.249955,Holy Land,Minneapolis,55418,45.0136833190918,-93.2468109130859
1285,55421,45.050555,-93.249955,Aldi,Mounds View,55112,45.1058124,-93.2096783
1286,55421,45.050555,-93.249955,Hy-Vee Grocery,Robbinsdale,55422,45.019764,-93.327618
1287,55421,45.050555,-93.249955,Sun Foods,Brooklyn Center,55429,45.07049,-93.3285
1288,55421,45.050555,-93.249955,Bill's Imported Foods,Minneapolis,55408,44.948070526123,-93.2891235351562
1289,55421,45.050555,-93.249955,Shanghai Market,Saint Paul,55108,44.9770126342773,-93.1655349731445
1290,55421,45.050555,-93.249955,Caspian Bistro & Marketplace,Minneapolis,55414,44.973218,-93.222054
1291,55421,45.050555,-93.249955,Little India,Minneapolis,55418,45.00713,-93.2468
1292,55421,45.050555,-93.249955,Aldi,Coon Rapids,55433,45.1307035690439,-93.2713830471039
1293,55421,45.050555,-93.249955,So Low Grocery Outlet,Minneapolis,55411,45.0126266479492,-93.2947692871094
1294,55421,45.050555,-93.249955,Eastside Food Cooperative,Minneapolis,55418,45.0147514,-93.2468109
1295,55421,45.050555,-93.249955,The Produce Exchange,Minneapolis,55407,44.948588517447,-93.260714154109
1296,55421,45.050555,-93.249955,Festival Foods,Brooklyn Park,55443,45.109403,-93.306298
1297,55421,45.050555,-93.249955,Minneapolis Farmers Market,Minneapolis,55405,44.9812499,-93.2858567
1298,55421,45.050555,-93.249955,Coastal Seafoods,Minneapolis,55404,44.959429,-93.242429
1299,55421,45.050555,-93.249955,The Herbivorous Butcher,Minneapolis,55413,44.9902328,-93.2539668
1300,55421,45.050555,-93.249955,Duc Loi Supermarket,Minneapolis,55404,44.9566612,-93.2774734
1301,55421,45.050555,-93.249955,Cub Foods,Saint Paul,55104,44.9554854,-93.1610195
1302,55421,45.050555,-93.249955,Lunds & Byerlys,Roseville,55113,45.0217986842788,-93.169967109729
1303,55421,45.050555,-93.249955,Whole Foods Market,Minneapolis,55401,44.982777,-93.269501
1304,55421,45.050555,-93.249955,The Wedge Community Co-op,Minneapolis,55405,44.96154,-93.2876
1305,55421,45.050555,-93.249955,Cub Foods,Minneapolis,55411,44.9982019,-93.2886701
1306,55421,45.050555,-93.249955,Hackenmueller Meats,Robbinsdale,55422,45.0306799,-93.33916
1307,55421,45.050555,-93.249955,Cub Foods,Brooklyn Center,55429,45.058837,-93.322601
1308,55421,45.050555,-93.249955,Surdyk's Liquor and Cheese Shop,Minneapolis,55414,44.98847,-93.25611
1309,55421,45.050555,-93.249955,Kowalski's Market & Wine Shop,Minneapolis,55405,44.95767,-93.29609
1310,55421,45.050555,-93.249955,Trader Joe's,St. Louis Park,55416,44.934593,-93.337399
1311,55421,45.050555,-93.249955,Noodles & Company,Minneapolis,55414,44.973395,-93.226172
1312,55421,45.050555,-93.249955,Penzeys Spices,Minneapolis,55408,44.9473114,-93.2986526
1313,55421,45.050555,-93.249955,Cub Foods,Minneapolis,55408,44.949566,-93.293808
1314,55421,45.050555,-93.249955,Grass Roots Gourmet,Minneapolis,55407,44.9484849,-93.2610135
1315,55422,45.009275,-93.341105,Jin Jin Shanghai Market,Hopkins,55343,44.9263148559104,-93.3864952602158
1316,55422,45.009275,-93.341105,Dragon Star Supermarket,Minneapolis,55445,45.0964781051424,-93.3781949803233
1317,55422,45.009275,-93.341105,Shuang Hur Oriental Market,Minneapolis,55408,44.9533109033489,-93.2781005263752
1318,55422,45.009275,-93.341105,Hy-Vee Grocery,Robbinsdale,55422,45.019764,-93.327618
1319,55422,45.009275,-93.341105,Truong Thanh Grocery Store,Minneapolis,55404,44.9566803,-93.278389
1320,55422,45.009275,-93.341105,Koom Siab Grocery & Deli,Minneapolis,55444,45.0949,-93.30191
1321,55422,45.009275,-93.341105,Vinai Market,Minneapolis,55429,45.0680961,-93.3281749
1322,55422,45.009275,-93.341105,Bill's Imported Foods,Minneapolis,55408,44.948070526123,-93.2891235351562
1323,55422,45.009275,-93.341105,Midtown Global Market,Minneapolis,55407,44.948566,-93.260711
1324,55422,45.009275,-93.341105,Hy-Vee,New Hope,55427,45.035021,-93.384083
1325,55422,45.009275,-93.341105,Bangkok Market & Video Rental,Minneapolis,55411,45.0122375488281,-93.2875823974609
1326,55422,45.009275,-93.341105,So Low Grocery Outlet,Minneapolis,55411,45.0126266479492,-93.2947692871094
1327,55422,45.009275,-93.341105,Hy Vee,Brooklyn Park,55445,45.1259403,-93.3566305
1328,55422,45.009275,-93.341105,Sun Foods,Brooklyn Center,55429,45.07049,-93.3285
1329,55422,45.009275,-93.341105,Cub Foods,Crystal,55422,45.0207015,-93.3477929
1330,55422,45.009275,-93.341105,The Produce Exchange,Minneapolis,55407,44.948588517447,-93.260714154109
1331,55422,45.009275,-93.341105,Ethnic Foods Company,Osseo,55369,45.11842,-93.40173
1332,55422,45.009275,-93.341105,Duc Loi Supermarket,Minneapolis,55404,44.9566612,-93.2774734
1333,55422,45.009275,-93.341105,Minneapolis Farmers Market,Minneapolis,55405,44.9812499,-93.2858567
1334,55422,45.009275,-93.341105,Festival Foods,Brooklyn Park,55443,45.109403,-93.306298
1335,55422,45.009275,-93.341105,Jerry's Foods,Edina,55436,44.9100629,-93.3544425
1336,55422,45.009275,-93.341105,Hackenmueller Meats,Robbinsdale,55422,45.0306799,-93.33916
1337,55422,45.009275,-93.341105,Cub Foods,Minneapolis,55411,44.9982019,-93.2886701
1338,55422,45.009275,-93.341105,The Herbivorous Butcher,Minneapolis,55413,44.9902328,-93.2539668
1339,55422,45.009275,-93.341105,Trader Joe's,St. Louis Park,55416,44.934593,-93.337399
1340,55422,45.009275,-93.341105,Aldi,Coon Rapids,55433,45.1307035690439,-93.2713830471039
1341,55422,45.009275,-93.341105,The Wedge Community Co-op,Minneapolis,55405,44.96154,-93.2876
1342,55422,45.009275,-93.341105,Whole Foods Market,Minneapolis,55401,44.982777,-93.269501
1343,55422,45.009275,-93.341105,Grass Roots Gourmet,Minneapolis,55407,44.9484849,-93.2610135
1344,55422,45.009275,-93.341105,Aldi,Richfield,55423,44.8885765075684,-93.3093566894531
1345,55422,45.009275,-93.341105,Kowalski's Market & Wine Shop,Minneapolis,55405,44.95767,-93.29609
1346,55422,45.009275,-93.341105,Cub Foods,Minneapolis,55408,44.949566,-93.293808
1347,55422,45.009275,-93.341105,Cub Foods,Brooklyn Center,55429,45.058837,-93.322601
1348,55422,45.009275,-93.341105,Penzeys Spices,Minneapolis,55408,44.9473114,-93.2986526
1349,55422,45.009275,-93.341105,Surdyk's Liquor and Cheese Shop,Minneapolis,55414,44.98847,-93.25611
1350,55423,44.877193,-93.281359,Hana Asian Market,Bloomington,55425,44.83685,-93.24967
1351,55423,44.877193,-93.281359,Chan Oriental Market,Minneapolis,55420,44.8395572,-93.2888149
1352,55423,44.877193,-93.281359,Asian Direct Oriental Market,Richfield,55423,44.86349,-93.26758
1353,55423,44.877193,-93.281359,Kt Oriental Market,Minneapolis,55423,44.86645,-93.28885
1354,55423,44.877193,-93.281359,United Noodles,Minneapolis,55404,44.958324,-93.2424698
1355,55423,44.877193,-93.281359,ShopForFresh,Edina,55439,44.8625488,-93.3573303
1356,55423,44.877193,-93.281359,TBS Mart,Bloomington,55420,44.860838,-93.26903
1357,55423,44.877193,-93.281359,Bharat Bazaar,Bloomington,55431,44.8575903,-93.3050049
1358,55423,44.877193,-93.281359,Groceries of the Orient,Burnsville,55337,44.7750499200215,-93.3186777681112
1359,55423,44.877193,-93.281359,Shuang Hur Oriental Market,Minneapolis,55408,44.9533109033489,-93.2781005263752
1360,55423,44.877193,-93.281359,Truong Thanh Grocery Store,Minneapolis,55404,44.9566803,-93.278389
1361,55423,44.877193,-93.281359,Midtown Global Market,Minneapolis,55407,44.948566,-93.260711
1362,55423,44.877193,-93.281359,Saigon Asian Food Market,Burnsville,55337,44.7884281,-93.2463804
1363,55423,44.877193,-93.281359,Shanghai Wholesale,Minneapolis,55413,44.9952895,-93.2103175
1364,55423,44.877193,-93.281359,Asian Direct Oriental Market,Savage,55378,44.778142,-93.333283
1365,55423,44.877193,-93.281359,Bill's Imported Foods,Minneapolis,55408,44.948070526123,-93.2891235351562
1366,55423,44.877193,-93.281359,Aldi,Richfield,55423,44.8885765075684,-93.3093566894531
1367,55423,44.877193,-93.281359,Lunds & Byerlys,Edina,55435,44.87329,-93.32734
1368,55423,44.877193,-93.281359,Caspian Bistro & Marketplace,Minneapolis,55414,44.973218,-93.222054
1369,55423,44.877193,-93.281359,Coastal Seafoods,Minneapolis,55404,44.959429,-93.242429
1370,55423,44.877193,-93.281359,The Produce Exchange,Minneapolis,55407,44.948588517447,-93.260714154109
1371,55423,44.877193,-93.281359,Jerry's Foods,Edina,55436,44.9100629,-93.3544425
1372,55423,44.877193,-93.281359,Duc Loi Supermarket,Minneapolis,55404,44.9566612,-93.2774734
1373,55423,44.877193,-93.281359,Minneapolis Farmers Market,Minneapolis,55405,44.9812499,-93.2858567
1374,55423,44.877193,-93.281359,Trader Joe's,St. Louis Park,55416,44.934593,-93.337399
1375,55423,44.877193,-93.281359,Whole Foods Market,Minneapolis,55401,44.982777,-93.269501
1376,55423,44.877193,-93.281359,The Herbivorous Butcher,Minneapolis,55413,44.9902328,-93.2539668
1377,55423,44.877193,-93.281359,The Wedge Community Co-op,Minneapolis,55405,44.96154,-93.2876
1378,55423,44.877193,-93.281359,Penzeys Spices,Minneapolis,55408,44.9473114,-93.2986526
1379,55423,44.877193,-93.281359,Grass Roots Gourmet,Minneapolis,55407,44.9484849,-93.2610135
1380,55423,44.877193,-93.281359,Kowalski's Market & Wine Shop,Minneapolis,55405,44.95767,-93.29609
1381,55423,44.877193,-93.281359,Cub Foods,Minneapolis,55408,44.949566,-93.293808
1382,55423,44.877193,-93.281359,Cub Foods,Minneapolis,55411,44.9982019,-93.2886701
1383,55423,44.877193,-93.281359,Noodles & Company,Bloomington,55425,44.85349,-93.242479
1384,55423,44.877193,-93.281359,Surdyk's Liquor and Cheese Shop,Minneapolis,55414,44.98847,-93.25611
1385,55423,44.877193,-93.281359,Noodles & Company,Minneapolis,55414,44.973395,-93.226172
1386,55426,44.95656,-93.381608,Jin Jin Shanghai Market,Hopkins,55343,44.9263148559104,-93.3864952602158
1387,55426,44.95656,-93.381608,ShopForFresh,Edina,55439,44.8625488,-93.3573303
1388,55426,44.95656,-93.381608,Hy-Vee Grocery,Robbinsdale,55422,45.019764,-93.327618
1389,55426,44.95656,-93.381608,Hy-Vee,New Hope,55427,45.035021,-93.384083
1390,55426,44.95656,-93.381608,Bharat Bazaar,Bloomington,55431,44.8575903,-93.3050049
1391,55426,44.95656,-93.381608,Sun Foods,Brooklyn Center,55429,45.07049,-93.3285
1392,55426,44.95656,-93.381608,Trader Joe's,St. Louis Park,55416,44.934593,-93.337399
1393,55426,44.95656,-93.381608,INDIA MARKET,Eden Prairie,55344,44.85248,-93.42976
1394,55426,44.95656,-93.381608,So Low Grocery Outlet,Minneapolis,55411,45.0126266479492,-93.2947692871094
1395,55426,44.95656,-93.381608,Vinai Market,Minneapolis,55429,45.0680961,-93.3281749
1396,55426,44.95656,-93.381608,Jerry's Foods,Edina,55436,44.9100629,-93.3544425
1397,55426,44.95656,-93.381608,Aldi,Richfield,55423,44.8885765075684,-93.3093566894531
1398,55426,44.95656,-93.381608,Hackenmueller Meats,Robbinsdale,55422,45.0306799,-93.33916
1399,55426,44.95656,-93.381608,Penzeys Spices,Minneapolis,55408,44.9473114,-93.2986526
1400,55426,44.95656,-93.381608,Lunds & Byerlys,Edina,55435,44.87329,-93.32734
1401,55426,44.95656,-93.381608,Kowalski's Market & Wine Shop,Minneapolis,55405,44.95767,-93.29609
1402,55426,44.95656,-93.381608,Cub Foods,Crystal,55422,45.0207015,-93.3477929
1403,55426,44.95656,-93.381608,Cub Foods,Minneapolis,55408,44.949566,-93.293808
1404,55426,44.95656,-93.381608,Cub Foods,Brooklyn Center,55429,45.058837,-93.322601
1405,55426,44.95656,-93.381608,Noodles & Company,Eden Prairie,55344,44.8592398218825,-93.443141990213
1406,55427,45.004595,-93.381351,Jin Jin Shanghai Market,Hopkins,55343,44.9263148559104,-93.3864952602158
1407,55427,45.004595,-93.381351,Dragon Star Supermarket,Minneapolis,55445,45.0964781051424,-93.3781949803233
1408,55427,45.004595,-93.381351,Koom Siab Grocery & Deli,Minneapolis,55444,45.0949,-93.30191
1409,55427,45.004595,-93.381351,Hy-Vee Grocery,Robbinsdale,55422,45.019764,-93.327618
1410,55427,45.004595,-93.381351,Hy-Vee,New Hope,55427,45.035021,-93.384083
1411,55427,45.004595,-93.381351,Vinai Market,Minneapolis,55429,45.0680961,-93.3281749
1412,55427,45.004595,-93.381351,Hy Vee,Brooklyn Park,55445,45.1259403,-93.3566305
1413,55427,45.004595,-93.381351,Sun Foods,Brooklyn Center,55429,45.07049,-93.3285
1414,55427,45.004595,-93.381351,Ethnic Foods Company,Osseo,55369,45.11842,-93.40173
1415,55427,45.004595,-93.381351,So Low Grocery Outlet,Minneapolis,55411,45.0126266479492,-93.2947692871094
1416,55427,45.004595,-93.381351,Cub Foods,Crystal,55422,45.0207015,-93.3477929
1417,55427,45.004595,-93.381351,Jerry's Foods,Edina,55436,44.9100629,-93.3544425
1418,55427,45.004595,-93.381351,Festival Foods,Brooklyn Park,55443,45.109403,-93.306298
1419,55427,45.004595,-93.381351,Trader Joe's,St. Louis Park,55416,44.934593,-93.337399
1420,55427,45.004595,-93.381351,Trader Joe's,Maple Grove,55369,45.092014174027,-93.4340381457739
1421,55427,45.004595,-93.381351,Hackenmueller Meats,Robbinsdale,55422,45.0306799,-93.33916
1422,55427,45.004595,-93.381351,Aldi,Richfield,55423,44.8885765075684,-93.3093566894531
1423,55427,45.004595,-93.381351,Cub Foods,Minneapolis,55408,44.949566,-93.293808
1424,55427,45.004595,-93.381351,Kowalski's Market & Wine Shop,Minneapolis,55405,44.95767,-93.29609
1425,55427,45.004595,-93.381351,Penzeys Spices,Minneapolis,55408,44.9473114,-93.2986526
1426,55427,45.004595,-93.381351,Cub Foods,Brooklyn Center,55429,45.058837,-93.322601
1427,55428,45.064039,-93.383509,Dragon Star Supermarket,Minneapolis,55445,45.0964781051424,-93.3781949803233
1428,55428,45.064039,-93.383509,Koom Siab Grocery & Deli,Minneapolis,55444,45.0949,-93.30191
1429,55428,45.064039,-93.383509,Vinai Market,Minneapolis,55429,45.0680961,-93.3281749
1430,55428,45.064039,-93.383509,Hy Vee,Brooklyn Park,55445,45.1259403,-93.3566305
1431,55428,45.064039,-93.383509,Sun Foods,Brooklyn Center,55429,45.07049,-93.3285
1432,55428,45.064039,-93.383509,Hy-Vee Grocery,Robbinsdale,55422,45.019764,-93.327618
1433,55428,45.064039,-93.383509,Hy-Vee,New Hope,55427,45.035021,-93.384083
1434,55428,45.064039,-93.383509,Ethnic Foods Company,Osseo,55369,45.11842,-93.40173
1435,55428,45.064039,-93.383509,Festival Foods,Brooklyn Park,55443,45.109403,-93.306298
1436,55428,45.064039,-93.383509,So Low Grocery Outlet,Minneapolis,55411,45.0126266479492,-93.2947692871094
1437,55428,45.064039,-93.383509,Trader Joe's,Maple Grove,55369,45.092014174027,-93.4340381457739
1438,55428,45.064039,-93.383509,Cub Foods,Crystal,55422,45.0207015,-93.3477929
1439,55428,45.064039,-93.383509,Cub Foods,Brooklyn Center,55429,45.058837,-93.322601
1440,55428,45.064039,-93.383509,Hackenmueller Meats,Robbinsdale,55422,45.0306799,-93.33916
1441,55428,45.064039,-93.383509,Penzeys Spices,Minneapolis,55408,44.9473114,-93.2986526
1442,55428,45.064039,-93.383509,Kowalski's Market & Wine Shop,Minneapolis,55405,44.95767,-93.29609
1443,55428,45.064039,-93.383509,Cub Foods,Minneapolis,55408,44.949566,-93.293808
1444,55429,45.063552,-93.341097,Dragon Star Supermarket,Minneapolis,55445,45.0964781051424,-93.3781949803233
1445,55429,45.063552,-93.341097,Koom Siab Grocery & Deli,Minneapolis,55444,45.0949,-93.30191
1446,55429,45.063552,-93.341097,Vinai Market,Minneapolis,55429,45.0680961,-93.3281749
1447,55429,45.063552,-93.341097,Sun Foods,Brooklyn Center,55429,45.07049,-93.3285
1448,55429,45.063552,-93.341097,Shuang Hur Oriental Market,Minneapolis,55408,44.9533109033489,-93.2781005263752
1449,55429,45.063552,-93.341097,Hy-Vee Grocery,Robbinsdale,55422,45.019764,-93.327618
1450,55429,45.063552,-93.341097,Hy Vee,Brooklyn Park,55445,45.1259403,-93.3566305
1451,55429,45.063552,-93.341097,Truong Thanh Grocery Store,Minneapolis,55404,44.9566803,-93.278389
1452,55429,45.063552,-93.341097,Midtown Global Market,Minneapolis,55407,44.948566,-93.260711
1453,55429,45.063552,-93.341097,Hy-Vee,New Hope,55427,45.035021,-93.384083
1454,55429,45.063552,-93.341097,Bangkok Market & Video Rental,Minneapolis,55411,45.0122375488281,-93.2875823974609
1455,55429,45.063552,-93.341097,Ethnic Foods Company,Osseo,55369,45.11842,-93.40173
1456,55429,45.063552,-93.341097,Bill's Imported Foods,Minneapolis,55408,44.948070526123,-93.2891235351562
1457,55429,45.063552,-93.341097,Aldi,Coon Rapids,55433,45.1307035690439,-93.2713830471039
1458,55429,45.063552,-93.341097,Festival Foods,Brooklyn Park,55443,45.109403,-93.306298
1459,55429,45.063552,-93.341097,So Low Grocery Outlet,Minneapolis,55411,45.0126266479492,-93.2947692871094
1460,55429,45.063552,-93.341097,Cub Foods,Brooklyn Center,55429,45.058837,-93.322601
1461,55429,45.063552,-93.341097,Minneapolis Farmers Market,Minneapolis,55405,44.9812499,-93.2858567
1462,55429,45.063552,-93.341097,Cub Foods,Crystal,55422,45.0207015,-93.3477929
1463,55429,45.063552,-93.341097,The Produce Exchange,Minneapolis,55407,44.948588517447,-93.260714154109
1464,55429,45.063552,-93.341097,Hackenmueller Meats,Robbinsdale,55422,45.0306799,-93.33916
1465,55429,45.063552,-93.341097,Duc Loi Supermarket,Minneapolis,55404,44.9566612,-93.2774734
1466,55429,45.063552,-93.341097,The Herbivorous Butcher,Minneapolis,55413,44.9902328,-93.2539668
1467,55429,45.063552,-93.341097,Cub Foods,Minneapolis,55411,44.9982019,-93.2886701
1468,55429,45.063552,-93.341097,The Wedge Community Co-op,Minneapolis,55405,44.96154,-93.2876
1469,55429,45.063552,-93.341097,Whole Foods Market,Minneapolis,55401,44.982777,-93.269501
1470,55429,45.063552,-93.341097,Penzeys Spices,Minneapolis,55408,44.9473114,-93.2986526
1471,55429,45.063552,-93.341097,Kowalski's Market & Wine Shop,Minneapolis,55405,44.95767,-93.29609
1472,55429,45.063552,-93.341097,Surdyk's Liquor and Cheese Shop,Minneapolis,55414,44.98847,-93.25611
1473,55429,45.063552,-93.341097,Grass Roots Gourmet,Minneapolis,55407,44.9484849,-93.2610135
1474,55429,45.063552,-93.341097,Cub Foods,Minneapolis,55408,44.949566,-93.293808
1475,55430,45.063112,-93.300411,Seoul Oriental Foods,Fridley,55432,45.0807533,-93.2411423
1476,55430,45.063112,-93.300411,Dragon Star Supermarket,Minneapolis,55445,45.0964781051424,-93.3781949803233
1477,55430,45.063112,-93.300411,Koom Siab Grocery & Deli,Minneapolis,55444,45.0949,-93.30191
1478,55430,45.063112,-93.300411,United Noodles,Minneapolis,55404,44.958324,-93.2424698
1479,55430,45.063112,-93.300411,Vinai Market,Minneapolis,55429,45.0680961,-93.3281749
1480,55430,45.063112,-93.300411,Sun Foods,Brooklyn Center,55429,45.07049,-93.3285
1481,55430,45.063112,-93.300411,Shuang Hur Oriental Market,Minneapolis,55408,44.9533109033489,-93.2781005263752
1482,55430,45.063112,-93.300411,Hy Vee,Brooklyn Park,55445,45.1259403,-93.3566305
1483,55430,45.063112,-93.300411,Hy-Vee Grocery,Robbinsdale,55422,45.019764,-93.327618
1484,55430,45.063112,-93.300411,Truong Thanh Grocery Store,Minneapolis,55404,44.9566803,-93.278389
1485,55430,45.063112,-93.300411,Bangkok Market & Video Rental,Minneapolis,55411,45.0122375488281,-93.2875823974609
1486,55430,45.063112,-93.300411,Midtown Global Market,Minneapolis,55407,44.948566,-93.260711
1487,55430,45.063112,-93.300411,Holy Land,Minneapolis,55418,45.0136833190918,-93.2468109130859
1488,55430,45.063112,-93.300411,Aldi,Coon Rapids,55433,45.1307035690439,-93.2713830471039
1489,55430,45.063112,-93.300411,Bill's Imported Foods,Minneapolis,55408,44.948070526123,-93.2891235351562
1490,55430,45.063112,-93.300411,Hy-Vee,New Hope,55427,45.035021,-93.384083
1491,55430,45.063112,-93.300411,Cub Foods,Brooklyn Center,55429,45.058837,-93.322601
1492,55430,45.063112,-93.300411,Little India,Minneapolis,55418,45.00713,-93.2468
1493,55430,45.063112,-93.300411,So Low Grocery Outlet,Minneapolis,55411,45.0126266479492,-93.2947692871094
1494,55430,45.063112,-93.300411,Festival Foods,Brooklyn Park,55443,45.109403,-93.306298
1495,55430,45.063112,-93.300411,Eastside Food Cooperative,Minneapolis,55418,45.0147514,-93.2468109
1496,55430,45.063112,-93.300411,Caspian Bistro & Marketplace,Minneapolis,55414,44.973218,-93.222054
1497,55430,45.063112,-93.300411,Minneapolis Farmers Market,Minneapolis,55405,44.9812499,-93.2858567
1498,55430,45.063112,-93.300411,Coastal Seafoods,Minneapolis,55404,44.959429,-93.242429
1499,55430,45.063112,-93.300411,Duc Loi Supermarket,Minneapolis,55404,44.9566612,-93.2774734
1500,55430,45.063112,-93.300411,The Herbivorous Butcher,Minneapolis,55413,44.9902328,-93.2539668
1501,55430,45.063112,-93.300411,The Produce Exchange,Minneapolis,55407,44.948588517447,-93.260714154109
1502,55430,45.063112,-93.300411,Whole Foods Market,Minneapolis,55401,44.982777,-93.269501
1503,55430,45.063112,-93.300411,Cub Foods,Minneapolis,55411,44.9982019,-93.2886701
1504,55430,45.063112,-93.300411,Hackenmueller Meats,Robbinsdale,55422,45.0306799,-93.33916
1505,55430,45.063112,-93.300411,The Wedge Community Co-op,Minneapolis,55405,44.96154,-93.2876
1506,55430,45.063112,-93.300411,Cub Foods,Crystal,55422,45.0207015,-93.3477929
1507,55430,45.063112,-93.300411,Surdyk's Liquor and Cheese Shop,Minneapolis,55414,44.98847,-93.25611
1508,55430,45.063112,-93.300411,Kowalski's Market & Wine Shop,Minneapolis,55405,44.95767,-93.29609
1509,55430,45.063112,-93.300411,Cub Foods,Minneapolis,55408,44.949566,-93.293808
1510,55430,45.063112,-93.300411,Penzeys Spices,Minneapolis,55408,44.9473114,-93.2986526
1511,55430,45.063112,-93.300411,Noodles & Company,Minneapolis,55414,44.973395,-93.226172
1512,55430,45.063112,-93.300411,Grass Roots Gourmet,Minneapolis,55407,44.9484849,-93.2610135
1513,55431,44.825914,-93.310998,Chan Oriental Market,Minneapolis,55420,44.8395572,-93.2888149
1514,55431,44.825914,-93.310998,Hana Asian Market,Bloomington,55425,44.83685,-93.24967
1515,55431,44.825914,-93.310998,Groceries of the Orient,Burnsville,55337,44.7750499200215,-93.3186777681112
1516,55431,44.825914,-93.310998,Asian Direct Oriental Market,Savage,55378,44.778142,-93.333283
1517,55431,44.825914,-93.310998,Saigon Asian Food Market,Burnsville,55337,44.7884281,-93.2463804
1518,55431,44.825914,-93.310998,Kt Oriental Market,Minneapolis,55423,44.86645,-93.28885
1519,55431,44.825914,-93.310998,Bharat Bazaar,Bloomington,55431,44.8575903,-93.3050049
1520,55431,44.825914,-93.310998,Jin Jin Shanghai Market,Hopkins,55343,44.9263148559104,-93.3864952602158
1521,55431,44.825914,-93.310998,Asian Direct Oriental Market,Richfield,55423,44.86349,-93.26758
1522,55431,44.825914,-93.310998,ShopForFresh,Edina,55439,44.8625488,-93.3573303
1523,55431,44.825914,-93.310998,TBS Mart,Bloomington,55420,44.860838,-93.26903
1524,55431,44.825914,-93.310998,Shuang Hur Oriental Market,Minneapolis,55408,44.9533109033489,-93.2781005263752
1525,55431,44.825914,-93.310998,Midtown Global Market,Minneapolis,55407,44.948566,-93.260711
1526,55431,44.825914,-93.310998,Hy-Vee Savage,Savage,55378,44.747856,-93.357161
1527,55431,44.825914,-93.310998,Bill's Imported Foods,Minneapolis,55408,44.948070526123,-93.2891235351562
1528,55431,44.825914,-93.310998,Lunds & Byerlys,Edina,55435,44.87329,-93.32734
1529,55431,44.825914,-93.310998,Aldi,Richfield,55423,44.8885765075684,-93.3093566894531
1530,55431,44.825914,-93.310998,Jerry's Foods,Edina,55436,44.9100629,-93.3544425
1531,55431,44.825914,-93.310998,The Produce Exchange,Minneapolis,55407,44.948588517447,-93.260714154109
1532,55431,44.825914,-93.310998,Trader Joe's,St. Louis Park,55416,44.934593,-93.337399
1533,55431,44.825914,-93.310998,Noodles & Company,Bloomington,55425,44.85349,-93.242479
1534,55431,44.825914,-93.310998,Walmart Supercenter,Apple Valley,55124,44.7343725,-93.2245864
1535,55431,44.825914,-93.310998,Penzeys Spices,Minneapolis,55408,44.9473114,-93.2986526
1536,55431,44.825914,-93.310998,Cub Foods,Minneapolis,55408,44.949566,-93.293808
1537,55431,44.825914,-93.310998,Grass Roots Gourmet,Minneapolis,55407,44.9484849,-93.2610135
1538,55432,45.096587,-93.254518,Seoul Oriental Foods,Fridley,55432,45.0807533,-93.2411423
1539,55432,45.096587,-93.254518,Koom Siab Grocery & Deli,Minneapolis,55444,45.0949,-93.30191
1540,55432,45.096587,-93.254518,Shanghai Wholesale,Minneapolis,55413,44.9952895,-93.2103175
1541,55432,45.096587,-93.254518,Sun Foods,Brooklyn Center,55429,45.07049,-93.3285
1542,55432,45.096587,-93.254518,Vinai Market,Minneapolis,55429,45.0680961,-93.3281749
1543,55432,45.096587,-93.254518,Aldi,Coon Rapids,55433,45.1307035690439,-93.2713830471039
1544,55432,45.096587,-93.254518,Shanghai Market,Saint Paul,55108,44.9770126342773,-93.1655349731445
1545,55432,45.096587,-93.254518,Aldi,Mounds View,55112,45.1058124,-93.2096783
1546,55432,45.096587,-93.254518,Festival Foods,Brooklyn Park,55443,45.109403,-93.306298
1547,55432,45.096587,-93.254518,Holy Land,Minneapolis,55418,45.0136833190918,-93.2468109130859
1548,55432,45.096587,-93.254518,Bangkok Market & Video Rental,Minneapolis,55411,45.0122375488281,-93.2875823974609
1549,55432,45.096587,-93.254518,Hy-Vee Grocery,Robbinsdale,55422,45.019764,-93.327618
1550,55432,45.096587,-93.254518,Caspian Bistro & Marketplace,Minneapolis,55414,44.973218,-93.222054
1551,55432,45.096587,-93.254518,Little India,Minneapolis,55418,45.00713,-93.2468
1552,55432,45.096587,-93.254518,Eastside Food Cooperative,Minneapolis,55418,45.0147514,-93.2468109
1553,55432,45.096587,-93.254518,So Low Grocery Outlet,Minneapolis,55411,45.0126266479492,-93.2947692871094
1554,55432,45.096587,-93.254518,Minneapolis Farmers Market,Minneapolis,55405,44.9812499,-93.2858567
1555,55432,45.096587,-93.254518,Lunds & Byerlys,Roseville,55113,45.0217986842788,-93.169967109729
1556,55432,45.096587,-93.254518,The Herbivorous Butcher,Minneapolis,55413,44.9902328,-93.2539668
1557,55432,45.096587,-93.254518,Hackenmueller Meats,Robbinsdale,55422,45.0306799,-93.33916
1558,55432,45.096587,-93.254518,Whole Foods Market,Minneapolis,55401,44.982777,-93.269501
1559,55432,45.096587,-93.254518,Cub Foods,Minneapolis,55411,44.9982019,-93.2886701
1560,55432,45.096587,-93.254518,Cub Foods,Brooklyn Center,55429,45.058837,-93.322601
1561,55432,45.096587,-93.254518,Surdyk's Liquor and Cheese Shop,Minneapolis,55414,44.98847,-93.25611
1562,55432,45.096587,-93.254518,Noodles & Company,Minneapolis,55414,44.973395,-93.226172
1563,55433,45.160411,-93.314839,Seoul Oriental Foods,Fridley,55432,45.0807533,-93.2411423
1564,55433,45.160411,-93.314839,Dragon Star Supermarket,Minneapolis,55445,45.0964781051424,-93.3781949803233
1565,55433,45.160411,-93.314839,Koom Siab Grocery & Deli,Minneapolis,55444,45.0949,-93.30191
1566,55433,45.160411,-93.314839,Hy Vee,Brooklyn Park,55445,45.1259403,-93.3566305
1567,55433,45.160411,-93.314839,Vinai Market,Minneapolis,55429,45.0680961,-93.3281749
1568,55433,45.160411,-93.314839,Aldi,Coon Rapids,55433,45.1307035690439,-93.2713830471039
1569,55433,45.160411,-93.314839,Sun Foods,Brooklyn Center,55429,45.07049,-93.3285
1570,55433,45.160411,-93.314839,Ethnic Foods Company,Osseo,55369,45.11842,-93.40173
1571,55433,45.160411,-93.314839,Festival Foods,Brooklyn Park,55443,45.109403,-93.306298
1572,55433,45.160411,-93.314839,Hy-Vee,New Hope,55427,45.035021,-93.384083
1573,55433,45.160411,-93.314839,Cub Foods,Brooklyn Center,55429,45.058837,-93.322601
1574,55434,45.163716,-93.250487,Seoul Oriental Foods,Fridley,55432,45.0807533,-93.2411423
1575,55434,45.163716,-93.250487,Koom Siab Grocery & Deli,Minneapolis,55444,45.0949,-93.30191
1576,55434,45.163716,-93.250487,Aldi,Coon Rapids,55433,45.1307035690439,-93.2713830471039
1577,55434,45.163716,-93.250487,Vinai Market,Minneapolis,55429,45.0680961,-93.3281749
1578,55434,45.163716,-93.250487,Sun Foods,Brooklyn Center,55429,45.07049,-93.3285
1579,55434,45.163716,-93.250487,Aldi,Mounds View,55112,45.1058124,-93.2096783
1580,55434,45.163716,-93.250487,Festival Foods,Brooklyn Park,55443,45.109403,-93.306298
1581,55434,45.163716,-93.250487,Cub Foods,Brooklyn Center,55429,45.058837,-93.322601
1582,55435,44.873981,-93.335255,Chan Oriental Market,Minneapolis,55420,44.8395572,-93.2888149
1583,55435,44.873981,-93.335255,Jin Jin Shanghai Market,Hopkins,55343,44.9263148559104,-93.3864952602158
1584,55435,44.873981,-93.335255,ShopForFresh,Edina,55439,44.8625488,-93.3573303
1585,55435,44.873981,-93.335255,Hana Asian Market,Bloomington,55425,44.83685,-93.24967
1586,55435,44.873981,-93.335255,Kt Oriental Market,Minneapolis,55423,44.86645,-93.28885
1587,55435,44.873981,-93.335255,Bharat Bazaar,Bloomington,55431,44.8575903,-93.3050049
1588,55435,44.873981,-93.335255,Asian Direct Oriental Market,Richfield,55423,44.86349,-93.26758
1589,55435,44.873981,-93.335255,Shuang Hur Oriental Market,Minneapolis,55408,44.9533109033489,-93.2781005263752
1590,55435,44.873981,-93.335255,Lunds & Byerlys,Edina,55435,44.87329,-93.32734
1591,55435,44.873981,-93.335255,Saigon Asian Food Market,Burnsville,55337,44.7884281,-93.2463804
1592,55435,44.873981,-93.335255,Asian Direct Oriental Market,Savage,55378,44.778142,-93.333283
1593,55435,44.873981,-93.335255,Truong Thanh Grocery Store,Minneapolis,55404,44.9566803,-93.278389
1594,55435,44.873981,-93.335255,Bill's Imported Foods,Minneapolis,55408,44.948070526123,-93.2891235351562
1595,55435,44.873981,-93.335255,TBS Mart,Bloomington,55420,44.860838,-93.26903
1596,55435,44.873981,-93.335255,Groceries of the Orient,Burnsville,55337,44.7750499200215,-93.3186777681112
1597,55435,44.873981,-93.335255,Midtown Global Market,Minneapolis,55407,44.948566,-93.260711
1598,55435,44.873981,-93.335255,Aldi,Richfield,55423,44.8885765075684,-93.3093566894531
1599,55435,44.873981,-93.335255,Hy-Vee Savage,Savage,55378,44.747856,-93.357161
1600,55435,44.873981,-93.335255,Jerry's Foods,Edina,55436,44.9100629,-93.3544425
1601,55435,44.873981,-93.335255,The Produce Exchange,Minneapolis,55407,44.948588517447,-93.260714154109
1602,55435,44.873981,-93.335255,Duc Loi Supermarket,Minneapolis,55404,44.9566612,-93.2774734
1603,55435,44.873981,-93.335255,Minneapolis Farmers Market,Minneapolis,55405,44.9812499,-93.2858567
1604,55435,44.873981,-93.335255,Trader Joe's,St. Louis Park,55416,44.934593,-93.337399
1605,55435,44.873981,-93.335255,Whole Foods Market,Minneapolis,55401,44.982777,-93.269501
1606,55435,44.873981,-93.335255,The Wedge Community Co-op,Minneapolis,55405,44.96154,-93.2876
1607,55435,44.873981,-93.335255,Penzeys Spices,Minneapolis,55408,44.9473114,-93.2986526
1608,55435,44.873981,-93.335255,The Herbivorous Butcher,Minneapolis,55413,44.9902328,-93.2539668
1609,55435,44.873981,-93.335255,Cub Foods,Minneapolis,55411,44.9982019,-93.2886701
1610,55435,44.873981,-93.335255,Kowalski's Market & Wine Shop,Minneapolis,55405,44.95767,-93.29609
1611,55435,44.873981,-93.335255,Grass Roots Gourmet,Minneapolis,55407,44.9484849,-93.2610135
1612,55435,44.873981,-93.335255,Surdyk's Liquor and Cheese Shop,Minneapolis,55414,44.98847,-93.25611
1613,55435,44.873981,-93.335255,Cub Foods,Minneapolis,55408,44.949566,-93.293808
1614,55436,44.907173,-93.375086,Jin Jin Shanghai Market,Hopkins,55343,44.9263148559104,-93.3864952602158
1615,55436,44.907173,-93.375086,ShopForFresh,Edina,55439,44.8625488,-93.3573303
1616,55436,44.907173,-93.375086,Chan Oriental Market,Minneapolis,55420,44.8395572,-93.2888149
1617,55436,44.907173,-93.375086,Kt Oriental Market,Minneapolis,55423,44.86645,-93.28885
1618,55436,44.907173,-93.375086,INDIA MARKET,Eden Prairie,55344,44.85248,-93.42976
1619,55436,44.907173,-93.375086,Bharat Bazaar,Bloomington,55431,44.8575903,-93.3050049
1620,55436,44.907173,-93.375086,Bill's Imported Foods,Minneapolis,55408,44.948070526123,-93.2891235351562
1621,55436,44.907173,-93.375086,Jerry's Foods,Edina,55436,44.9100629,-93.3544425
1622,55436,44.907173,-93.375086,Hy-Vee Grocery,Robbinsdale,55422,45.019764,-93.327618
1623,55436,44.907173,-93.375086,Lunds & Byerlys,Edina,55435,44.87329,-93.32734
1624,55436,44.907173,-93.375086,Bangkok Market & Video Rental,Minneapolis,55411,45.0122375488281,-93.2875823974609
1625,55436,44.907173,-93.375086,Aldi,Richfield,55423,44.8885765075684,-93.3093566894531
1626,55436,44.907173,-93.375086,Minneapolis Farmers Market,Minneapolis,55405,44.9812499,-93.2858567
1627,55436,44.907173,-93.375086,Trader Joe's,St. Louis Park,55416,44.934593,-93.337399
1628,55436,44.907173,-93.375086,So Low Grocery Outlet,Minneapolis,55411,45.0126266479492,-93.2947692871094
1629,55436,44.907173,-93.375086,Cub Foods,Minneapolis,55411,44.9982019,-93.2886701
1630,55436,44.907173,-93.375086,Cub Foods,Minneapolis,55408,44.949566,-93.293808
1631,55436,44.907173,-93.375086,The Wedge Community Co-op,Minneapolis,55405,44.96154,-93.2876
1632,55436,44.907173,-93.375086,Kowalski's Market & Wine Shop,Minneapolis,55405,44.95767,-93.29609
1633,55436,44.907173,-93.375086,Cub Foods,Crystal,55422,45.0207015,-93.3477929
1634,55436,44.907173,-93.375086,Penzeys Spices,Minneapolis,55408,44.9473114,-93.2986526
1635,55436,44.907173,-93.375086,Hackenmueller Meats,Robbinsdale,55422,45.0306799,-93.33916
1636,55436,44.907173,-93.375086,Noodles & Company,Eden Prairie,55344,44.8592398218825,-93.443141990213
1637,55437,44.822972,-93.344341,Groceries of the Orient,Burnsville,55337,44.7750499200215,-93.3186777681112
1638,55437,44.822972,-93.344341,Chan Oriental Market,Minneapolis,55420,44.8395572,-93.2888149
1639,55437,44.822972,-93.344341,Asian Direct Oriental Market,Savage,55378,44.778142,-93.333283
1640,55437,44.822972,-93.344341,Jin Jin Shanghai Market,Hopkins,55343,44.9263148559104,-93.3864952602158
1641,55437,44.822972,-93.344341,ShopForFresh,Edina,55439,44.8625488,-93.3573303
1642,55437,44.822972,-93.344341,Bharat Bazaar,Bloomington,55431,44.8575903,-93.3050049
1643,55437,44.822972,-93.344341,TBS Mart,Bloomington,55420,44.860838,-93.26903
1644,55437,44.822972,-93.344341,Hy-Vee Savage,Savage,55378,44.747856,-93.357161
1645,55437,44.822972,-93.344341,Kt Oriental Market,Minneapolis,55423,44.86645,-93.28885
1646,55437,44.822972,-93.344341,Asian Direct Oriental Market,Richfield,55423,44.86349,-93.26758
1647,55437,44.822972,-93.344341,INDIA MARKET,Eden Prairie,55344,44.85248,-93.42976
1648,55437,44.822972,-93.344341,Bill's Imported Foods,Minneapolis,55408,44.948070526123,-93.2891235351562
1649,55437,44.822972,-93.344341,Midtown Global Market,Minneapolis,55407,44.948566,-93.260711
1650,55437,44.822972,-93.344341,Lunds & Byerlys,Edina,55435,44.87329,-93.32734
1651,55437,44.822972,-93.344341,Aldi,Richfield,55423,44.8885765075684,-93.3093566894531
1652,55437,44.822972,-93.344341,Jerry's Foods,Edina,55436,44.9100629,-93.3544425
1653,55437,44.822972,-93.344341,The Produce Exchange,Minneapolis,55407,44.948588517447,-93.260714154109
1654,55437,44.822972,-93.344341,Trader Joe's,St. Louis Park,55416,44.934593,-93.337399
1655,55437,44.822972,-93.344341,Penzeys Spices,Minneapolis,55408,44.9473114,-93.2986526
1656,55437,44.822972,-93.344341,Cub Foods,Minneapolis,55408,44.949566,-93.293808
1657,55437,44.822972,-93.344341,Grass Roots Gourmet,Minneapolis,55407,44.9484849,-93.2610135
1658,55438,44.826731,-93.379393,Groceries of the Orient,Burnsville,55337,44.7750499200215,-93.3186777681112
1659,55438,44.826731,-93.379393,ShopForFresh,Edina,55439,44.8625488,-93.3573303
1660,55438,44.826731,-93.379393,Asian Direct Oriental Market,Savage,55378,44.778142,-93.333283
1661,55438,44.826731,-93.379393,Jin Jin Shanghai Market,Hopkins,55343,44.9263148559104,-93.3864952602158
1662,55438,44.826731,-93.379393,Bharat Bazaar,Bloomington,55431,44.8575903,-93.3050049
1663,55438,44.826731,-93.379393,INDIA MARKET,Eden Prairie,55344,44.85248,-93.42976
1664,55438,44.826731,-93.379393,Hy-Vee Savage,Savage,55378,44.747856,-93.357161
1665,55438,44.826731,-93.379393,Thai Tempo,Shakopee,55379,44.7797020457328,-93.4689168836003
1666,55438,44.826731,-93.379393,Lunds & Byerlys,Edina,55435,44.87329,-93.32734
1667,55438,44.826731,-93.379393,Aldi,Richfield,55423,44.8885765075684,-93.3093566894531
1668,55438,44.826731,-93.379393,Jerry's Foods,Edina,55436,44.9100629,-93.3544425
1669,55438,44.826731,-93.379393,Trader Joe's,St. Louis Park,55416,44.934593,-93.337399
1670,55438,44.826731,-93.379393,Noodles & Company,Eden Prairie,55344,44.8592398218825,-93.443141990213
1671,55438,44.826731,-93.379393,Cub Foods,Minneapolis,55408,44.949566,-93.293808
1672,55438,44.826731,-93.379393,Penzeys Spices,Minneapolis,55408,44.9473114,-93.2986526
1673,55441,45.007993,-93.425314,Jin Jin Shanghai Market,Hopkins,55343,44.9263148559104,-93.3864952602158
1674,55441,45.007993,-93.425314,Dragon Star Supermarket,Minneapolis,55445,45.0964781051424,-93.3781949803233
1675,55441,45.007993,-93.425314,Hy-Vee,New Hope,55427,45.035021,-93.384083
1676,55441,45.007993,-93.425314,Hy Vee,Brooklyn Park,55445,45.1259403,-93.3566305
1677,55441,45.007993,-93.425314,Ethnic Foods Company,Osseo,55369,45.11842,-93.40173
1678,55441,45.007993,-93.425314,Jerry's Foods,Edina,55436,44.9100629,-93.3544425
1679,55441,45.007993,-93.425314,Hackenmueller Meats,Robbinsdale,55422,45.0306799,-93.33916
1680,55441,45.007993,-93.425314,Cub Foods,Crystal,55422,45.0207015,-93.3477929
1681,55441,45.007993,-93.425314,Trader Joe's,St. Louis Park,55416,44.934593,-93.337399
1682,55441,45.007993,-93.425314,Trader Joe's,Maple Grove,55369,45.092014174027,-93.4340381457739
1683,55442,45.046291,-93.428928,Dragon Star Supermarket,Minneapolis,55445,45.0964781051424,-93.3781949803233
1684,55442,45.046291,-93.428928,Jin Jin Shanghai Market,Hopkins,55343,44.9263148559104,-93.3864952602158
1685,55442,45.046291,-93.428928,Hy-Vee,New Hope,55427,45.035021,-93.384083
1686,55442,45.046291,-93.428928,Hy Vee,Brooklyn Park,55445,45.1259403,-93.3566305
1687,55442,45.046291,-93.428928,Ethnic Foods Company,Osseo,55369,45.11842,-93.40173
1688,55442,45.046291,-93.428928,Trader Joe's,Maple Grove,55369,45.092014174027,-93.4340381457739
1689,55442,45.046291,-93.428928,Hackenmueller Meats,Robbinsdale,55422,45.0306799,-93.33916
1690,55442,45.046291,-93.428928,Cub Foods,Crystal,55422,45.0207015,-93.3477929
1691,55443,45.117609,-93.338118,Dragon Star Supermarket,Minneapolis,55445,45.0964781051424,-93.3781949803233
1692,55443,45.117609,-93.338118,Koom Siab Grocery & Deli,Minneapolis,55444,45.0949,-93.30191
1693,55443,45.117609,-93.338118,Hy Vee,Brooklyn Park,55445,45.1259403,-93.3566305
1694,55443,45.117609,-93.338118,Vinai Market,Minneapolis,55429,45.0680961,-93.3281749
1695,55443,45.117609,-93.338118,Sun Foods,Brooklyn Center,55429,45.07049,-93.3285
1696,55443,45.117609,-93.338118,Festival Foods,Brooklyn Park,55443,45.109403,-93.306298
1697,55443,45.117609,-93.338118,Aldi,Coon Rapids,55433,45.1307035690439,-93.2713830471039
1698,55443,45.117609,-93.338118,Ethnic Foods Company,Osseo,55369,45.11842,-93.40173
1699,55443,45.117609,-93.338118,Hy-Vee Grocery,Robbinsdale,55422,45.019764,-93.327618
1700,55443,45.117609,-93.338118,Bangkok Market & Video Rental,Minneapolis,55411,45.0122375488281,-93.2875823974609
1701,55443,45.117609,-93.338118,Hy-Vee,New Hope,55427,45.035021,-93.384083
1702,55443,45.117609,-93.338118,So Low Grocery Outlet,Minneapolis,55411,45.0126266479492,-93.2947692871094
1703,55443,45.117609,-93.338118,Cub Foods,Brooklyn Center,55429,45.058837,-93.322601
1704,55443,45.117609,-93.338118,Hackenmueller Meats,Robbinsdale,55422,45.0306799,-93.33916
1705,55443,45.117609,-93.338118,The Herbivorous Butcher,Minneapolis,55413,44.9902328,-93.2539668
1706,55443,45.117609,-93.338118,Cub Foods,Minneapolis,55411,44.9982019,-93.2886701
1707,55443,45.117609,-93.338118,Cub Foods,Crystal,55422,45.0207015,-93.3477929
1708,55444,45.107694,-93.303067,Koom Siab Grocery & Deli,Minneapolis,55444,45.0949,-93.30191
1709,55444,45.107694,-93.303067,Seoul Oriental Foods,Fridley,55432,45.0807533,-93.2411423
1710,55444,45.107694,-93.303067,Dragon Star Supermarket,Minneapolis,55445,45.0964781051424,-93.3781949803233
1711,55444,45.107694,-93.303067,Hy Vee,Brooklyn Park,55445,45.1259403,-93.3566305
1712,55444,45.107694,-93.303067,Vinai Market,Minneapolis,55429,45.0680961,-93.3281749
1713,55444,45.107694,-93.303067,Sun Foods,Brooklyn Center,55429,45.07049,-93.3285
1714,55444,45.107694,-93.303067,Festival Foods,Brooklyn Park,55443,45.109403,-93.306298
1715,55444,45.107694,-93.303067,Aldi,Coon Rapids,55433,45.1307035690439,-93.2713830471039
1716,55444,45.107694,-93.303067,Bangkok Market & Video Rental,Minneapolis,55411,45.0122375488281,-93.2875823974609
1717,55444,45.107694,-93.303067,Hy-Vee Grocery,Robbinsdale,55422,45.019764,-93.327618
1718,55444,45.107694,-93.303067,Hy-Vee,New Hope,55427,45.035021,-93.384083
1719,55444,45.107694,-93.303067,Holy Land,Minneapolis,55418,45.0136833190918,-93.2468109130859
1720,55444,45.107694,-93.303067,So Low Grocery Outlet,Minneapolis,55411,45.0126266479492,-93.2947692871094
1721,55444,45.107694,-93.303067,Little India,Minneapolis,55418,45.00713,-93.2468
1722,55444,45.107694,-93.303067,Eastside Food Cooperative,Minneapolis,55418,45.0147514,-93.2468109
1723,55444,45.107694,-93.303067,Minneapolis Farmers Market,Minneapolis,55405,44.9812499,-93.2858567
1724,55444,45.107694,-93.303067,Cub Foods,Brooklyn Center,55429,45.058837,-93.322601
1725,55444,45.107694,-93.303067,The Herbivorous Butcher,Minneapolis,55413,44.9902328,-93.2539668
1726,55444,45.107694,-93.303067,Hackenmueller Meats,Robbinsdale,55422,45.0306799,-93.33916
1727,55444,45.107694,-93.303067,Cub Foods,Minneapolis,55411,44.9982019,-93.2886701
1728,55444,45.107694,-93.303067,Whole Foods Market,Minneapolis,55401,44.982777,-93.269501
1729,55444,45.107694,-93.303067,Cub Foods,Crystal,55422,45.0207015,-93.3477929
1730,55444,45.107694,-93.303067,Surdyk's Liquor and Cheese Shop,Minneapolis,55414,44.98847,-93.25611
1731,55446,45.046438,-93.485395,Ethnic Foods Company,Osseo,55369,45.11842,-93.40173
1732,55446,45.046438,-93.485395,Trader Joe's,Maple Grove,55369,45.092014174027,-93.4340381457739
1733,55447,45.001581,-93.490856,Ethnic Foods Company,Osseo,55369,45.11842,-93.40173
1734,55447,45.001581,-93.490856,Trader Joe's,Maple Grove,55369,45.092014174027,-93.4340381457739
1735,55448,45.193911,-93.299952,Dragon Star Supermarket,Minneapolis,55445,45.0964781051424,-93.3781949803233
1736,55448,45.193911,-93.299952,Hy Vee,Brooklyn Park,55445,45.1259403,-93.3566305
1737,55448,45.193911,-93.299952,Seoul Oriental Foods,Fridley,55432,45.0807533,-93.2411423
1738,55448,45.193911,-93.299952,Koom Siab Grocery & Deli,Minneapolis,55444,45.0949,-93.30191
1739,55448,45.193911,-93.299952,Aldi,Coon Rapids,55433,45.1307035690439,-93.2713830471039
1740,55448,45.193911,-93.299952,Vinai Market,Minneapolis,55429,45.0680961,-93.3281749
1741,55448,45.193911,-93.299952,Sun Foods,Brooklyn Center,55429,45.07049,-93.3285
1742,55448,45.193911,-93.299952,Festival Foods,Brooklyn Park,55443,45.109403,-93.306298
1743,55449,45.177288,-93.181914,Seoul Oriental Foods,Fridley,55432,45.0807533,-93.2411423
1744,55449,45.177288,-93.181914,Aldi,Mounds View,55112,45.1058124,-93.2096783
1745,55449,45.177288,-93.181914,Aldi,Coon Rapids,55433,45.1307035690439,-93.2713830471039
1746,55449,45.177288,-93.181914,Cub Foods,Arden Hills,55126,45.0539865,-93.1471417
